{"type":"FeatureCollection","features":[{"type":"Feature","id":"v1_b_P001_b_agiu","geometry":{"type":"Polygon","coordinates":[[[26.100077,44.440666],[26.10013,44.44055],[26.100271,44.440583],[26.100341,44.4406],[26.100545,44.440648],[26.10072,44.440689],[26.100682,44.440774],[26.100666,44.440805],[26.100077,44.440666]]]},"properties":{"building_id":"v1_b_P001_b_agiu","ref":"way/162494231 (Bl. Scala, 10 levels = Scala II, the replacement block)","role":"today_on_site","source":"osm"}},{"type":"Feature","id":"v1_b_P001_b_ateneul","geometry":{"type":"Polygon","coordinates":[[[26.096937,44.441403],[26.097026,44.441311],[26.096934,44.441267],[26.09712,44.44107],[26.097215,44.441115],[26.097294,44.441033],[26.097366,44.441069],[26.097622,44.441196],[26.097788,44.441278],[26.097536,44.441703],[26.097259,44.441563],[26.097213,44.441539],[26.097009,44.441438],[26.096974,44.441421],[26.096937,44.441403]]]},"properties":{"building_id":"v1_b_P001_b_ateneul","ref":"way/16291602","role":"building","source":"osm"}},{"type":"Feature","id":"v1_b_P001_b_aula_rectoratului","geometry":{"type":"Polygon","coordinates":[[[26.101767,44.435528],[26.101866,44.435547],[26.10187,44.435557],[26.101881,44.435553],[26.101898,44.435552],[26.101914,44.435556],[26.101926,44.435565],[26.101931,44.435573],[26.101931,44.435584],[26.101924,44.435595],[26.101947,44.435782],[26.101955,44.435787],[26.101962,44.435793],[26.101967,44.4358],[26.10197,44.435808],[26.101971,44.435817],[26.101968,44.435826],[26.101962,44.435835],[26.101953,44.435843],[26.101955,44.43585],[26.101834,44.436074],[26.101826,44.436082],[26.101816,44.436088],[26.101804,44.436094],[26.10179,44.436098],[26.101775,44.4361],[26.101762,44.4361],[26.101476,44.436029],[26.101469,44.436043],[26.101427,44.436033],[26.101303,44.436002],[26.10131,44.435988],[26.100992,44.43591],[26.100982,44.43593],[26.100817,44.435888],[26.100646,44.435844],[26.100655,44.435826],[26.100335,44.435747],[26.10033,44.435758],[26.100118,44.435704],[26.100123,44.435694],[26.099602,44.435565],[26.099591,44.435561],[26.099583,44.435557],[26.099576,44.43555],[26.099571,44.435544],[26.099568,44.435536],[26.099568,44.435528],[26.09961,44.435182],[26.099613,44.435178],[26.099618,44.435175],[26.09971,44.435144],[26.099716,44.435142],[26.099722,44.435142],[26.099931,44.435181],[26.100186,44.43523],[26.100178,44.435253],[26.10023,44.435263],[26.100271,44.435271],[26.100279,44.435247],[26.100374,44.435265],[26.100469,44.435283],[26.10046,44.435307],[26.100856,44.435382],[26.100865,44.435358],[26.101,44.435383],[26.101134,44.435409],[26.101125,44.435433],[26.101469,44.435498],[26.101478,44.435474],[26.101585,44.435494],[26.101694,44.435514],[26.101729,44.435521],[26.101767,44.435528]]]},"properties":{"building_id":"v1_b_P001_b_aula_rectoratului","ref":"way/1001039869","role":"building","source":"osm"}},{"type":"Feature","id":"v1_b_P001_b_brosteni","geometry":{"type":"Polygon","coordinates":[[[26.098364,44.445017],[26.098423,44.444894],[26.098456,44.444831],[26.098473,44.444828],[26.09848,44.444812],[26.098465,44.444801],[26.098424,44.444791],[26.098422,44.444777],[26.098372,44.444762],[26.098325,44.444748],[26.098292,44.444749],[26.098263,44.44476],[26.098254,44.444771],[26.098244,44.444783],[26.098234,44.444808],[26.098216,44.444803],[26.098141,44.444961],[26.098315,44.445006],[26.098364,44.445017]]]},"properties":{"building_id":"v1_b_P001_b_brosteni","ref":"way/283091403 (10-level apartment block at the NE corner Magheru x Take Ionescu; presumed replacement, not confirmed)","role":"today_on_site","source":"osm"}},{"type":"Feature","id":"v1_b_P001_b_fac_medicina_generala","geometry":{"type":"Polygon","coordinates":[[[26.068664,44.43578],[26.070362,44.436209],[26.07091,44.435287],[26.071024,44.435242],[26.070616,44.434984],[26.070636,44.434352],[26.068953,44.43433],[26.068737,44.435408],[26.068677,44.435703],[26.068664,44.43578]]]},"properties":{"building_id":"v1_b_P001_b_fac_medicina_generala","ref":"way/23608617 (UMF Carol Davila campus polygon that covers the point; the palace is not mapped as a separate building)","role":"building","source":"osm"}},{"type":"Feature","id":"v1_b_P001_b_hotel_ambasador","geometry":{"type":"Polygon","coordinates":[[[26.099653,44.441759],[26.099522,44.441742],[26.099297,44.442171],[26.099496,44.442182],[26.099513,44.442143],[26.099643,44.44217],[26.099635,44.442186],[26.099731,44.442189],[26.09973,44.442133],[26.099685,44.442126],[26.099709,44.442048],[26.099727,44.442043],[26.099723,44.441929],[26.09967,44.441914],[26.09966,44.441893],[26.099692,44.441831],[26.099716,44.44183],[26.099716,44.441773],[26.099653,44.441759]]]},"properties":{"building_id":"v1_b_P001_b_hotel_ambasador","ref":"way/442813528","role":"building","source":"osm"}},{"type":"Feature","id":"v1_b_P001_b_hotel_union","geometry":{"type":"Polygon","coordinates":[[[26.098906,44.437334],[26.099217,44.437396],[26.099476,44.437447],[26.099519,44.437225],[26.099562,44.437214],[26.099546,44.437179],[26.099618,44.43716],[26.09954,44.437024],[26.099197,44.437131],[26.099047,44.437204],[26.098937,44.437288],[26.098906,44.437334]]]},"properties":{"building_id":"v1_b_P001_b_hotel_union","ref":"way/171237958 (Hotel Union, 9 levels)","role":"building","source":"osm"}},{"type":"Feature","id":"v1_b_P001_b_hotel_victoria","geometry":{"type":"Polygon","coordinates":[[[26.097265,44.432734],[26.097048,44.432399],[26.09633,44.432614],[26.096336,44.432646],[26.0963,44.432643],[26.096261,44.432645],[26.096213,44.43265],[26.096169,44.432659],[26.096126,44.432672],[26.096093,44.432685],[26.09606,44.432701],[26.096028,44.432724],[26.096007,44.432748],[26.095995,44.432768],[26.095987,44.432793],[26.095989,44.432815],[26.096001,44.432838],[26.096022,44.432857],[26.096043,44.43287],[26.096066,44.432881],[26.096089,44.432888],[26.096116,44.432894],[26.096151,44.432897],[26.096189,44.4329],[26.096232,44.432899],[26.096272,44.432894],[26.096312,44.432886],[26.096347,44.432875],[26.096374,44.432864],[26.09641,44.432847],[26.096419,44.432874],[26.097265,44.432734]]]},"properties":{"building_id":"v1_b_P001_b_hotel_victoria","ref":"way/150803285 (Bucharest Financial Plaza, Calea Victoriei 15, what stands on the plot today)","role":"today_on_site","source":"osm"}},{"type":"Feature","id":"v1_b_P001_b_palatul_mttc","geometry":{"type":"Polygon","coordinates":[[[26.077517,44.444885],[26.077693,44.444767],[26.077634,44.444721],[26.077475,44.444597],[26.076989,44.444215],[26.076856,44.444111],[26.076787,44.444058],[26.0766,44.444183],[26.077517,44.444885]]]},"properties":{"building_id":"v1_b_P001_b_palatul_mttc","ref":"way/405553833 (12 levels, office=government: the front block P+11; with way/405553834 and way/405553835, 10 levels, the side wings)","role":"building","source":"osm"}},{"type":"Feature","id":"v1_b_P001_b_palatul_telefoanelor","geometry":{"type":"Polygon","coordinates":[[[26.097564,44.436465],[26.097434,44.436481],[26.097416,44.436482],[26.097399,44.436482],[26.097383,44.436479],[26.097145,44.436416],[26.097107,44.436115],[26.09718,44.436104],[26.097176,44.436092],[26.097269,44.436079],[26.097278,44.436111],[26.09732,44.436105],[26.097351,44.436211],[26.097493,44.436191],[26.097479,44.436138],[26.09757,44.436134],[26.097641,44.436133],[26.09778,44.436127],[26.097804,44.436397],[26.097757,44.436442],[26.097564,44.436465]]]},"properties":{"building_id":"v1_b_P001_b_palatul_telefoanelor","ref":"way/34910669","role":"building","source":"osm"}},{"type":"Feature","id":"v1_b_P001_b_pherikyde","geometry":{"type":"Polygon","coordinates":[[[26.10111,44.43891],[26.101159,44.43891],[26.101195,44.4389],[26.101251,44.438883],[26.101383,44.439056],[26.101278,44.439077],[26.101303,44.43914],[26.101426,44.439116],[26.101465,44.439201],[26.10145,44.439191],[26.101412,44.439194],[26.101407,44.439184],[26.101308,44.439196],[26.101243,44.439204],[26.101212,44.439206],[26.101163,44.439196],[26.100986,44.43915],[26.100967,44.439192],[26.100828,44.439169],[26.100868,44.439093],[26.100912,44.438998],[26.101011,44.439023],[26.101024,44.439005],[26.101029,44.438987],[26.10095,44.438942],[26.100971,44.438896],[26.101017,44.4389],[26.101067,44.438909],[26.10111,44.43891]]]},"properties":{"building_id":"v1_b_P001_b_pherikyde","ref":"way/232464718 (apartments polygon touching the address node; no tags, identity inferred from position next to node 24)","role":"building","source":"osm"}},{"type":"Feature","id":"v1_b_P001_b_spital_caritas","geometry":{"type":"Polygon","coordinates":[[[26.118921,44.427605],[26.117331,44.427698],[26.117395,44.428261],[26.117755,44.428262],[26.117834,44.428314],[26.118029,44.428316],[26.118157,44.428447],[26.118299,44.428442],[26.118383,44.42847],[26.118521,44.428545],[26.118603,44.428584],[26.118891,44.428654],[26.118918,44.428596],[26.119116,44.428611],[26.118921,44.427605]]]},"properties":{"building_id":"v1_b_P001_b_spital_caritas","ref":"way/84203454 (Spitalul Clinic Caritas, historic=yes)","role":"building","source":"osm"}},{"type":"Feature","id":"v1_b_P001_b_spital_chirurgie_plastica","geometry":{"type":"Polygon","coordinates":[[[26.07951,44.458877],[26.079633,44.458574],[26.079317,44.458509],[26.079284,44.458591],[26.079369,44.458609],[26.079382,44.45869],[26.079296,44.458744],[26.079198,44.458724],[26.079165,44.458805],[26.07951,44.458877]]]},"properties":{"building_id":"v1_b_P001_b_spital_chirurgie_plastica","ref":"way/244846500","role":"building","source":"osm"}},{"type":"Feature","id":"v1_b_P001_b_spital_colentina","geometry":{"type":"Polygon","coordinates":[[[26.115453,44.454658],[26.11516,44.453534],[26.114987,44.452873],[26.114029,44.452948],[26.11271,44.453063],[26.111595,44.453069],[26.111627,44.453874],[26.111712,44.454901],[26.115453,44.454658]]]},"properties":{"building_id":"v1_b_P001_b_spital_colentina","ref":"way/242479478","role":"building","source":"osm"}},{"type":"Feature","id":"v1_b_P001_b_spital_fundeni","geometry":{"type":"Polygon","coordinates":[[[26.156094,44.465525],[26.156273,44.46549],[26.156227,44.46537],[26.156409,44.465335],[26.156542,44.465684],[26.156359,44.465719],[26.156323,44.465623],[26.155833,44.465718],[26.15587,44.465816],[26.155668,44.465855],[26.155537,44.46551],[26.155674,44.465483],[26.155717,44.465598],[26.155895,44.465563],[26.15578,44.465262],[26.155145,44.465385],[26.155089,44.465237],[26.15662,44.464941],[26.156673,44.465078],[26.155976,44.465213],[26.156094,44.465525]]]},"properties":{"building_id":"v1_b_P001_b_spital_fundeni","ref":"way/37196543 (Clădirea A, hospital) within campus way/23737371","role":"building","source":"osm"}},{"type":"Feature","id":"v1_b_P001_b_spital_grivita","geometry":{"type":"Polygon","coordinates":[[[26.079146,44.456658],[26.079349,44.45647],[26.079081,44.456322],[26.0791,44.456305],[26.078944,44.456219],[26.078782,44.456368],[26.078813,44.456386],[26.078722,44.45647],[26.078798,44.456512],[26.078813,44.456498],[26.078857,44.456522],[26.078873,44.456508],[26.079146,44.456658]]]},"properties":{"building_id":"v1_b_P001_b_spital_grivita","ref":"way/156654280 (6 levels)","role":"building","source":"osm"}},{"type":"Feature","id":"v1_b_P001_b_wilson","geometry":{"type":"Polygon","coordinates":[[[26.099931,44.439566],[26.099979,44.439478],[26.100068,44.439313],[26.10001,44.439293],[26.099968,44.439263],[26.099951,44.439228],[26.099948,44.439207],[26.099843,44.43922],[26.099761,44.43923],[26.099793,44.439334],[26.099827,44.439329],[26.099772,44.439462],[26.099653,44.439431],[26.09963,44.43948],[26.099766,44.439522],[26.099931,44.439566]]]},"properties":{"building_id":"v1_b_P001_b_wilson","ref":"way/337861945 (apartments, 11 levels, 'Sc. A'; probable part of the Wilson block)","role":"building","source":"osm"}},{"type":"Feature","id":"v1_b_X004_b_incerc_pantelimon","geometry":{"type":"Polygon","coordinates":[[[26.160654,44.441988],[26.160662,44.442121],[26.160666,44.442159],[26.160846,44.442154],[26.160866,44.442416],[26.16094,44.442414],[26.160942,44.442445],[26.161157,44.442438],[26.161138,44.442149],[26.161187,44.442148],[26.161251,44.442146],[26.162134,44.442114],[26.162169,44.442099],[26.162191,44.442076],[26.162901,44.439788],[26.162382,44.439653],[26.162183,44.43915],[26.162143,44.439053],[26.160439,44.439393],[26.160013,44.439479],[26.15999,44.439521],[26.159254,44.440769],[26.158389,44.442204],[26.158462,44.44223],[26.158482,44.442236],[26.158501,44.442237],[26.159108,44.442215],[26.159165,44.442212],[26.15916,44.442148],[26.159089,44.441291],[26.159094,44.441231],[26.15912,44.441177],[26.159144,44.441162],[26.159391,44.441093],[26.159404,44.441076],[26.159412,44.441036],[26.15941,44.440882],[26.159429,44.440837],[26.159448,44.44082],[26.159511,44.44076],[26.159561,44.440726],[26.160042,44.440712],[26.160085,44.441292],[26.160465,44.44128],[26.160472,44.441334],[26.160547,44.441331],[26.160596,44.441773],[26.160637,44.441787],[26.160654,44.441988]]]},"properties":{"building_id":"v1_b_X004_b_incerc_pantelimon","ref":"way/1133248207 (campus amenity polygon, 266 Șos. Pantelimon)","role":"building","source":"osm"}},{"type":"Feature","id":"v1_b_X015_b_centrul_calcul_mttc","geometry":{"type":"Polygon","coordinates":[[[26.078685,44.444045],[26.078396,44.443822],[26.078457,44.443782],[26.078475,44.443796],[26.078741,44.44362],[26.078766,44.443618],[26.078937,44.443747],[26.079005,44.443701],[26.079003,44.443699],[26.078997,44.443703],[26.078986,44.443695],[26.079031,44.443665],[26.079132,44.443742],[26.079096,44.443766],[26.07905,44.443732],[26.078979,44.443779],[26.078995,44.443792],[26.078994,44.443807],[26.078734,44.443979],[26.078738,44.443982],[26.078724,44.443991],[26.078744,44.444006],[26.078685,44.444045]]]},"properties":{"building_id":"v1_b_X015_b_centrul_calcul_mttc","ref":"way/293214269 (Informatică Feroviară, 3 levels, Str. Gării de Nord 1)","role":"today_on_site","source":"osm"}},{"type":"Feature","id":"v1_b_X016_b_od16a_bd_pacii","geometry":{"type":"Polygon","coordinates":[[[26.03045,44.433816],[26.030451,44.433709],[26.030504,44.433709],[26.030505,44.433599],[26.0306,44.4336],[26.030599,44.433619],[26.030682,44.433619],[26.030681,44.433675],[26.030703,44.433675],[26.030702,44.433766],[26.030617,44.433766],[26.030617,44.433791],[26.030617,44.433837],[26.030541,44.433837],[26.030541,44.433816],[26.03045,44.433816]]]},"properties":{"building_id":"v1_b_X016_b_od16a_bd_pacii","ref":"way/153173553","role":"building","source":"osm"}},{"type":"Feature","id":"v1_b_X016_b_od16b_bd_pacii","geometry":{"type":"Polygon","coordinates":[[[26.028087,44.433818],[26.028086,44.433866],[26.027955,44.433864],[26.027959,44.433648],[26.028143,44.43365],[26.028141,44.433728],[26.028089,44.433727],[26.028087,44.433818]]]},"properties":{"building_id":"v1_b_X016_b_od16b_bd_pacii","ref":"way/274179988","role":"building","source":"osm"}},{"type":"Feature","id":"v1_b_X017_b_almo_obor","geometry":{"type":"Polygon","coordinates":[[[26.126865,44.451363],[26.126496,44.451223],[26.125724,44.450147],[26.125762,44.450097],[26.125505,44.449999],[26.125884,44.449492],[26.126146,44.449591],[26.126214,44.449617],[26.126284,44.449524],[26.126799,44.44972],[26.126955,44.449779],[26.1273,44.449911],[26.127806,44.450103],[26.127685,44.450265],[26.127558,44.450435],[26.127462,44.450564],[26.127299,44.450781],[26.127203,44.45091],[26.126984,44.451204],[26.126865,44.451363]]]},"properties":{"building_id":"v1_b_X017_b_almo_obor","ref":"way/23705784 (Bucur Obor retail, 1975); tall body probably way/205056118 (Bl. ALMO 2)","role":"building","source":"osm"}},{"type":"Feature","id":"v1_b_X017_b_bl47_sos_pantelimon_256","geometry":{"type":"Polygon","coordinates":[[[26.157599,44.441809],[26.157657,44.442316],[26.158382,44.44258],[26.15908,44.442555],[26.159076,44.442494],[26.159124,44.442492],[26.159174,44.44249],[26.15917,44.442422],[26.159119,44.442424],[26.159072,44.442425],[26.159068,44.44236],[26.159012,44.442362],[26.158962,44.442363],[26.158964,44.442433],[26.158606,44.442448],[26.158604,44.442414],[26.1586,44.442377],[26.158506,44.44238],[26.158512,44.442451],[26.158424,44.442455],[26.15822,44.442382],[26.158263,44.44232],[26.1582,44.442297],[26.158175,44.442287],[26.158126,44.44235],[26.157823,44.442232],[26.157818,44.442186],[26.157863,44.442183],[26.157905,44.442181],[26.157899,44.442124],[26.157806,44.442128],[26.157794,44.441984],[26.157879,44.44198],[26.157876,44.441942],[26.157874,44.441909],[26.157787,44.441913],[26.157775,44.4418],[26.157599,44.441809]]]},"properties":{"building_id":"v1_b_X017_b_bl47_sos_pantelimon_256","ref":"way/28530710 (Bl. 47)","role":"building","source":"osm"}},{"type":"Feature","id":"v1_b_X017_b_bl59_60_sos_pantelimon","geometry":{"type":"Polygon","coordinates":[[[26.154079,44.442969],[26.154149,44.442964],[26.154154,44.442996],[26.154797,44.442946],[26.154792,44.442902],[26.154781,44.442832],[26.154632,44.442844],[26.154623,44.44278],[26.154562,44.442785],[26.154508,44.442789],[26.154517,44.442849],[26.154315,44.442864],[26.154263,44.442868],[26.154242,44.44273],[26.154332,44.442723],[26.154326,44.442683],[26.15432,44.442643],[26.154235,44.44265],[26.154208,44.442471],[26.154286,44.442465],[26.154279,44.442421],[26.154273,44.442381],[26.154192,44.442387],[26.154176,44.442284],[26.153977,44.442299],[26.154079,44.442969]]]},"properties":{"building_id":"v1_b_X017_b_bl59_60_sos_pantelimon","ref":"way/104485442 (Bl. 59-60, 14 levels, 4 staircases A-D)","role":"building","source":"osm"}},{"type":"Feature","id":"v1_b_X018_b_ase","geometry":{"type":"Polygon","coordinates":[[[26.096569,44.448239],[26.096598,44.448242],[26.096904,44.448228],[26.097092,44.448215],[26.097686,44.448216],[26.097682,44.448037],[26.097367,44.448046],[26.097359,44.447955],[26.097692,44.447925],[26.097701,44.447759],[26.097657,44.447503],[26.097895,44.44748],[26.097923,44.44747],[26.097949,44.447441],[26.098548,44.447467],[26.098544,44.447544],[26.09853,44.447814],[26.098755,44.447834],[26.098768,44.448129],[26.099186,44.448094],[26.099223,44.448026],[26.099211,44.447596],[26.099142,44.447499],[26.09918,44.447013],[26.098206,44.446997],[26.098198,44.447141],[26.098028,44.447191],[26.097823,44.447204],[26.097816,44.447305],[26.097711,44.447307],[26.09742,44.447316],[26.097216,44.447198],[26.09714,44.447263],[26.096982,44.447354],[26.096821,44.44741],[26.096661,44.447438],[26.096637,44.447457],[26.096569,44.448239]]]},"properties":{"building_id":"v1_b_X018_b_ase","ref":"way/942675763","role":"building","source":"osm"}},{"type":"Feature","id":"v1_b_X018_b_hotel_dorobanti","geometry":{"type":"Polygon","coordinates":[[[26.099272,44.446796],[26.099412,44.44621],[26.099384,44.446206],[26.099398,44.446136],[26.098907,44.446095],[26.098843,44.446352],[26.09847,44.446301],[26.09844,44.446439],[26.09858,44.446455],[26.098525,44.446696],[26.098528,44.446699],[26.09852,44.446699],[26.098503,44.446706],[26.098496,44.446719],[26.098501,44.446732],[26.098516,44.446741],[26.098535,44.446742],[26.098551,44.446735],[26.098554,44.446732],[26.098575,44.446734],[26.098556,44.446818],[26.098657,44.446826],[26.09866,44.446806],[26.098757,44.446815],[26.09876,44.446798],[26.098856,44.446806],[26.098859,44.44679],[26.098948,44.446798],[26.098953,44.446781],[26.099045,44.446791],[26.099049,44.446773],[26.099272,44.446796]]]},"properties":{"building_id":"v1_b_X018_b_hotel_dorobanti","ref":"way/29819032 (building:levels=18, start_date=1976)","role":"building","source":"osm"}},{"type":"Feature","id":"v1_b_X018_b_hotel_intercontinental","geometry":{"type":"Polygon","coordinates":[[[26.102115,44.437548],[26.102019,44.437519],[26.101929,44.437459],[26.101931,44.437429],[26.10193,44.437395],[26.101923,44.437364],[26.101911,44.43733],[26.101989,44.437281],[26.102032,44.437198],[26.102064,44.437215],[26.102077,44.437206],[26.102058,44.437172],[26.102169,44.43714],[26.102229,44.437113],[26.102234,44.437095],[26.102234,44.437078],[26.10223,44.437065],[26.102266,44.437032],[26.102306,44.436996],[26.102364,44.437017],[26.102416,44.437033],[26.102474,44.437047],[26.10252,44.437053],[26.102517,44.437095],[26.102513,44.437141],[26.102499,44.437153],[26.102486,44.437171],[26.102481,44.437188],[26.102506,44.437227],[26.102569,44.437299],[26.102523,44.437311],[26.102524,44.437329],[26.102563,44.437332],[26.102522,44.437416],[26.102537,44.437494],[26.102504,44.437511],[26.102473,44.437531],[26.102441,44.437558],[26.102414,44.437587],[26.102284,44.437589],[26.102166,44.437562],[26.102162,44.437534],[26.102135,44.437527],[26.102115,44.437548]]]},"properties":{"building_id":"v1_b_X018_b_hotel_intercontinental","ref":"way/1111645542","role":"building","source":"osm"}},{"type":"Feature","id":"v1_b_X018_b_hotel_modern","geometry":{"type":"Polygon","coordinates":[[[26.109317,44.436578],[26.109451,44.436599],[26.109432,44.436664],[26.10949,44.436702],[26.10966,44.436731],[26.109715,44.436566],[26.109638,44.436474],[26.109308,44.436423],[26.109283,44.436506],[26.109336,44.436514],[26.109317,44.436578]]]},"properties":{"building_id":"v1_b_X018_b_hotel_modern","ref":"way/239852814 (office, Bd. Carol I 34-36, 16 levels)","role":"building","source":"osm"}},{"type":"Feature","id":"v1_b_X018_b_igg_caransebes_1","geometry":{"type":"Polygon","coordinates":[[[26.047619,44.466215],[26.047725,44.466257],[26.047639,44.466313],[26.047798,44.466454],[26.048031,44.466551],[26.048092,44.466478],[26.048019,44.466448],[26.048081,44.466374],[26.047925,44.466243],[26.047682,44.466137],[26.047619,44.466215]]]},"properties":{"building_id":"v1_b_X018_b_igg_caransebes_1","ref":"way/394642720 (14 levels)","role":"building","source":"osm"}},{"type":"Feature","id":"v1_b_X018_b_iptsc_oltenitei_105","geometry":{"type":"Polygon","coordinates":[[[26.123992,44.392907],[26.124076,44.393005],[26.124207,44.392947],[26.124322,44.392896],[26.124466,44.392833],[26.124383,44.392736],[26.124241,44.392797],[26.123992,44.392907]]]},"properties":{"building_id":"v1_b_X018_b_iptsc_oltenitei_105","ref":"way/744464726 and way/170986369 (what is mapped at the address; neither matches the tower)","role":"building","source":"osm"}},{"type":"Feature","id":"v1_b_X018_b_sala_congreselor","geometry":{"type":"Polygon","coordinates":[[[26.094465,44.439309],[26.094474,44.439326],[26.094606,44.439352],[26.094746,44.439381],[26.094877,44.43941],[26.095028,44.439454],[26.095187,44.439516],[26.09525,44.439542],[26.095269,44.43952],[26.095301,44.4395],[26.095338,44.439487],[26.095372,44.439484],[26.095412,44.43949],[26.095473,44.439503],[26.095545,44.439527],[26.095562,44.439494],[26.095569,44.439483],[26.095583,44.439459],[26.095664,44.43931],[26.095713,44.439222],[26.095791,44.439078],[26.095802,44.439057],[26.095815,44.439034],[26.095777,44.439025],[26.095718,44.439008],[26.09565,44.43899],[26.09562,44.438975],[26.095609,44.438955],[26.095604,44.438934],[26.0956,44.438916],[26.095593,44.4389],[26.095581,44.43889],[26.095443,44.438855],[26.095177,44.438788],[26.095182,44.438778],[26.095119,44.43876],[26.095016,44.438725],[26.094832,44.438658],[26.09481,44.43867],[26.094789,44.438681],[26.094761,44.438689],[26.094733,44.438693],[26.094695,44.438694],[26.094676,44.438745],[26.094644,44.438825],[26.094611,44.438891],[26.094558,44.438992],[26.094497,44.439093],[26.094446,44.439171],[26.094395,44.439233],[26.094414,44.439245],[26.094434,44.439264],[26.094452,44.439285],[26.094465,44.439309]]]},"properties":{"building_id":"v1_b_X018_b_sala_congreselor","ref":"way/232472620","role":"building","source":"osm"}},{"type":"Feature","id":"v1_b_X018_b_spital_urgenta","geometry":{"type":"Polygon","coordinates":[[[26.10084,44.454282],[26.10149,44.454304],[26.101685,44.454109],[26.101863,44.453997],[26.102023,44.453906],[26.1022,44.453844],[26.102229,44.453739],[26.10225,44.453464],[26.100902,44.453455],[26.10084,44.454282]]]},"properties":{"building_id":"v1_b_X018_b_spital_urgenta","ref":"way/1227559971","role":"building","source":"osm"}},{"type":"Feature","id":"v1_b_X018_b_teatrul_national","geometry":{"type":"Polygon","coordinates":[[[26.103646,44.436986],[26.10348,44.436942],[26.103329,44.436889],[26.103199,44.43683],[26.103072,44.436751],[26.103115,44.436612],[26.103176,44.43648],[26.103251,44.43635],[26.103337,44.436235],[26.103514,44.436235],[26.103671,44.436249],[26.103805,44.436275],[26.103952,44.436318],[26.104507,44.436522],[26.104426,44.436678],[26.104528,44.436705],[26.104415,44.436935],[26.104313,44.43691],[26.103961,44.43761],[26.104012,44.437623],[26.103922,44.437802],[26.103874,44.43779],[26.10383,44.437877],[26.10327,44.437734],[26.103646,44.436986]]]},"properties":{"building_id":"v1_b_X018_b_teatrul_national","ref":"way/41542957","role":"building","source":"osm"}},{"type":"Feature","id":"v1_b_X019_b_depou_bucurestii_noi","geometry":{"type":"Polygon","coordinates":[[[26.046592,44.478872],[26.046215,44.479354],[26.045463,44.480313],[26.045392,44.480399],[26.045371,44.480427],[26.044974,44.480118],[26.043653,44.479582],[26.043736,44.479471],[26.044499,44.478496],[26.044744,44.478178],[26.044774,44.478141],[26.046592,44.478872]]]},"properties":{"building_id":"v1_b_X019_b_depou_bucurestii_noi","ref":"way/395006195 (tram depot landuse, 44.4781-44.4804 N, 26.0437-26.0466 E)","role":"building","source":"osm"}},{"type":"Feature","id":"v1_b_X019_b_depou_dudesti","geometry":{"type":"Polygon","coordinates":[[[26.130507,44.419829],[26.130378,44.419599],[26.13034,44.419444],[26.130539,44.419418],[26.130683,44.419466],[26.130762,44.419492],[26.13083,44.419504],[26.130815,44.419605],[26.131781,44.419576],[26.132314,44.420609],[26.132612,44.421011],[26.131809,44.421409],[26.130507,44.419829]]]},"properties":{"building_id":"v1_b_X019_b_depou_dudesti","ref":"way/983171912 (tram depot landuse, 44.4194-44.4214 N, 26.1303-26.1326 E); depot hall way/145398993","role":"building","source":"osm"}},{"type":"Feature","id":"v1_b_X019_b_depou_floreasca","geometry":{"type":"Polygon","coordinates":[[[26.102762,44.460759],[26.102782,44.460816],[26.103452,44.460871],[26.103534,44.461252],[26.104727,44.461109],[26.104611,44.460692],[26.104586,44.460602],[26.104284,44.460565],[26.103753,44.459555],[26.102726,44.459826],[26.102463,44.459894],[26.102762,44.460759]]]},"properties":{"building_id":"v1_b_X019_b_depou_floreasca","ref":"way/28241026 (Autobaza Floreasca, industrial depot polygon)","role":"building","source":"osm"}},{"type":"Feature","id":"v1_b_X019_b_depou_panduri","geometry":{"type":"Polygon","coordinates":[[[26.071361,44.425093],[26.072663,44.42627],[26.072843,44.426176],[26.073167,44.426467],[26.072306,44.426957],[26.072233,44.426998],[26.070595,44.425528],[26.071361,44.425093]]]},"properties":{"building_id":"v1_b_X019_b_depou_panduri","ref":"way/244662435 (INEMRCM institute, said to stand on the old depot site)","role":"today_on_site","source":"osm"}},{"type":"Feature","id":"v1_b_X019_b_depou_splaiul_unirii","geometry":{"type":"Polygon","coordinates":[[[26.123095,44.405835],[26.123242,44.406113],[26.122969,44.406186],[26.123326,44.406865],[26.123493,44.40682],[26.123573,44.406973],[26.123785,44.407106],[26.124109,44.40772],[26.124087,44.407808],[26.124192,44.407958],[26.125068,44.407682],[26.12596,44.40748],[26.12594,44.407445],[26.12584,44.407269],[26.125481,44.406617],[26.125379,44.406432],[26.125191,44.406106],[26.125264,44.406083],[26.125154,44.405907],[26.125026,44.405948],[26.124759,44.405417],[26.123095,44.405835]]]},"properties":{"building_id":"v1_b_X019_b_depou_splaiul_unirii","ref":"way/231855576","role":"today_on_site","source":"osm"}},{"type":"Feature","id":"v1_b_X019_b_hala_sculerie_grivita_rosie","geometry":{"type":"Polygon","coordinates":[[[26.052782,44.462981],[26.054096,44.462933],[26.054104,44.463093],[26.054175,44.463089],[26.054198,44.463479],[26.054114,44.463482],[26.054118,44.463539],[26.054805,44.463514],[26.054811,44.463598],[26.055317,44.46358],[26.055308,44.463456],[26.055441,44.463451],[26.055437,44.463392],[26.055736,44.463381],[26.055717,44.463122],[26.055769,44.463121],[26.055765,44.463058],[26.055822,44.463056],[26.055685,44.461143],[26.053535,44.461222],[26.053559,44.461553],[26.052875,44.461578],[26.052894,44.461852],[26.052701,44.461859],[26.052782,44.462981]]]},"properties":{"building_id":"v1_b_X019_b_hala_sculerie_grivita_rosie","ref":"way/345924855 (Griro, 355-357 Calea Griviței)","role":"building","source":"osm"}},{"type":"Feature","id":"v1_b_X020_b_cinescoape","geometry":{"type":"Polygon","coordinates":[[[26.116918,44.484259],[26.118236,44.485035],[26.120266,44.485026],[26.120943,44.485013],[26.121991,44.483285],[26.122347,44.48327],[26.12228,44.482495],[26.121373,44.48254],[26.121041,44.482595],[26.116821,44.481253],[26.116728,44.4814],[26.116536,44.481346],[26.115746,44.482666],[26.116045,44.483121],[26.115831,44.483365],[26.115678,44.483541],[26.116918,44.484259]]]},"properties":{"building_id":"v1_b_X020_b_cinescoape","ref":"way/885503375 (Iride Business Park)","role":"today_on_site","source":"osm"}},{"type":"Feature","id":"v1_b_X020_b_incerc","geometry":{"type":"Polygon","coordinates":[[[26.160654,44.441988],[26.160662,44.442121],[26.160666,44.442159],[26.160846,44.442154],[26.160866,44.442416],[26.16094,44.442414],[26.160942,44.442445],[26.161157,44.442438],[26.161138,44.442149],[26.161187,44.442148],[26.161251,44.442146],[26.162134,44.442114],[26.162169,44.442099],[26.162191,44.442076],[26.162901,44.439788],[26.162382,44.439653],[26.162183,44.43915],[26.162143,44.439053],[26.160439,44.439393],[26.160013,44.439479],[26.15999,44.439521],[26.159254,44.440769],[26.158389,44.442204],[26.158462,44.44223],[26.158482,44.442236],[26.158501,44.442237],[26.159108,44.442215],[26.159165,44.442212],[26.15916,44.442148],[26.159089,44.441291],[26.159094,44.441231],[26.15912,44.441177],[26.159144,44.441162],[26.159391,44.441093],[26.159404,44.441076],[26.159412,44.441036],[26.15941,44.440882],[26.159429,44.440837],[26.159448,44.44082],[26.159511,44.44076],[26.159561,44.440726],[26.160042,44.440712],[26.160085,44.441292],[26.160465,44.44128],[26.160472,44.441334],[26.160547,44.441331],[26.160596,44.441773],[26.160637,44.441787],[26.160654,44.441988]]]},"properties":{"building_id":"v1_b_X020_b_incerc","ref":"way/1133248207 (URBAN INCD INCERC)","role":"building","source":"osm"}},{"type":"Feature","id":"v1_b_X020_b_pompe","geometry":{"type":"Polygon","coordinates":[[[26.130215,44.4507],[26.130805,44.449977],[26.131849,44.448697],[26.132259,44.448234],[26.132271,44.448221],[26.13601,44.450376],[26.13257,44.451761],[26.130215,44.4507]]]},"properties":{"building_id":"v1_b_X020_b_pompe","ref":"way/392786462 (SkyLight Residence, construction)","role":"today_on_site","source":"osm"}},{"type":"Feature","id":"v1_b_X020_b_prefab_militari","geometry":{"type":"Polygon","coordinates":[[[25.988299,44.429683],[25.988349,44.429379],[25.988531,44.429394],[25.98856,44.429221],[25.988646,44.429228],[25.988695,44.428956],[25.988115,44.428909],[25.988119,44.428875],[25.987958,44.428863],[25.987903,44.429198],[25.986948,44.429118],[25.987099,44.428201],[25.98662,44.428161],[25.986376,44.429646],[25.988554,44.429829],[25.988608,44.429506],[25.988447,44.429493],[25.988439,44.429545],[25.988463,44.429547],[25.988438,44.429695],[25.988299,44.429683]]]},"properties":{"building_id":"v1_b_X020_b_prefab_militari","ref":"way/244285493","role":"building","source":"osm"}},{"type":"Feature","id":"v1_b_X021_b_adesgo_buc","geometry":{"type":"Polygon","coordinates":[[[26.10082,44.41183],[26.101775,44.412445],[26.101424,44.412746],[26.101399,44.413005],[26.100973,44.413388],[26.100711,44.41338],[26.100697,44.413537],[26.100313,44.413522],[26.100514,44.411994],[26.10062,44.41185],[26.100648,44.411824],[26.100758,44.411887],[26.10082,44.41183]]]},"properties":{"building_id":"v1_b_X021_b_adesgo_buc","ref":"way/1429013041 (Fosta intreprindere ADESGO, construction landuse)","role":"today_on_site","source":"osm"}},{"type":"Feature","id":"v1_b_X021_b_castel_vulcan_500","geometry":{"type":"Polygon","coordinates":[[[26.07213,44.416359],[26.073349,44.416785],[26.074138,44.41706],[26.07432,44.416838],[26.07517,44.417201],[26.075321,44.417284],[26.075252,44.417337],[26.075135,44.417482],[26.075291,44.417606],[26.074594,44.418153],[26.074594,44.418165],[26.074586,44.418195],[26.074871,44.418368],[26.074011,44.419005],[26.073899,44.41913],[26.073575,44.419017],[26.07371,44.418818],[26.073784,44.418708],[26.073428,44.418581],[26.073102,44.41905],[26.072771,44.418936],[26.072737,44.418985],[26.071076,44.418416],[26.071098,44.418392],[26.070747,44.418271],[26.071371,44.41742],[26.07213,44.416359]]]},"properties":{"building_id":"v1_b_X021_b_castel_vulcan_500","ref":"way/302209696 (Vulcan Value Centre)","role":"building","source":"osm"}},{"type":"Feature","id":"v1_b_X021_b_electromagnetica_buc","geometry":{"type":"Polygon","coordinates":[[[26.074414,44.415779],[26.074616,44.415879],[26.075441,44.415061],[26.075624,44.415155],[26.074795,44.415973],[26.075006,44.416078],[26.075828,44.41526],[26.076024,44.415356],[26.075178,44.416172],[26.075312,44.416239],[26.075289,44.416262],[26.075361,44.416295],[26.076209,44.415456],[26.076415,44.415557],[26.075599,44.416349],[26.07579,44.416446],[26.076793,44.415467],[26.075919,44.415011],[26.075967,44.414946],[26.075991,44.414954],[26.076018,44.414903],[26.075941,44.41486],[26.075823,44.414792],[26.075743,44.414747],[26.075633,44.414678],[26.07553,44.414614],[26.075385,44.414726],[26.075435,44.414755],[26.074414,44.415779]]]},"properties":{"building_id":"v1_b_X021_b_electromagnetica_buc","ref":"way/145399687 (Electromagnetica Business Park, Calea Rahovei 266-268)","role":"building","source":"osm"}},{"type":"Feature","id":"v1_b_X021_b_hala_mecanic_sef_vulcan","geometry":{"type":"Polygon","coordinates":[[[26.07213,44.416359],[26.073349,44.416785],[26.074138,44.41706],[26.07432,44.416838],[26.07517,44.417201],[26.075321,44.417284],[26.075252,44.417337],[26.075135,44.417482],[26.075291,44.417606],[26.074594,44.418153],[26.074594,44.418165],[26.074586,44.418195],[26.074871,44.418368],[26.074011,44.419005],[26.073899,44.41913],[26.073575,44.419017],[26.07371,44.418818],[26.073784,44.418708],[26.073428,44.418581],[26.073102,44.41905],[26.072771,44.418936],[26.072737,44.418985],[26.071076,44.418416],[26.071098,44.418392],[26.070747,44.418271],[26.071371,44.41742],[26.07213,44.416359]]]},"properties":{"building_id":"v1_b_X021_b_hala_mecanic_sef_vulcan","ref":"way/302209696 (Vulcan Value Centre)","role":"building","source":"osm"}},{"type":"Feature","id":"v1_b_X024_b_cta_plevna_bucuresti","geometry":{"type":"Polygon","coordinates":[[[26.067258,44.445408],[26.0673,44.445441],[26.06754,44.445286],[26.067458,44.445222],[26.067283,44.445335],[26.067324,44.445366],[26.067258,44.445408]]]},"properties":{"building_id":"v1_b_X024_b_cta_plevna_bucuresti","ref":"way/784590439 (fosta Centrală telefonică)","role":"building","source":"osm"}},{"type":"Feature","id":"v1_b_X024_b_victoria_tandem_bucuresti","geometry":{"type":"Polygon","coordinates":[[[26.097564,44.436465],[26.097434,44.436481],[26.097416,44.436482],[26.097399,44.436482],[26.097383,44.436479],[26.097145,44.436416],[26.097107,44.436115],[26.09718,44.436104],[26.097176,44.436092],[26.097269,44.436079],[26.097278,44.436111],[26.09732,44.436105],[26.097351,44.436211],[26.097493,44.436191],[26.097479,44.436138],[26.09757,44.436134],[26.097641,44.436133],[26.09778,44.436127],[26.097804,44.436397],[26.097757,44.436442],[26.097564,44.436465]]]},"properties":{"building_id":"v1_b_X024_b_victoria_tandem_bucuresti","ref":"way/34910669 (Palatul Telefoanelor, 1933) ; way/1001757535 (Tandem Office, built 2022)","role":"building","source":"osm"}},{"type":"Feature","id":"v1_b_X034_b_bd_dacia_58","geometry":{"type":"Polygon","coordinates":[[[26.105213,44.446018],[26.105279,44.446013],[26.105275,44.445985],[26.10541,44.445976],[26.105415,44.446008],[26.105477,44.446004],[26.105502,44.446188],[26.105436,44.446193],[26.105439,44.446217],[26.105313,44.446226],[26.10531,44.4462],[26.105242,44.446205],[26.105234,44.44615],[26.105215,44.446151],[26.105206,44.446081],[26.105221,44.44608],[26.105213,44.446018]]]},"properties":{"building_id":"v1_b_X034_b_bd_dacia_58","ref":"way/183848544","role":"building","source":"osm"}},{"type":"Feature","id":"v1_b_X034_b_bd_magheru_24","geometry":{"type":"Polygon","coordinates":[[[26.098802,44.444697],[26.098834,44.444655],[26.09884,44.444658],[26.098853,44.444662],[26.098882,44.444623],[26.098855,44.444612],[26.098844,44.444609],[26.098844,44.444604],[26.098846,44.444598],[26.098747,44.444568],[26.098734,44.44458],[26.098713,44.444571],[26.098687,44.444559],[26.098695,44.444545],[26.098615,44.444515],[26.098552,44.444493],[26.098508,44.444478],[26.098484,44.444468],[26.098484,44.444464],[26.098489,44.444466],[26.098503,44.444446],[26.098504,44.444445],[26.098557,44.444401],[26.098572,44.444387],[26.098597,44.444367],[26.098598,44.444366],[26.098567,44.444335],[26.098533,44.444325],[26.098534,44.444308],[26.098499,44.444297],[26.098507,44.44428],[26.098471,44.44427],[26.098469,44.44427],[26.098472,44.444258],[26.098426,44.444246],[26.09842,44.444257],[26.098381,44.44425],[26.098362,44.444286],[26.098368,44.444287],[26.098357,44.444313],[26.09835,44.444311],[26.098322,44.444369],[26.098329,44.444371],[26.098334,44.444372],[26.098325,44.444392],[26.09831,44.444418],[26.098299,44.444443],[26.098295,44.44446],[26.098298,44.444475],[26.098305,44.444491],[26.098322,44.444505],[26.098346,44.444521],[26.098368,44.44453],[26.098401,44.444544],[26.098398,44.44455],[26.098403,44.444552],[26.098488,44.444583],[26.098552,44.444606],[26.098572,44.444614],[26.098661,44.444646],[26.098784,44.444691],[26.098802,44.444697]]]},"properties":{"building_id":"v1_b_X034_b_bd_magheru_24","ref":"way/283091503 (apartments, 9 levels; contains the OSM no. 24 address nodes)","role":"building","source":"osm"}},{"type":"Feature","id":"v1_b_X034_b_institutul_arhitectura","geometry":{"type":"Polygon","coordinates":[[[26.099386,44.436572],[26.099915,44.436706],[26.099954,44.436701],[26.100174,44.436623],[26.100226,44.436605],[26.100515,44.436509],[26.10055,44.436507],[26.100701,44.436462],[26.100841,44.436415],[26.101035,44.436357],[26.101144,44.43633],[26.101246,44.436115],[26.101088,44.436068],[26.099979,44.435804],[26.099885,44.435797],[26.099645,44.435752],[26.099574,44.435888],[26.099573,44.435966],[26.099518,44.436231],[26.099386,44.436572]]]},"properties":{"building_id":"v1_b_X034_b_institutul_arhitectura","ref":"way/23781470","role":"building","source":"osm"}},{"type":"Feature","id":"v1_b_X034_b_liceul_mihai_viteazul","geometry":{"type":"Polygon","coordinates":[[[26.123593,44.439188],[26.123889,44.439169],[26.124307,44.439314],[26.124343,44.439261],[26.124535,44.439314],[26.12441,44.439522],[26.125384,44.439704],[26.125367,44.439257],[26.125301,44.439231],[26.125097,44.439198],[26.124931,44.438576],[26.123506,44.438855],[26.123593,44.439188]]]},"properties":{"building_id":"v1_b_X034_b_liceul_mihai_viteazul","ref":"way/23648411","role":"building","source":"osm"}},{"type":"Feature","id":"v1_b_X035_b_nr10_dorobanti","geometry":{"type":"Polygon","coordinates":[[[26.096574,44.456103],[26.09652,44.456091],[26.09649,44.456146],[26.096337,44.456111],[26.096383,44.456006],[26.096603,44.456059],[26.096837,44.456138],[26.096408,44.456785],[26.096248,44.456731],[26.096283,44.456678],[26.096201,44.45665],[26.096232,44.456603],[26.096311,44.45663],[26.096443,44.45643],[26.096369,44.456405],[26.096359,44.456421],[26.096191,44.456364],[26.096273,44.456241],[26.096443,44.456299],[26.09641,44.456347],[26.096479,44.45637],[26.096576,44.456224],[26.096506,44.456201],[26.096536,44.456155],[26.096605,44.456178],[26.096639,44.456126],[26.096574,44.456103]]]},"properties":{"building_id":"v1_b_X035_b_nr10_dorobanti","ref":"way/165939374 (Bl. 10, apartments, 10 levels, addr. Calea Dorobanților 135-145)","role":"building","source":"osm"}},{"type":"Feature","id":"v1_b_X035_b_r23_racovita22","geometry":{"type":"Polygon","coordinates":[[[26.125711,44.380795],[26.125328,44.380583],[26.125405,44.380513],[26.125443,44.380534],[26.125497,44.380484],[26.125875,44.380693],[26.125815,44.380748],[26.125782,44.38073],[26.125711,44.380795]]]},"properties":{"building_id":"v1_b_X035_b_r23_racovita22","ref":"way/96715332 (Bl. R23, apartments, Str. Emil Racoviță 22)","role":"building","source":"osm"}},{"type":"Feature","id":"v1_b_X035_b_w2_vatra_luminoasa70","geometry":{"type":"Polygon","coordinates":[[[26.145889,44.439368],[26.145961,44.439435],[26.145881,44.439479],[26.145992,44.439581],[26.145895,44.439634],[26.145842,44.439585],[26.145712,44.439657],[26.145624,44.439576],[26.145663,44.439555],[26.145638,44.439532],[26.145553,44.439454],[26.14567,44.439389],[26.145737,44.439451],[26.145889,44.439368]]]},"properties":{"building_id":"v1_b_X035_b_w2_vatra_luminoasa70","ref":"way/205084079 (Bl. W2, apartments, 11 levels, Str. Vatra Luminoasă 70)","role":"building","source":"osm"}},{"type":"Feature","id":"v1_b_X036_b_danubiana_hala_calandrare","geometry":{"type":"Polygon","coordinates":[[[26.185499,44.368972],[26.185242,44.369164],[26.185392,44.369672],[26.185075,44.369721],[26.184922,44.369204],[26.185883,44.368519],[26.18599,44.368774],[26.185896,44.368841],[26.186108,44.369566],[26.185623,44.369651],[26.185446,44.369056],[26.185529,44.369037],[26.185499,44.368972]]]},"properties":{"building_id":"v1_b_X036_b_danubiana_hala_calandrare","ref":"way/360194479 (Colina Motors building at Șos. Olteniței 181, on the former platform; not the original hall)","role":"today_on_site","source":"osm"}},{"type":"Feature","id":"v1_b_X036_b_danubiana_siloz_negru_fum","geometry":{"type":"Polygon","coordinates":[[[26.185499,44.368972],[26.185242,44.369164],[26.185392,44.369672],[26.185075,44.369721],[26.184922,44.369204],[26.185883,44.368519],[26.18599,44.368774],[26.185896,44.368841],[26.186108,44.369566],[26.185623,44.369651],[26.185446,44.369056],[26.185529,44.369037],[26.185499,44.368972]]]},"properties":{"building_id":"v1_b_X036_b_danubiana_siloz_negru_fum","ref":"way/360194479 (Colina Motors building at Șos. Olteniței 181, on the former platform; not the original hall)","role":"today_on_site","source":"osm"}},{"type":"Feature","id":"v1_b_X036_b_danubiana_statia_anvelope","geometry":{"type":"Polygon","coordinates":[[[26.185499,44.368972],[26.185242,44.369164],[26.185392,44.369672],[26.185075,44.369721],[26.184922,44.369204],[26.185883,44.368519],[26.18599,44.368774],[26.185896,44.368841],[26.186108,44.369566],[26.185623,44.369651],[26.185446,44.369056],[26.185529,44.369037],[26.185499,44.368972]]]},"properties":{"building_id":"v1_b_X036_b_danubiana_statia_anvelope","ref":"way/360194479 (Colina Motors building at Șos. Olteniței 181, on the former platform; not the original hall)","role":"today_on_site","source":"osm"}},{"type":"Feature","id":"v1_b_X036_b_danubiana_statia_compresoare","geometry":{"type":"Polygon","coordinates":[[[26.185499,44.368972],[26.185242,44.369164],[26.185392,44.369672],[26.185075,44.369721],[26.184922,44.369204],[26.185883,44.368519],[26.18599,44.368774],[26.185896,44.368841],[26.186108,44.369566],[26.185623,44.369651],[26.185446,44.369056],[26.185529,44.369037],[26.185499,44.368972]]]},"properties":{"building_id":"v1_b_X036_b_danubiana_statia_compresoare","ref":"way/360194479 (Colina Motors building at Șos. Olteniței 181, on the former platform; not the original hall)","role":"today_on_site","source":"osm"}},{"type":"Feature","id":"v1_b_X036_b_pompe_sectia_iii_smr","geometry":{"type":"Polygon","coordinates":[[[26.130215,44.4507],[26.130805,44.449977],[26.131849,44.448697],[26.132259,44.448234],[26.132271,44.448221],[26.13601,44.450376],[26.13257,44.451761],[26.130215,44.4507]]]},"properties":{"building_id":"v1_b_X036_b_pompe_sectia_iii_smr","ref":"way/392786462 (SkyLight Residence construction site on the former plant plot)","role":"today_on_site","source":"osm"}},{"type":"Feature","id":"v1_b_P001_b_brezoianu_7_vecini","geometry":{"type":"Polygon","coordinates":[[[26.09436,44.434159],[26.094437,44.434153],[26.094445,44.434208],[26.094611,44.434211],[26.094617,44.434039],[26.094556,44.433988],[26.094333,44.434015],[26.09436,44.434159]]]},"properties":{"building_id":"v1_b_P001_b_brezoianu_7_vecini","ref":"way/150803316 (Brezoianu 9, damaged neighbour, standing)","role":"building","source":"osm"}},{"type":"Feature","id":"v1_b_P001_b_hristo_botey_10_vecini","geometry":{"type":"Polygon","coordinates":[[[26.10651,44.435046],[26.106586,44.435107],[26.106607,44.435108],[26.106638,44.435101],[26.106701,44.435033],[26.106772,44.434955],[26.106757,44.43492],[26.106647,44.434876],[26.106583,44.434956],[26.10651,44.435046]]]},"properties":{"building_id":"v1_b_P001_b_hristo_botey_10_vecini","ref":"way/178848627 (unaddressed 8-level block, probable replacement on the no.10 plot)","role":"today_on_site","source":"osm"}},{"type":"Feature","id":"v1_b_X015_b_pm_p7_grivitei_1mai","geometry":{"type":"Polygon","coordinates":[[[26.049201,44.471774],[26.048931,44.471665],[26.049011,44.471564],[26.049279,44.471673],[26.049201,44.471774]]]},"properties":{"building_id":"v1_b_X015_b_pm_p7_grivitei_1mai","ref":"way/156981265 (Bl. O, Calea Griviței 399)","role":"building","source":"osm"}},{"type":"Feature","id":"v1_b_X019_b_depouri_tramvaie_bucuresti","geometry":{"type":"Polygon","coordinates":[[[26.130507,44.419829],[26.130378,44.419599],[26.13034,44.419444],[26.130539,44.419418],[26.130683,44.419466],[26.130762,44.419492],[26.13083,44.419504],[26.130815,44.419605],[26.131781,44.419576],[26.132314,44.420609],[26.132612,44.421011],[26.131809,44.421409],[26.130507,44.419829]]]},"properties":{"building_id":"v1_b_X019_b_depouri_tramvaie_bucuresti","ref":"way/983171912 (Depoul Dudesti, one of the six; still a depot)","role":"building","source":"osm"}},{"type":"Feature","id":"v1_b_X020_b_sarma_buzau","geometry":{"type":"Polygon","coordinates":[[[26.816082,45.136396],[26.816304,45.134498],[26.81679,45.134527],[26.816796,45.134478],[26.819214,45.134619],[26.819095,45.135633],[26.818297,45.135587],[26.818246,45.136024],[26.818652,45.136047],[26.818645,45.136112],[26.819091,45.136138],[26.819055,45.136446],[26.818569,45.136417],[26.818573,45.136383],[26.818216,45.136362],[26.818222,45.13631],[26.81652,45.136211],[26.816495,45.136421],[26.816082,45.136396]]]},"properties":{"building_id":"v1_b_X020_b_sarma_buzau","ref":"way/364414795","role":"building","source":"osm"}},{"type":"Feature","id":"v1_b_X020_b_autoturisme_colibasi","geometry":{"type":"Polygon","coordinates":[[[24.937079,44.943594],[24.936165,44.942769],[24.934452,44.941676],[24.933635,44.941141],[24.932703,44.940554],[24.932177,44.940175],[24.931825,44.939931],[24.931372,44.939544],[24.930931,44.938985],[24.93085,44.938705],[24.93073,44.938379],[24.930413,44.937929],[24.929846,44.937528],[24.92915,44.93713],[24.928409,44.936692],[24.92792,44.936498],[24.927219,44.936345],[24.926959,44.93623],[24.926667,44.935995],[24.925823,44.935128],[24.925527,44.934991],[24.924726,44.934898],[24.924145,44.934222],[24.924012,44.934191],[24.923364,44.934307],[24.922638,44.934633],[24.922555,44.934842],[24.923128,44.935448],[24.924054,44.936407],[24.924439,44.936767],[24.924903,44.937257],[24.925082,44.937583],[24.92539,44.938128],[24.926575,44.938046],[24.926573,44.938572],[24.92644,44.938997],[24.926036,44.939238],[24.924599,44.93898],[24.924144,44.940341],[24.92495,44.940512],[24.924868,44.940735],[24.925239,44.940829],[24.92557,44.940981],[24.925821,44.941187],[24.926115,44.94167],[24.926336,44.941664],[24.926532,44.941987],[24.92715,44.941727],[24.927339,44.941498],[24.928268,44.941913],[24.928306,44.942868],[24.927664,44.942881],[24.927683,44.943311],[24.928084,44.943355],[24.928253,44.943787],[24.928276,44.943999],[24.928256,44.944209],[24.928261,44.944566],[24.927886,44.944824],[24.929085,44.945734],[24.929006,44.945825],[24.92837,44.945394],[24.927824,44.944964],[24.927275,44.945443],[24.927132,44.94535],[24.926628,44.945872],[24.926725,44.945922],[24.926265,44.946475],[24.926407,44.946394],[24.926544,44.946472],[24.926514,44.946588],[24.926458,44.946706],[24.926353,44.946846],[24.926183,44.946965],[24.92614,44.947147],[24.925764,44.947268],[24.925417,44.947601],[24.925376,44.947986],[24.92549,44.948198],[24.925956,44.948359],[24.927231,44.948723],[24.927763,44.948849],[24.930345,44.950842],[24.931098,44.951031],[24.931636,44.95141],[24.932167,44.951788],[24.932859,44.952174],[24.933521,44.952417],[24.934146,44.952638],[24.93484,44.952748],[24.935469,44.952898],[24.936019,44.953081],[24.936425,44.953193],[24.937097,44.953207],[24.937385,44.953347],[24.938423,44.953302],[24.938737,44.953479],[24.939195,44.953867],[24.939411,44.953711],[24.939869,44.95374],[24.940912,44.95321],[24.941937,44.953563],[24.943276,44.95383],[24.94419,44.954008],[24.947041,44.951855],[24.945672,44.951049],[24.944771,44.950946],[24.944528,44.950491],[24.944427,44.950206],[24.944748,44.949919],[24.945057,44.949609],[24.94541,44.949279],[24.945976,44.948686],[24.944812,44.947996],[24.944646,44.947974],[24.94404,44.948498],[24.94375,44.948346],[24.940907,44.946842],[24.940918,44.946428],[24.939684,44.945771],[24.937227,44.944469],[24.937098,44.944329],[24.937079,44.943594]]]},"properties":{"building_id":"v1_b_X020_b_autoturisme_colibasi","ref":"way/88173117","role":"building","source":"osm"}},{"type":"Feature","id":"v1_b_X018_b_consiliul_popular_judetean_craiova","geometry":{"type":"Polygon","coordinates":[[[23.795723,44.318058],[23.795721,44.318145],[23.795977,44.318147],[23.795975,44.318278],[23.795318,44.318272],[23.795321,44.318135],[23.795434,44.318136],[23.795436,44.31802],[23.795416,44.31802],[23.795417,44.317911],[23.795437,44.317911],[23.795438,44.317812],[23.795326,44.317811],[23.795328,44.317667],[23.795883,44.317672],[23.795883,44.317682],[23.795994,44.317683],[23.795992,44.317817],[23.795733,44.317815],[23.795732,44.317898],[23.795886,44.317899],[23.795886,44.317912],[23.795958,44.317913],[23.795956,44.318041],[23.795879,44.31804],[23.795879,44.318059],[23.795723,44.318058]]]},"properties":{"building_id":"v1_b_X018_b_consiliul_popular_judetean_craiova","ref":"way/172694332","role":"building","source":"osm"}},{"type":"Feature","id":"v1_b_X018_b_liceul_balcescu_craiova","geometry":{"type":"Polygon","coordinates":[[[23.791602,44.318759],[23.792187,44.318565],[23.792362,44.318879],[23.792625,44.319153],[23.792647,44.31919],[23.792649,44.319249],[23.792604,44.319297],[23.792534,44.319339],[23.791917,44.319455],[23.791875,44.319331],[23.791908,44.319239],[23.792012,44.319216],[23.792039,44.319254],[23.792267,44.319204],[23.792264,44.319162],[23.792289,44.319128],[23.792315,44.319108],[23.792271,44.319046],[23.792123,44.318842],[23.792055,44.318732],[23.791653,44.318853],[23.791602,44.318759]]]},"properties":{"building_id":"v1_b_X018_b_liceul_balcescu_craiova","ref":"way/345097298","role":"building","source":"osm"}},{"type":"Feature","id":"v1_b_X019_b_bloc_ciufulici_craiova","geometry":{"type":"Polygon","coordinates":[[[23.795476,44.316867],[23.795894,44.316886],[23.795897,44.31685],[23.795862,44.316846],[23.795875,44.316704],[23.795749,44.316692],[23.795773,44.316577],[23.796031,44.316604],[23.795988,44.316999],[23.795459,44.31698],[23.795462,44.316963],[23.795472,44.31689],[23.795476,44.316867]]]},"properties":{"building_id":"v1_b_X019_b_bloc_ciufulici_craiova","ref":"way/292749127 (Bloc 49, probable; unconfirmed)","role":"building","source":"osm"}},{"type":"Feature","id":"v1_b_X020_b_prefab_craiova_bca","geometry":{"type":"Polygon","coordinates":[[[23.761892,44.342276],[23.762022,44.342328],[23.761664,44.342791],[23.761533,44.34274],[23.761892,44.342276]]]},"properties":{"building_id":"v1_b_X020_b_prefab_craiova_bca","ref":"way/743820222 (building at Calea Severinului 44)","role":"building","source":"osm"}},{"type":"Feature","id":"v1_b_X019_b_hotel_muntenia_campina","geometry":{"type":"Polygon","coordinates":[[[25.734969,45.123492],[25.734766,45.123369],[25.735177,45.123033],[25.735379,45.123157],[25.734969,45.123492]]]},"properties":{"building_id":"v1_b_X019_b_hotel_muntenia_campina","ref":"way/197714231","role":"building","source":"osm"}},{"type":"Feature","id":"v1_b_X023_b_platforma_giurgiu","geometry":{"type":"Polygon","coordinates":[[[25.964328,43.869551],[25.96436,43.869512],[25.964379,43.869521],[25.964404,43.869524],[25.964428,43.869518],[25.964447,43.869506],[25.964454,43.869486],[25.964449,43.869464],[25.964433,43.869451],[25.964288,43.869392],[25.964212,43.869361],[25.964219,43.869352],[25.964164,43.86933],[25.96417,43.869322],[25.964072,43.869284],[25.964066,43.869292],[25.964017,43.869272],[25.964023,43.869264],[25.963501,43.869056],[25.963466,43.8691],[25.963415,43.869079],[25.963355,43.869155],[25.963407,43.869176],[25.963442,43.869191],[25.963464,43.8692],[25.963458,43.869207],[25.963922,43.869395],[25.963928,43.869387],[25.963978,43.869407],[25.963973,43.869415],[25.96407,43.869454],[25.964076,43.869446],[25.964129,43.869467],[25.964328,43.869551]]]},"properties":{"building_id":"v1_b_X023_b_platforma_giurgiu","ref":"way/103267410 (Gara Fluviala, reference only)","role":"building","source":"osm"}},{"type":"Feature","id":"v1_b_X020_b_frigidere_gaiesti","geometry":{"type":"Polygon","coordinates":[[[25.343653,44.714386],[25.345615,44.714151],[25.348261,44.713847],[25.348964,44.713758],[25.352913,44.713268],[25.352981,44.713149],[25.352958,44.712958],[25.352668,44.705178],[25.349973,44.705691],[25.350432,44.708306],[25.346803,44.708673],[25.348551,44.710122],[25.347182,44.710265],[25.347418,44.711325],[25.346943,44.711376],[25.346367,44.709142],[25.345888,44.709187],[25.346177,44.710588],[25.344848,44.710764],[25.344981,44.712735],[25.343367,44.712896],[25.343653,44.714386]]]},"properties":{"building_id":"v1_b_X020_b_frigidere_gaiesti","ref":"way/88172511","role":"building","source":"osm"}},{"type":"Feature","id":"v1_b_X019_b_liceul_eminescu_iasi","geometry":{"type":"Polygon","coordinates":[[[27.581399,47.17307],[27.581383,47.173025],[27.581344,47.173032],[27.581325,47.17298],[27.581361,47.172974],[27.581319,47.172858],[27.581502,47.172828],[27.581492,47.172799],[27.581609,47.172779],[27.58162,47.172812],[27.581778,47.172785],[27.581861,47.173012],[27.582255,47.172946],[27.582313,47.173105],[27.582159,47.173131],[27.58214,47.17308],[27.58209,47.173088],[27.582103,47.173123],[27.581932,47.173152],[27.58192,47.173117],[27.58166,47.173161],[27.581632,47.173085],[27.581684,47.173076],[27.581678,47.173058],[27.581592,47.173072],[27.58158,47.173039],[27.581399,47.17307]]]},"properties":{"building_id":"v1_b_X019_b_liceul_eminescu_iasi","ref":"way/207113569 (school building)","role":"building","source":"osm"}},{"type":"Feature","id":"v1_b_X019_b_liceul_internat_iasi","geometry":{"type":"Polygon","coordinates":[[[27.569944,47.173021],[27.569952,47.173544],[27.569834,47.173545],[27.569834,47.173536],[27.569612,47.173538],[27.569612,47.173548],[27.569295,47.17355],[27.569294,47.173538],[27.569049,47.17354],[27.569049,47.173546],[27.568921,47.173547],[27.568913,47.173029],[27.569056,47.173028],[27.569056,47.173061],[27.569297,47.173059],[27.569296,47.173026],[27.569426,47.173025],[27.569572,47.173024],[27.569573,47.173053],[27.569827,47.173051],[27.569827,47.173022],[27.569944,47.173021]]]},"properties":{"building_id":"v1_b_X019_b_liceul_internat_iasi","ref":"way/61041562","role":"building","source":"osm"}},{"type":"Feature","id":"v1_b_X036_b_ifa_pavilion_coordonare_magurele","geometry":{"type":"Polygon","coordinates":[[[26.030971,44.350149],[26.031076,44.350115],[26.031094,44.350144],[26.03126,44.35009],[26.03121,44.35001],[26.031262,44.349994],[26.031185,44.349871],[26.031058,44.349912],[26.031043,44.349887],[26.030882,44.349939],[26.030916,44.349993],[26.030881,44.350004],[26.030971,44.350149]]]},"properties":{"building_id":"v1_b_X036_b_ifa_pavilion_coordonare_magurele","ref":"way/216998734","role":"building","source":"osm"}},{"type":"Feature","id":"v1_b_X019_b_bloc14_ploiesti","geometry":{"type":"Polygon","coordinates":[[[26.004015,44.956506],[26.004333,44.956254],[26.004217,44.956181],[26.003899,44.956433],[26.004015,44.956506]]]},"properties":{"building_id":"v1_b_X019_b_bloc14_ploiesti","ref":"way/80653138","role":"building","source":"osm"}},{"type":"Feature","id":"v1_b_X019_b_bloc16_ploiesti","geometry":{"type":"Polygon","coordinates":[[[26.003403,44.957231],[26.003715,44.95697],[26.003589,44.956893],[26.003271,44.957149],[26.003403,44.957231]]]},"properties":{"building_id":"v1_b_X019_b_bloc16_ploiesti","ref":"way/80653685","role":"building","source":"osm"}},{"type":"Feature","id":"v1_b_X024_b_cta_ploiesti_centru","geometry":{"type":"Polygon","coordinates":[[[26.024549,44.942371],[26.024476,44.942334],[26.024358,44.94245],[26.024425,44.942495],[26.024353,44.942565],[26.024279,44.942628],[26.024156,44.942741],[26.023941,44.942618],[26.023941,44.942582],[26.024102,44.942418],[26.024376,44.942159],[26.02441,44.942156],[26.024441,44.942154],[26.024653,44.942278],[26.024549,44.942371]]]},"properties":{"building_id":"v1_b_X024_b_cta_ploiesti_centru","ref":"way/112470521","role":"building","source":"osm"}},{"type":"Feature","id":"v1_b_X013_b_ploiesti_ansamblul_nord","geometry":{"type":"Polygon","coordinates":[[[25.995711,44.955806],[25.99553,44.955884],[25.995604,44.955971],[25.995539,44.955999],[25.995618,44.956092],[25.995814,44.956008],[25.995747,44.95593],[25.995798,44.955908],[25.995711,44.955806]]]},"properties":{"building_id":"v1_b_X013_b_ploiesti_ansamblul_nord","ref":"way/89565915 (Bloc 50, Str. Cameliei, Nord)","role":"building","source":"osm"}},{"type":"Feature","id":"v1_b_X020_b_aluminiu_slatina","geometry":{"type":"Polygon","coordinates":[[[24.382632,44.444711],[24.383916,44.443685],[24.384474,44.443238],[24.386738,44.441392],[24.387309,44.440946],[24.387578,44.440736],[24.388232,44.440604],[24.388094,44.440131],[24.388109,44.440092],[24.388145,44.440059],[24.388648,44.439997],[24.388884,44.439954],[24.389679,44.440792],[24.390965,44.442342],[24.39711,44.446116],[24.397353,44.446251],[24.397699,44.446353],[24.398181,44.446669],[24.397665,44.447092],[24.397945,44.447292],[24.396908,44.448162],[24.396553,44.447963],[24.396371,44.447987],[24.39621,44.448046],[24.395892,44.448291],[24.393896,44.449854],[24.39193,44.451424],[24.391551,44.451728],[24.391423,44.451648],[24.389945,44.450727],[24.388569,44.449863],[24.385037,44.44773],[24.385353,44.447473],[24.384983,44.447245],[24.385394,44.446905],[24.384175,44.446155],[24.384036,44.446271],[24.384243,44.446398],[24.383684,44.446862],[24.381592,44.445561],[24.382632,44.444711]]]},"properties":{"building_id":"v1_b_X020_b_aluminiu_slatina","ref":"way/413094973","role":"building","source":"osm"}},{"type":"Feature","id":"v1_b_X021_b_hale_utilaj_petrolier_teleajen","geometry":{"type":"Polygon","coordinates":[[[26.085347,44.944256],[26.085308,44.945149],[26.088537,44.94525],[26.090218,44.945273],[26.090574,44.945205],[26.090601,44.945263],[26.091059,44.945204],[26.091055,44.945255],[26.095771,44.94534],[26.095854,44.945469],[26.098378,44.945575],[26.098452,44.944531],[26.098434,44.944519],[26.098417,44.944508],[26.098461,44.944474],[26.098528,44.944187],[26.09851,44.944175],[26.098485,44.94416],[26.098523,44.944098],[26.098531,44.943924],[26.096641,44.943856],[26.095088,44.943807],[26.094437,44.943787],[26.09388,44.943787],[26.09376,44.943823],[26.093628,44.943822],[26.09263,44.943811],[26.092619,44.944173],[26.090509,44.944121],[26.090525,44.943741],[26.090161,44.943725],[26.08836,44.943671],[26.087218,44.94363],[26.08718,44.944127],[26.087134,44.944158],[26.085358,44.944113],[26.085347,44.944256]]]},"properties":{"building_id":"v1_b_X021_b_hale_utilaj_petrolier_teleajen","ref":"way/883833058 (S.C. UZTEL S.A. works)","role":"building","source":"osm"}},{"type":"Feature","id":"v1_b_X008_b_combinat_ingrasaminte_valea_calugareasca","geometry":{"type":"Polygon","coordinates":[[[26.161873,44.950997],[26.164593,44.951144],[26.165545,44.951153],[26.165528,44.950895],[26.165656,44.950895],[26.165656,44.950928],[26.165867,44.950926],[26.165872,44.95057],[26.165792,44.950568],[26.165787,44.950416],[26.166598,44.950413],[26.166594,44.949876],[26.166699,44.949874],[26.166693,44.949693],[26.166714,44.949647],[26.166696,44.94938],[26.166805,44.949377],[26.166825,44.949665],[26.169804,44.949579],[26.169792,44.949221],[26.171316,44.949158],[26.171492,44.949021],[26.171475,44.948663],[26.171904,44.948646],[26.171999,44.947972],[26.172299,44.947963],[26.172287,44.947343],[26.172546,44.947334],[26.172434,44.946173],[26.172087,44.945923],[26.171734,44.94554],[26.171481,44.94529],[26.171234,44.945098],[26.170975,44.944965],[26.17071,44.944861],[26.170492,44.944794],[26.170151,44.944715],[26.169479,44.944651],[26.16887,44.944644],[26.168195,44.941685],[26.168139,44.941428],[26.165506,44.941893],[26.163758,44.941927],[26.162969,44.940943],[26.161644,44.940615],[26.161023,44.9407],[26.160766,44.940736],[26.160546,44.940917],[26.161667,44.945075],[26.161866,44.945811],[26.161925,44.946143],[26.161925,44.946438],[26.161909,44.947895],[26.161892,44.949361],[26.161878,44.950604],[26.161873,44.950997]]]},"properties":{"building_id":"v1_b_X008_b_combinat_ingrasaminte_valea_calugareasca","ref":"way/921119964","role":"today_on_site","source":"osm"}},{"type":"Feature","id":"v1_b_X009_b_baraj_paltinu","geometry":{"type":"Polygon","coordinates":[[[25.737441,45.24556],[25.737207,45.245475],[25.736934,45.245674],[25.73662,45.245834],[25.736272,45.245945],[25.736002,45.245998],[25.735709,45.246013],[25.735428,45.246031],[25.735143,45.246023],[25.734849,45.245992],[25.734614,45.245935],[25.734327,45.245808],[25.734108,45.245676],[25.734061,45.245647],[25.73414,45.245567],[25.734346,45.245675],[25.734583,45.245783],[25.734825,45.245865],[25.735002,45.245888],[25.735233,45.245903],[25.73557,45.245898],[25.735728,45.245892],[25.736006,45.24585],[25.736243,45.2458],[25.736386,45.245764],[25.736606,45.245667],[25.736776,45.245584],[25.736936,45.245484],[25.737116,45.245328],[25.737177,45.245275],[25.73744,45.245],[25.737697,45.244602],[25.737896,45.244243],[25.737964,45.244263],[25.738032,45.244284],[25.737966,45.244421],[25.737687,45.244902],[25.73757,45.245065],[25.737434,45.245221],[25.737228,45.245434],[25.737452,45.245527],[25.737526,45.245501],[25.737605,45.245505],[25.737671,45.245535],[25.737701,45.245582],[25.73768,45.245638],[25.737611,45.24568],[25.737529,45.245682],[25.737464,45.245653],[25.737434,45.24562],[25.737441,45.24556]]]},"properties":{"building_id":"v1_b_X009_b_baraj_paltinu","ref":"way/182969586","role":"building","source":"osm"}},{"type":"Feature","id":"v1_b_X009_b_baraj_poiana_uzului","geometry":{"type":"Polygon","coordinates":[[[26.391177,46.337513],[26.39195,46.336048],[26.392108,46.335712],[26.392578,46.334843],[26.392905,46.334203],[26.393207,46.333582],[26.393454,46.333884],[26.393402,46.334386],[26.393342,46.334634],[26.393281,46.334887],[26.392969,46.335527],[26.392789,46.335867],[26.392837,46.335914],[26.392658,46.336244],[26.39252,46.336276],[26.392203,46.336984],[26.391373,46.337553],[26.391177,46.337513]]]},"properties":{"building_id":"v1_b_X009_b_baraj_poiana_uzului","ref":"way/184142429","role":"building","source":"osm"}},{"type":"Feature","id":"v1_b_X010_b_eren_pavilion_central","geometry":{"type":"Polygon","coordinates":[[[26.064942,44.476826],[26.065088,44.476842],[26.065236,44.476839],[26.065381,44.476815],[26.065517,44.476773],[26.06564,44.476714],[26.065745,44.476639],[26.065829,44.476552],[26.065888,44.476455],[26.065921,44.476352],[26.065926,44.476246],[26.065904,44.476142],[26.065855,44.476042],[26.065781,44.475951],[26.065685,44.475872],[26.065575,44.475809],[26.065437,44.475756],[26.065314,44.475728],[26.065166,44.475714],[26.065034,44.475719],[26.064919,44.475736],[26.064796,44.475769],[26.064666,44.475824],[26.064567,44.475886],[26.064472,44.475971],[26.064413,44.47605],[26.064368,44.476143],[26.064346,44.476245],[26.06435,44.476342],[26.064377,44.476436],[26.064426,44.476527],[26.064496,44.47661],[26.064586,44.476684],[26.064692,44.476746],[26.064812,44.476793],[26.064942,44.476826]]]},"properties":{"building_id":"v1_b_X010_b_eren_pavilion_central","ref":"way/23554160","role":"building","source":"osm"}},{"type":"Feature","id":"v1_b_X019_b_fosta_primarie","geometry":{"type":"Polygon","coordinates":[[[26.024492,44.941556],[26.024518,44.941544],[26.024549,44.941559],[26.024666,44.941482],[26.024649,44.941467],[26.024699,44.941438],[26.02479,44.941345],[26.02486,44.941272],[26.024954,44.941181],[26.025039,44.941105],[26.025054,44.941088],[26.024831,44.94098],[26.02481,44.940995],[26.02479,44.940986],[26.024771,44.940976],[26.024769,44.940942],[26.024623,44.940869],[26.024586,44.940864],[26.024575,44.940847],[26.024549,44.940847],[26.02452,44.940848],[26.024391,44.940964],[26.024357,44.940959],[26.024297,44.940996],[26.024251,44.941024],[26.024252,44.941057],[26.024113,44.941142],[26.024116,44.941198],[26.024142,44.941205],[26.024147,44.941241],[26.024289,44.941364],[26.024479,44.941527],[26.024465,44.941537],[26.024492,44.941556]]]},"properties":{"building_id":"v1_b_X019_b_fosta_primarie","ref":"way/113524745 (Mercur Shopping Center, built 1982)","role":"today_on_site","source":"osm"}},{"type":"Feature","id":"v1_b_X019_b_halele_centrale","geometry":{"type":"Polygon","coordinates":[[[26.021382,44.943081],[26.02146,44.943046],[26.021503,44.943027],[26.021542,44.94301],[26.021586,44.943059],[26.021648,44.943129],[26.021696,44.943182],[26.02192,44.943432],[26.022129,44.943666],[26.022368,44.943933],[26.022169,44.944024],[26.022076,44.944067],[26.022103,44.944103],[26.021917,44.944191],[26.021887,44.944153],[26.021811,44.944186],[26.021689,44.944243],[26.021618,44.944276],[26.021374,44.944014],[26.021158,44.943782],[26.02099,44.943601],[26.02087,44.943472],[26.021026,44.943397],[26.021056,44.943427],[26.021272,44.943326],[26.021503,44.943215],[26.021495,44.943206],[26.021489,44.9432],[26.021442,44.943148],[26.021382,44.943081]]]},"properties":{"building_id":"v1_b_X019_b_halele_centrale","ref":"way/40666664","role":"building","source":"osm"}},{"type":"Feature","id":"v1_b_X022_b_cet_grozavesti","geometry":{"type":"Polygon","coordinates":[[[26.065401,44.440647],[26.064232,44.439709],[26.063905,44.439886],[26.063848,44.439834],[26.063472,44.4395],[26.063242,44.439313],[26.062501,44.439723],[26.062011,44.439428],[26.061196,44.439446],[26.060578,44.437495],[26.06008,44.43757],[26.060438,44.440989],[26.061256,44.440918],[26.061173,44.440604],[26.061558,44.440556],[26.061474,44.440216],[26.061744,44.440178],[26.061613,44.439719],[26.061739,44.439701],[26.062201,44.44007],[26.062455,44.440477],[26.062588,44.441089],[26.062344,44.441291],[26.063063,44.441978],[26.065401,44.440647]]]},"properties":{"building_id":"v1_b_X022_b_cet_grozavesti","ref":"way/188102895","role":"building","source":"osm"}},{"type":"Feature","id":"v1_b_X022_b_siloz_jiul","geometry":{"type":"Polygon","coordinates":[[[23.825679,44.305872],[23.825418,44.305836],[23.824671,44.305926],[23.824864,44.306826],[23.823662,44.307006],[23.823705,44.307143],[23.823804,44.307132],[23.823875,44.307355],[23.823595,44.307415],[23.823814,44.308191],[23.823842,44.308219],[23.823995,44.308284],[23.825093,44.307981],[23.825168,44.308037],[23.825477,44.308946],[23.826036,44.308888],[23.826197,44.308867],[23.82641,44.308833],[23.826406,44.308491],[23.826315,44.308081],[23.826218,44.308092],[23.825679,44.305872]]]},"properties":{"building_id":"v1_b_X022_b_siloz_jiul","ref":"way/1234728331","role":"building","source":"osm"}},{"type":"Feature","id":"v1_b_X023_b_baraj_firiza","geometry":{"type":"Polygon","coordinates":[[[23.615583,47.720305],[23.615596,47.720284],[23.615614,47.720252],[23.615783,47.720281],[23.616074,47.720333],[23.61619,47.720227],[23.616396,47.720316],[23.616808,47.720413],[23.617151,47.720536],[23.617539,47.720673],[23.617939,47.720963],[23.617921,47.721013],[23.617917,47.721025],[23.617587,47.720969],[23.617327,47.720914],[23.616976,47.720814],[23.616883,47.720778],[23.616803,47.720741],[23.616533,47.720601],[23.616166,47.720417],[23.615583,47.720305]]]},"properties":{"building_id":"v1_b_X023_b_baraj_firiza","ref":"way/292747935 (waterway=dam)","role":"building","source":"osm"}},{"type":"Feature","id":"v1_b_X023_b_baraj_negovanu","geometry":{"type":"Polygon","coordinates":[[[23.932878,45.595514],[23.932963,45.595587],[23.933053,45.595664],[23.933297,45.595778],[23.933346,45.595796],[23.933728,45.595906],[23.933963,45.595935],[23.934126,45.595929],[23.934285,45.595884],[23.932878,45.595514]]]},"properties":{"building_id":"v1_b_X023_b_baraj_negovanu","ref":"way/1188687498 (waterway=dam, concrete); reservoir way/38834498","role":"building","source":"osm"}},{"type":"Feature","id":"v1_b_X023_b_baraj_portile_de_fier","geometry":{"type":"Polygon","coordinates":[[[22.526933,44.66743],[22.527779,44.666947],[22.528326,44.66663],[22.528531,44.666501],[22.528568,44.666532],[22.528782,44.666402],[22.528748,44.66637],[22.528706,44.666334],[22.528745,44.666312],[22.529044,44.666138],[22.529096,44.666173],[22.529134,44.666204],[22.52887,44.666364],[22.529006,44.666509],[22.528649,44.666742],[22.52848,44.666606],[22.526453,44.667788],[22.526572,44.667903],[22.528183,44.669218],[22.527721,44.669484],[22.529663,44.671158],[22.531229,44.672512],[22.531752,44.67227],[22.533172,44.673522],[22.533615,44.673291],[22.533637,44.673295],[22.533635,44.673336],[22.533245,44.673579],[22.533389,44.673721],[22.535626,44.672442],[22.535506,44.672341],[22.535818,44.672157],[22.535952,44.672275],[22.536011,44.672327],[22.532749,44.674276],[22.532836,44.674366],[22.532979,44.674489],[22.532636,44.674704],[22.532508,44.674596],[22.532412,44.674514],[22.529317,44.676383],[22.529219,44.676416],[22.529083,44.676445],[22.528984,44.676375],[22.529878,44.675799],[22.529965,44.675873],[22.531894,44.674745],[22.531821,44.674673],[22.532063,44.674538],[22.532023,44.674503],[22.532436,44.674257],[22.529169,44.671442],[22.527929,44.670423],[22.526751,44.669394],[22.526097,44.668808],[22.525766,44.668513],[22.525654,44.668427],[22.525023,44.668789],[22.524975,44.668749],[22.524899,44.668757],[22.522794,44.670002],[22.522761,44.670112],[22.522127,44.670447],[22.521852,44.670858],[22.5218,44.670839],[22.522179,44.670276],[22.522359,44.670167],[22.522486,44.670091],[22.525425,44.668332],[22.526066,44.667949],[22.526933,44.66743]]]},"properties":{"building_id":"v1_b_X023_b_baraj_portile_de_fier","ref":"way/28270536 (Porțile de Fier I powerhouse building, centre of the dam)","role":"building","source":"osm"}},{"type":"Feature","id":"v1_b_X023_b_baraj_pucioasa","geometry":{"type":"Polygon","coordinates":[[[25.426263,45.083585],[25.426317,45.083642],[25.426415,45.0836],[25.426517,45.083557],[25.426471,45.083487],[25.426449,45.083463],[25.426244,45.08355],[25.426263,45.083585]]]},"properties":{"building_id":"v1_b_X023_b_baraj_pucioasa","ref":"way/911714750 (waterway=dam); reservoir way/31030987","role":"building","source":"osm"}},{"type":"Feature","id":"v1_b_X023_b_baraj_tarnita","geometry":{"type":"Polygon","coordinates":[[[23.300525,46.728238],[23.300518,46.728197],[23.300505,46.728118],[23.300484,46.72796],[23.300491,46.72783],[23.300512,46.7277],[23.300566,46.727547],[23.300647,46.727422],[23.300735,46.727306],[23.30082,46.727214],[23.300911,46.727121],[23.301019,46.727047],[23.301141,46.726977],[23.301262,46.726917],[23.301411,46.726861],[23.301546,46.726815],[23.301722,46.726764],[23.301966,46.726703],[23.301925,46.726625],[23.301152,46.726874],[23.301108,46.726904],[23.301071,46.726924],[23.300996,46.72697],[23.300938,46.727011],[23.30084,46.727078],[23.300775,46.727038],[23.300648,46.727154],[23.300565,46.727231],[23.300643,46.727262],[23.300538,46.727402],[23.300466,46.727532],[23.300407,46.727685],[23.300375,46.727834],[23.300361,46.727955],[23.300383,46.728108],[23.300394,46.728165],[23.300409,46.728246],[23.300525,46.728238]]]},"properties":{"building_id":"v1_b_X023_b_baraj_tarnita","ref":"way/348019449 (waterway=dam)","role":"building","source":"osm"}},{"type":"Feature","id":"v1_b_X023_b_baraj_vidra","geometry":{"type":"Polygon","coordinates":[[[23.767684,45.448043],[23.768393,45.448357],[23.769437,45.448232],[23.770249,45.448174],[23.770566,45.447828],[23.770426,45.447185],[23.769791,45.446113],[23.769698,45.446093],[23.769417,45.445889],[23.769031,45.446214],[23.768656,45.446644],[23.768416,45.446935],[23.767982,45.44755],[23.767684,45.448043]]]},"properties":{"building_id":"v1_b_X023_b_baraj_vidra","ref":"way/120275819 (waterway=dam); reservoir way/88364677","role":"building","source":"osm"}},{"type":"Feature","id":"v1_b_X023_b_baraj_vidraru","geometry":{"type":"Polygon","coordinates":[[[24.629151,45.366363],[24.629412,45.366479],[24.629663,45.366563],[24.629962,45.366635],[24.630236,45.36667],[24.630528,45.366673],[24.630756,45.366655],[24.630949,45.366629],[24.631173,45.366569],[24.631384,45.366493],[24.631596,45.366393],[24.63181,45.366261],[24.632012,45.366099],[24.631943,45.366057],[24.631751,45.365956],[24.631541,45.366127],[24.631348,45.366243],[24.631138,45.366335],[24.6309,45.366399],[24.630695,45.366436],[24.630485,45.366452],[24.630257,45.366454],[24.630003,45.366416],[24.629786,45.366367],[24.629563,45.366283],[24.629381,45.366185],[24.629282,45.36626],[24.629151,45.366363]]]},"properties":{"building_id":"v1_b_X023_b_baraj_vidraru","ref":"way/86100335","role":"building","source":"osm"}},{"type":"Feature","id":"v1_b_X025_b_sahia_58","geometry":{"type":"Polygon","coordinates":[[[26.10454,44.441203],[26.104558,44.441136],[26.104755,44.441143],[26.10472,44.441239],[26.104715,44.441281],[26.104725,44.441297],[26.104732,44.441354],[26.104708,44.441351],[26.104673,44.441327],[26.10466,44.441339],[26.104592,44.441331],[26.104582,44.441306],[26.10453,44.441303],[26.10454,44.441203]]]},"properties":{"building_id":"v1_b_X025_b_sahia_58","ref":"way/431577753 (9-level block at the C. A. Rosetti corner; neighbour way/163622262 also 9 levels)","role":"today_on_site","source":"osm"}},{"type":"Feature","id":"v1_b_X036_b_incerc_hala_experimentari","geometry":{"type":"Polygon","coordinates":[[[26.160654,44.441988],[26.160662,44.442121],[26.160666,44.442159],[26.160846,44.442154],[26.160866,44.442416],[26.16094,44.442414],[26.160942,44.442445],[26.161157,44.442438],[26.161138,44.442149],[26.161187,44.442148],[26.161251,44.442146],[26.162134,44.442114],[26.162169,44.442099],[26.162191,44.442076],[26.162901,44.439788],[26.162382,44.439653],[26.162183,44.43915],[26.162143,44.439053],[26.160439,44.439393],[26.160013,44.439479],[26.15999,44.439521],[26.159254,44.440769],[26.158389,44.442204],[26.158462,44.44223],[26.158482,44.442236],[26.158501,44.442237],[26.159108,44.442215],[26.159165,44.442212],[26.15916,44.442148],[26.159089,44.441291],[26.159094,44.441231],[26.15912,44.441177],[26.159144,44.441162],[26.159391,44.441093],[26.159404,44.441076],[26.159412,44.441036],[26.15941,44.440882],[26.159429,44.440837],[26.159448,44.44082],[26.159511,44.44076],[26.159561,44.440726],[26.160042,44.440712],[26.160085,44.441292],[26.160465,44.44128],[26.160472,44.441334],[26.160547,44.441331],[26.160596,44.441773],[26.160637,44.441787],[26.160654,44.441988]]]},"properties":{"building_id":"v1_b_X036_b_incerc_hala_experimentari","ref":"way/1133248207 (INCERC campus amenity)","role":"building","source":"osm"}},{"type":"Feature","id":"v4_b_dunarea_balcescu3_5","geometry":{"type":"Polygon","coordinates":[[[26.10039,44.436897],[26.10033,44.436787],[26.100353,44.43678],[26.10092,44.436607],[26.100956,44.436598],[26.100961,44.436633],[26.101318,44.436729],[26.101349,44.436745],[26.101366,44.436788],[26.101346,44.436835],[26.101303,44.436928],[26.101149,44.436891],[26.101157,44.436878],[26.101136,44.436873],[26.101156,44.436839],[26.100937,44.436788],[26.100916,44.43684],[26.100782,44.436873],[26.100756,44.43683],[26.100733,44.436792],[26.100614,44.436824],[26.10063,44.436856],[26.100554,44.436877],[26.100538,44.436854],[26.100483,44.43687],[26.100414,44.43689],[26.10039,44.436897]]]},"properties":{"building_id":"v4_b_dunarea_balcescu3_5","ref":"way/129316960 (Bl. Dunărea 1, 11 levels; replacement block)","role":"today_on_site","source":"osm"}},{"type":"Feature","id":"v4_b_continental_bibliotecii6","geometry":{"type":"Polygon","coordinates":[[[26.101467,44.434485],[26.101629,44.434521],[26.101678,44.434387],[26.101704,44.434397],[26.101696,44.434414],[26.101771,44.43444],[26.101783,44.434419],[26.101913,44.434466],[26.101874,44.434634],[26.101809,44.434631],[26.101793,44.434709],[26.101981,44.434731],[26.10203,44.434564],[26.102074,44.43441],[26.101865,44.434322],[26.101571,44.434198],[26.101467,44.434485]]]},"properties":{"building_id":"v4_b_continental_bibliotecii6","ref":"way/129316968 (post-1977 block on neighbouring Colonadelor plot, context only)","role":"today_on_site","source":"osm"}},{"type":"Feature","id":"v4_b_poenaru_bordea_18_20","geometry":{"type":"Polygon","coordinates":[[[26.096972,44.427787],[26.096396,44.427846],[26.096396,44.427948],[26.096357,44.427953],[26.096368,44.428012],[26.096414,44.428098],[26.096549,44.428044],[26.09654,44.428024],[26.096664,44.42799],[26.096884,44.427963],[26.096994,44.427932],[26.097005,44.427963],[26.097402,44.427902],[26.097434,44.427877],[26.097412,44.427854],[26.097098,44.427756],[26.096972,44.427787]]]},"properties":{"building_id":"v4_b_poenaru_bordea_18_20","ref":"way/197738509 (9-level apartment block at the site, date unknown)","role":"today_on_site","source":"osm"}},{"type":"Feature","id":"v4_b_galati33_fucik","geometry":{"type":"Polygon","coordinates":[[[26.108228,44.440682],[26.108204,44.440602],[26.108197,44.440539],[26.108156,44.440542],[26.108151,44.440441],[26.108338,44.440435],[26.10836,44.440661],[26.108228,44.440682]]]},"properties":{"building_id":"v4_b_galati33_fucik","ref":"way/658270814","role":"building","source":"osm"}},{"type":"Feature","id":"v4_b_mantuleasa22","geometry":{"type":"Polygon","coordinates":[[[26.113691,44.435835],[26.113618,44.435768],[26.113663,44.435563],[26.11384,44.435597],[26.113795,44.43579],[26.113691,44.435835]]]},"properties":{"building_id":"v4_b_mantuleasa22","ref":"way/178848618","role":"today_on_site","source":"osm"}},{"type":"Feature","id":"v4_b_turist_magheru43","geometry":{"type":"Polygon","coordinates":[[[26.096703,44.446362],[26.096803,44.446392],[26.096987,44.446023],[26.096892,44.446001],[26.096891,44.445978],[26.096834,44.445973],[26.096824,44.446002],[26.096777,44.446],[26.096767,44.446024],[26.096749,44.446071],[26.096771,44.446085],[26.096741,44.446157],[26.096715,44.446152],[26.096698,44.446051],[26.096716,44.446036],[26.096704,44.445989],[26.096517,44.445988],[26.096591,44.446367],[26.096703,44.446362]]]},"properties":{"building_id":"v4_b_turist_magheru43","ref":"way/162570022","role":"building","source":"osm"}},{"type":"Feature","id":"v4_b_piata_rosetti_3","geometry":{"type":"Polygon","coordinates":[[[26.106377,44.436641],[26.106422,44.43665],[26.106415,44.436691],[26.10653,44.436706],[26.106537,44.436683],[26.106579,44.43669],[26.106621,44.436569],[26.106409,44.436537],[26.106377,44.436641]]]},"properties":{"building_id":"v4_b_piata_rosetti_3","ref":"way/129321541","role":"building","source":"osm"}},{"type":"Feature","id":"v4_b_romarta_academiei35","geometry":{"type":"Polygon","coordinates":[[[26.098661,44.435346],[26.098607,44.435333],[26.098282,44.435251],[26.098429,44.434903],[26.098637,44.434942],[26.098916,44.434995],[26.099012,44.435013],[26.09899,44.435069],[26.098976,44.4351],[26.098859,44.435079],[26.098829,44.435155],[26.098749,44.435149],[26.098786,44.435063],[26.098517,44.43501],[26.098432,44.435208],[26.098694,44.435276],[26.098661,44.435346]]]},"properties":{"building_id":"v4_b_romarta_academiei35","ref":"way/945279455","role":"building","source":"osm"}},{"type":"Feature","id":"v4_b_cv139","geometry":{"type":"Polygon","coordinates":[[[26.088613,44.448489],[26.088768,44.448557],[26.088817,44.44858],[26.08893,44.448424],[26.088929,44.448406],[26.088912,44.448388],[26.088562,44.448231],[26.088504,44.448299],[26.088412,44.448258],[26.088339,44.44833],[26.088516,44.448413],[26.088555,44.448367],[26.088625,44.4484],[26.088649,44.448372],[26.088726,44.448405],[26.088666,44.448472],[26.088638,44.44846],[26.088613,44.448489]]]},"properties":{"building_id":"v4_b_cv139","ref":"way/204350077 (apartments, 7 levels)","role":"building","source":"osm"}},{"type":"Feature","id":"v4_b_hotel_athenee_palace_episcopiei1","geometry":{"type":"Polygon","coordinates":[[[26.096127,44.441422],[26.096127,44.441351],[26.096219,44.441258],[26.096231,44.441242],[26.095923,44.441086],[26.095591,44.440922],[26.09557,44.440921],[26.095547,44.440925],[26.095534,44.440931],[26.095266,44.441186],[26.095423,44.441268],[26.095354,44.441335],[26.095408,44.441362],[26.095391,44.441377],[26.095379,44.441394],[26.095382,44.441421],[26.095392,44.441433],[26.095422,44.44145],[26.095267,44.441598],[26.095306,44.44162],[26.095261,44.441663],[26.09525,44.441684],[26.095245,44.441707],[26.095257,44.441727],[26.095242,44.441742],[26.095292,44.441769],[26.095264,44.441796],[26.095402,44.441865],[26.095428,44.441837],[26.095471,44.441858],[26.095446,44.441885],[26.095547,44.441933],[26.095941,44.441535],[26.096035,44.441581],[26.096123,44.441486],[26.096125,44.441464],[26.096127,44.441422]]]},"properties":{"building_id":"v4_b_hotel_athenee_palace_episcopiei1","ref":"way/232347742","role":"building","source":"osm"}},{"type":"Feature","id":"v4_b_biserica_sf_spiridon_bucuresti","geometry":{"type":"Polygon","coordinates":[[[26.103278,44.423962],[26.103668,44.423943],[26.103737,44.423892],[26.103731,44.423842],[26.103659,44.423798],[26.103264,44.423816],[26.103278,44.423962]]]},"properties":{"building_id":"v4_b_biserica_sf_spiridon_bucuresti","ref":"way/75677194","role":"building","source":"osm"}},{"type":"Feature","id":"v4_b_biserica_sf_elefterie_veche_bucuresti","geometry":{"type":"Polygon","coordinates":[[[26.074418,44.433101],[26.074426,44.433103],[26.074446,44.433107],[26.07445,44.433108],[26.074444,44.433123],[26.07445,44.433132],[26.074474,44.433137],[26.074488,44.433131],[26.074493,44.433117],[26.074511,44.433121],[26.074514,44.433114],[26.074536,44.433119],[26.074542,44.433137],[26.074576,44.433144],[26.074593,44.433138],[26.074632,44.433145],[26.074647,44.433143],[26.07466,44.433138],[26.07467,44.433129],[26.074676,44.433119],[26.074676,44.433108],[26.074671,44.433098],[26.074661,44.433089],[26.074648,44.433084],[26.074619,44.433077],[26.074614,44.433067],[26.074577,44.433059],[26.074557,44.43307],[26.074536,44.433065],[26.074538,44.43306],[26.074476,44.433047],[26.074473,44.433046],[26.074452,44.433042],[26.074444,44.43304],[26.074441,44.433045],[26.074435,44.433062],[26.074433,44.433067],[26.074428,44.433078],[26.074426,44.433083],[26.074421,44.433096],[26.074418,44.433101]]]},"properties":{"building_id":"v4_b_biserica_sf_elefterie_veche_bucuresti","ref":"way/78061357","role":"building","source":"osm"}},{"type":"Feature","id":"v4_b_biserica_sf_vasile_ploiesti","geometry":{"type":"Polygon","coordinates":[[[26.008775,44.947167],[26.008808,44.947099],[26.00884,44.947102],[26.008871,44.94706],[26.009139,44.94713],[26.009154,44.94711],[26.009278,44.94715],[26.009256,44.947184],[26.009276,44.947208],[26.009279,44.947236],[26.009273,44.947259],[26.009253,44.947291],[26.009217,44.947311],[26.00914,44.947312],[26.009051,44.947289],[26.008935,44.947257],[26.008857,44.947232],[26.008866,44.947198],[26.008775,44.947167]]]},"properties":{"building_id":"v4_b_biserica_sf_vasile_ploiesti","ref":"way/880348162","role":"building","source":"osm"}},{"type":"Feature","id":"v4_b_monument_funerar_serban_voda","geometry":{"type":"Polygon","coordinates":[[[26.095898,44.407109],[26.096902,44.407097],[26.097202,44.407539],[26.099104,44.407729],[26.099093,44.407939],[26.099169,44.407937],[26.099221,44.407927],[26.099304,44.407877],[26.099344,44.407723],[26.099343,44.407221],[26.099466,44.40688],[26.09955,44.406766],[26.100825,44.405288],[26.101259,44.404571],[26.10147,44.404489],[26.101575,44.404441],[26.101614,44.404396],[26.101615,44.404321],[26.101619,44.404202],[26.101717,44.404017],[26.101916,44.403793],[26.102341,44.403416],[26.102547,44.403253],[26.1028,44.403076],[26.102491,44.403153],[26.102214,44.402949],[26.102001,44.402785],[26.101658,44.402526],[26.10142,44.402204],[26.100951,44.401337],[26.100847,44.401165],[26.099945,44.401427],[26.099844,44.401465],[26.099476,44.401602],[26.099058,44.401861],[26.098539,44.402443],[26.098089,44.402953],[26.097995,44.403059],[26.097932,44.403148],[26.097928,44.403154],[26.097882,44.403219],[26.097766,44.403385],[26.09776,44.403394],[26.097061,44.404539],[26.09702,44.404604],[26.096738,44.405051],[26.096459,44.405569],[26.096087,44.406208],[26.095786,44.406668],[26.095898,44.407109]]]},"properties":{"building_id":"v4_b_monument_funerar_serban_voda","ref":"way/13840402","role":"building","source":"osm"}},{"type":"Feature","id":"v4_b_cantina_dorobantul_ploiesti","geometry":{"type":"Polygon","coordinates":[[[26.05231,44.936922],[26.049853,44.934469],[26.052514,44.933192],[26.054188,44.934871],[26.05231,44.936922]]]},"properties":{"building_id":"v4_b_cantina_dorobantul_ploiesti","ref":"way/83889491 (landuse industrial)","role":"building","source":"osm"}},{"type":"Feature","id":"v4_b_od44_colentina","geometry":{"type":"Polygon","coordinates":[[[26.130993,44.45934],[26.131109,44.459301],[26.1311,44.459257],[26.131049,44.459182],[26.130999,44.459109],[26.13096,44.459077],[26.130844,44.459117],[26.130993,44.45934]]]},"properties":{"building_id":"v4_b_od44_colentina","ref":"way/28401091 (Bl. OD44, 11 levels)","role":"building","source":"osm"}},{"type":"Feature","id":"v4_b_od64_colentina","geometry":{"type":"Polygon","coordinates":[[[26.133813,44.462811],[26.134017,44.462761],[26.134082,44.462865],[26.134132,44.46296],[26.133946,44.46302],[26.133848,44.462866],[26.133824,44.462829],[26.133813,44.462811]]]},"properties":{"building_id":"v4_b_od64_colentina","ref":"way/163951228 (Bl. 64, 10 levels) + way/159311443 (Bl. 64, 11 levels)","role":"building","source":"osm"}},{"type":"Feature","id":"v4_b_blocuri_6_10_pantelimon","geometry":{"type":"Polygon","coordinates":[[[26.168361,44.441949],[26.1686,44.441934],[26.168888,44.441915],[26.169219,44.441894],[26.169482,44.441877],[26.169649,44.441866],[26.169666,44.441997],[26.168378,44.442081],[26.168361,44.441949]]]},"properties":{"building_id":"v4_b_blocuri_6_10_pantelimon","ref":"way/37793810 (Bl. 6) / way/152650099 (Bl. 10), 11 levels each","role":"building","source":"osm"}},{"type":"Feature","id":"v4_b_e2_valea_calugareasca","geometry":{"type":"Polygon","coordinates":[[[26.029321,44.415616],[26.029136,44.415605],[26.029146,44.415525],[26.029197,44.415529],[26.029204,44.415478],[26.029153,44.415474],[26.029163,44.4154],[26.029348,44.415412],[26.029341,44.41547],[26.029439,44.415476],[26.029428,44.415561],[26.029329,44.415556],[26.029321,44.415616]]]},"properties":{"building_id":"v4_b_e2_valea_calugareasca","ref":"way/155459370 (Bl. E2, 11 levels)","role":"building","source":"osm"}},{"type":"Feature","id":"v4_b_e3_drumul_taberei","geometry":{"type":"Polygon","coordinates":[[[26.029522,44.415567],[26.029428,44.415561],[26.029439,44.415476],[26.029533,44.41548],[26.02954,44.415424],[26.029726,44.415436],[26.029717,44.41551],[26.029666,44.415507],[26.02966,44.415558],[26.029711,44.415561],[26.0297,44.415641],[26.029514,44.415629],[26.029522,44.415567]]]},"properties":{"building_id":"v4_b_e3_drumul_taberei","ref":"way/155459372 (Bl. E3, 11 levels)","role":"building","source":"osm"}},{"type":"Feature","id":"v4_b_dorobanti_9_9b_group","geometry":{"type":"Polygon","coordinates":[[[26.0971,44.455607],[26.097222,44.455424],[26.097131,44.455301],[26.097165,44.45525],[26.097009,44.455208],[26.096956,44.455322],[26.097034,44.455451],[26.096969,44.455561],[26.0971,44.455607]]]},"properties":{"building_id":"v4_b_dorobanti_9_9b_group","ref":"way/165942318 + way/165942324 (Bl. 9), way/165942322 (Bl. 9A, 9 levels)","role":"building","source":"osm"}},{"type":"Feature","id":"v4_b_dorobanti_9","geometry":{"type":"Polygon","coordinates":[[[26.0971,44.455607],[26.097222,44.455424],[26.097131,44.455301],[26.097165,44.45525],[26.097009,44.455208],[26.096956,44.455322],[26.097034,44.455451],[26.096969,44.455561],[26.0971,44.455607]]]},"properties":{"building_id":"v4_b_dorobanti_9","ref":"way/165942318 / way/165942324","role":"building","source":"osm"}},{"type":"Feature","id":"v4_b_dorobanti_9b","geometry":{"type":"Polygon","coordinates":[[[26.097425,44.454661],[26.097527,44.454436],[26.097701,44.454476],[26.097599,44.454701],[26.097509,44.45468],[26.097456,44.454668],[26.097425,44.454661]]]},"properties":{"building_id":"v4_b_dorobanti_9b","ref":"way/165942322 (Bl. 9A, 9 levels)","role":"building","source":"osm"}},{"type":"Feature","id":"v4_b_pantelimon_bl48","geometry":{"type":"Polygon","coordinates":[[[26.159468,44.443094],[26.159396,44.443096],[26.159397,44.443111],[26.159347,44.443112],[26.159346,44.443101],[26.159325,44.443101],[26.159325,44.443112],[26.159158,44.443118],[26.159157,44.443109],[26.159135,44.44311],[26.159136,44.443118],[26.159041,44.443122],[26.159061,44.443134],[26.159043,44.443144],[26.159064,44.443162],[26.159062,44.443194],[26.159045,44.443204],[26.159035,44.44321],[26.159024,44.443216],[26.158983,44.44324],[26.158969,44.443228],[26.158921,44.443254],[26.158935,44.443267],[26.158849,44.443317],[26.158823,44.443313],[26.158808,44.443322],[26.158773,44.443344],[26.158701,44.443283],[26.158717,44.443204],[26.158718,44.443198],[26.158801,44.443151],[26.158815,44.443164],[26.158866,44.443136],[26.158851,44.443122],[26.158899,44.443095],[26.15891,44.443088],[26.158921,44.443082],[26.158976,44.44305],[26.158996,44.443052],[26.159033,44.443034],[26.159032,44.443017],[26.159012,44.443018],[26.15901,44.44299],[26.159029,44.442989],[26.159028,44.442976],[26.159028,44.442974],[26.159076,44.442972],[26.159202,44.442968],[26.159262,44.442966],[26.15937,44.442962],[26.159464,44.443021],[26.159468,44.443094]]]},"properties":{"building_id":"v4_b_pantelimon_bl48","ref":"way/99853537 (Bl. 48, no level tag)","role":"building","source":"osm"}},{"type":"Feature","id":"v4_b_grivitei_399","geometry":{"type":"Polygon","coordinates":[[[26.049201,44.471774],[26.048931,44.471665],[26.049011,44.471564],[26.049279,44.471673],[26.049201,44.471774]]]},"properties":{"building_id":"v4_b_grivitei_399","ref":"way/156981265 (Bl. O, Calea Griviței 399, 13 levels)","role":"building","source":"osm"}},{"type":"Feature","id":"v4_b_armata_poporului_13_14","geometry":{"type":"Polygon","coordinates":[[[26.038223,44.434711],[26.038224,44.434658],[26.038177,44.434658],[26.038145,44.434657],[26.038146,44.434592],[26.038177,44.434593],[26.038208,44.434593],[26.038211,44.434495],[26.038401,44.434497],[26.038398,44.434609],[26.038468,44.434609],[26.038469,44.434587],[26.038799,44.434591],[26.038801,44.43449],[26.038999,44.434492],[26.038996,44.434613],[26.039074,44.434613],[26.039074,44.434596],[26.039401,44.4346],[26.039403,44.434497],[26.039587,44.434499],[26.039585,44.43462],[26.039641,44.43462],[26.039674,44.434621],[26.039675,44.434604],[26.039836,44.434605],[26.039834,44.434728],[26.039668,44.434727],[26.039669,44.434692],[26.039576,44.434691],[26.039576,44.434723],[26.039421,44.434721],[26.039421,44.434685],[26.039382,44.434684],[26.039381,44.434722],[26.039081,44.434719],[26.039082,44.43468],[26.038967,44.434679],[26.038967,44.434717],[26.038829,44.434715],[26.038829,44.434671],[26.03877,44.43467],[26.038769,44.43471],[26.038476,44.434707],[26.038476,44.43467],[26.038383,44.434669],[26.038382,44.434712],[26.038223,44.434711]]]},"properties":{"building_id":"v4_b_armata_poporului_13_14","ref":"way/152230497 (Bl. 13) + way/152230483 (Bl. 14), 11 levels each","role":"building","source":"osm"}},{"type":"Feature","id":"v4_b_bloc31_valea_rosie_craiova","geometry":{"type":"Polygon","coordinates":[[[23.818199,44.303998],[23.818388,44.303943],[23.818333,44.303847],[23.818535,44.303791],[23.818398,44.30354],[23.818193,44.303597],[23.81815,44.303522],[23.817961,44.303577],[23.818028,44.303693],[23.818213,44.303639],[23.818316,44.303828],[23.818133,44.303882],[23.818199,44.303998]]]},"properties":{"building_id":"v4_b_bloc31_valea_rosie_craiova","ref":"way/310410593 (Bloc 31, 5 levels)","role":"building","source":"osm"}},{"type":"Feature","id":"v4_b_bloc32_valea_rosie_craiova","geometry":{"type":"Polygon","coordinates":[[[23.819097,44.30348],[23.819145,44.30357],[23.819479,44.303479],[23.819411,44.30335],[23.81908,44.30344],[23.819032,44.30335],[23.818698,44.303441],[23.818766,44.30357],[23.819097,44.30348]]]},"properties":{"building_id":"v4_b_bloc32_valea_rosie_craiova","ref":"way/310410619 (Bloc 32, 5 levels)","role":"building","source":"osm"}},{"type":"Feature","id":"v4_b_bloci2_valea_rosie_craiova","geometry":{"type":"Polygon","coordinates":[[[23.820305,44.307101],[23.820383,44.307236],[23.820567,44.307181],[23.820482,44.307036],[23.820358,44.307073],[23.820283,44.306944],[23.820095,44.307],[23.820177,44.307139],[23.820305,44.307101]]]},"properties":{"building_id":"v4_b_bloci2_valea_rosie_craiova","ref":"way/314975932 (Bloc I2, 5 levels)","role":"building","source":"osm"}},{"type":"Feature","id":"v4_b_ipb_rectorat","geometry":{"type":"Polygon","coordinates":[[[26.051302,44.438689],[26.051872,44.438584],[26.05179,44.438353],[26.051726,44.438169],[26.051149,44.438278],[26.051215,44.438463],[26.051273,44.438614],[26.051302,44.438689]]]},"properties":{"building_id":"v4_b_ipb_rectorat","ref":"way/28240552 (Rectorat Universitatea Politehnica din București)","role":"building","source":"osm"}},{"type":"Feature","id":"v4_b_filatura_romaneasca_bumbac_buc","geometry":{"type":"Polygon","coordinates":[[[26.188664,44.433272],[26.189787,44.43303],[26.190565,44.433951],[26.190526,44.433976],[26.190758,44.434233],[26.190916,44.434272],[26.190985,44.434325],[26.192414,44.435892],[26.192478,44.435984],[26.193669,44.435574],[26.195305,44.437311],[26.195152,44.437378],[26.195019,44.43723],[26.194391,44.437519],[26.19444,44.437568],[26.194253,44.437664],[26.194979,44.438419],[26.195374,44.438825],[26.192483,44.440247],[26.192345,44.440222],[26.190847,44.438535],[26.191302,44.43832],[26.189878,44.436732],[26.189384,44.436898],[26.188922,44.436352],[26.189511,44.436092],[26.18919,44.43572],[26.189561,44.435547],[26.189659,44.435499],[26.18974,44.435584],[26.190008,44.43547],[26.190107,44.435431],[26.189735,44.434986],[26.190045,44.434837],[26.188955,44.433603],[26.188664,44.433272]]]},"properties":{"building_id":"v4_b_filatura_romaneasca_bumbac_buc","ref":"way/848875781 (named industrial polygon)","role":"building","source":"osm"}},{"type":"Feature","id":"v4_b_vc_depozit_piatra","geometry":{"type":"Polygon","coordinates":[[[26.161873,44.950997],[26.164593,44.951144],[26.165545,44.951153],[26.165528,44.950895],[26.165656,44.950895],[26.165656,44.950928],[26.165867,44.950926],[26.165872,44.95057],[26.165792,44.950568],[26.165787,44.950416],[26.166598,44.950413],[26.166594,44.949876],[26.166699,44.949874],[26.166693,44.949693],[26.166714,44.949647],[26.166696,44.94938],[26.166805,44.949377],[26.166825,44.949665],[26.169804,44.949579],[26.169792,44.949221],[26.171316,44.949158],[26.171492,44.949021],[26.171475,44.948663],[26.171904,44.948646],[26.171999,44.947972],[26.172299,44.947963],[26.172287,44.947343],[26.172546,44.947334],[26.172434,44.946173],[26.172087,44.945923],[26.171734,44.94554],[26.171481,44.94529],[26.171234,44.945098],[26.170975,44.944965],[26.17071,44.944861],[26.170492,44.944794],[26.170151,44.944715],[26.169479,44.944651],[26.16887,44.944644],[26.168195,44.941685],[26.168139,44.941428],[26.165506,44.941893],[26.163758,44.941927],[26.162969,44.940943],[26.161644,44.940615],[26.161023,44.9407],[26.160766,44.940736],[26.160546,44.940917],[26.161667,44.945075],[26.161866,44.945811],[26.161925,44.946143],[26.161925,44.946438],[26.161909,44.947895],[26.161892,44.949361],[26.161878,44.950604],[26.161873,44.950997]]]},"properties":{"building_id":"v4_b_vc_depozit_piatra","ref":"way/921119964 (Romfosfochim Valea Călugărească)","role":"building","source":"osm"}},{"type":"Feature","id":"v4_b_conect_hala_fabricatie","geometry":{"type":"Polygon","coordinates":[[[26.120878,44.482277],[26.121148,44.481887],[26.121408,44.481552],[26.121358,44.481535],[26.121395,44.48148],[26.121112,44.481385],[26.121867,44.480176],[26.122632,44.480417],[26.122865,44.480526],[26.123501,44.480767],[26.123792,44.480745],[26.123936,44.480787],[26.123031,44.48223],[26.122795,44.482245],[26.121065,44.482314],[26.120988,44.482299],[26.120878,44.482277]]]},"properties":{"building_id":"v4_b_conect_hala_fabricatie","ref":"way/41376827 (Conect Business Park)","role":"building","source":"osm"}},{"type":"Feature","id":"v4_b_castel_uzina_mija_1000","geometry":{"type":"Polygon","coordinates":[[[25.664037,44.904272],[25.664428,44.904201],[25.670592,44.901281],[25.671654,44.900876],[25.670432,44.899428],[25.669,44.899949],[25.668038,44.898935],[25.661458,44.902056],[25.660695,44.902524],[25.660729,44.902642],[25.660608,44.902694],[25.660659,44.904863],[25.664037,44.904272]]]},"properties":{"building_id":"v4_b_castel_uzina_mija_1000","ref":"way/88173453 (Uzina Mecanică Mija)","role":"building","source":"osm"}}]}