{"type": "FeatureCollection", "features": [{"type": "Feature", "id": "v1_b_P001_b_blocuri_ferentari_prime", "geometry": {"type": "Point", "coordinates": [26.079433, 44.39927]}, "properties": {"building_id": "v1_b_P001_b_blocuri_ferentari_prime", "batch_id": "P2_04", "locatable": "area", "precision": "area", "status": "area", "n_sources": "1", "n_agree": "1", "agreement_m": "", "outcome_1977": "moderate", "outcome_quote": "au produs avarierea stâlpilor și grinzilor", "status_today": "unknown", "status_source": "", "modern_address": "Cartierul Ferentari, sector 5, București", "historic_address_note": "Ferentari is the same district today", "dupacutremur_building_uid": "", "osm_footprint_ref": "way/240574482 (Ferentari suburb)", "wikidata": "", "confidence": "low", "notes": "pass2: no further evidence found. A group of unidentified early blocks in Ferentari; searches give only district history (Ferentari market estate 1947; blocks 1970-78 on Aleea Livezilor), not the 'first blocks executed in Ferentari' of the report. Point stays the Ferentari district anchor.", "open_question": "", "review_note": "", "sources": "[{\"source\": \"osm\", \"ref\": \"way/240574482\", \"lat\": 44.3992704, \"lon\": 26.0794334, \"precision\": \"area\", \"evidence\": \"OSM suburb Ferentari, sector 5\", \"retrieved\": \"2026-10-05\", \"by\": \"agent\", \"d_m\": 0}]", "checked_by": "agent (sonnet) + auto (s21)", "flags": "footprint_far:811m", "name": "primele blocuri executate în cartierul Ferentari", "type": "bc_bloc", "class": "group", "locality": "București", "address_1977": "", "period": "", "height": "", "system": "ss_cadre_ba", "iv_classes": "", "iv_techniques": "", "iv_only_proposed": "", "outcome_unit": "v1_p0177_02"}}, {"type": "Feature", "id": "v1_b_P001_b_brezoianu_7_vecini", "geometry": {"type": "Point", "coordinates": [26.09449, 44.434091]}, "properties": {"building_id": "v1_b_P001_b_brezoianu_7_vecini", "batch_id": "P2_05", "locatable": "area", "precision": "address", "status": "area", "n_sources": "2", "n_agree": "2", "agreement_m": "4", "outcome_1977": "severe", "outcome_quote": "avarierea gravă a unor clădiri din cauza prăbușirii unor imobile vecine", "status_today": "standing", "status_source": "https://www.openstreetmap.org/way/150803316", "modern_address": "Str. Ion Brezoianu, around nos. 7-9 (corner with Str. Domnita Anastasia), sector 5 (register), Bucuresti", "historic_address_note": "Str. Brezoianu = today Str. Ion Brezoianu (same street, number 7 unchanged; the collapsed no. 7 was Bloc Belvedere, per hartablocuri.ro). Brezoianu 9 is documented as damaged in 1977 (flickr archive).", "dupacutremur_building_uid": "wqswmc", "osm_footprint_ref": "way/150803316 (Brezoianu 9, damaged neighbour, standing)", "wikidata": "", "confidence": "medium", "notes": "Pass2: collapsed no.7 identified as Bloc Belvedere (corner Brezoianu / Domnita Anastasia; replaced by a later block with commercial ground floor, sources disagree on its date: by 1980 vs 1972-76). The plot of no.7 is ~30 m south of no.9. Point is the mean of the register and OSM points for no.9, the one neighbour with a 1977 damage record. The OSM street segment candidate from pass 1 (164 m away, Cismigiu end) was dropped as misplaced. Sector 5 tags of nos. 6/11 are plausible: the south end of Brezoianu lies across Bd. Regina Elisabeta from the sector 1 part. Which neighbouring buildings the report means is not identifiable.", "open_question": "Pin the plot of Brezoianu 7 (Belvedere) and the replacement block with an archive map; confirm that no.9 is among the damaged neighbours the report means.", "review_note": "", "sources": "[{\"source\": \"dupacutremur\", \"ref\": \"wqswmc\", \"lat\": 44.434065, \"lon\": 26.094515, \"precision\": \"address\", \"evidence\": \"Register record Brezoianu 9 (1932, S+P+6E), the block opposite the collapsed Belvedere at the Domnita Anastasia corner\", \"retrieved\": \"2026-10-05\", \"by\": \"agent+auto\", \"d_m\": 4}, {\"source\": \"osm\", \"ref\": \"way/150803316\", \"lat\": 44.434117, \"lon\": 26.094465, \"precision\": \"building\", \"evidence\": \"OSM apartment block with addr Strada Ion Brezoianu 9, 7 levels\", \"retrieved\": \"2026-10-05\", \"by\": \"agent\", \"d_m\": 4}, {\"source\": \"web\", \"ref\": \"https://www.flickr.com/photos/cutremur/albums/72177720310583905/\", \"lat\": null, \"lon\": null, \"precision\": \"address\", \"evidence\": \"Photo album: Brezoianu 9 and the block opposite Belvedere (Domnita Anastasia corner) damaged by the 1977 quake\", \"retrieved\": \"2026-10-05\", \"by\": \"agent\"}, {\"source\": \"web\", \"ref\": \"https://www.hartablocuri.ro/cutremur/\", \"lat\": null, \"lon\": null, \"precision\": \"address\", \"evidence\": \"List of collapsed blocks: Brezoianu 7 = Bloc Belvedere (P+10, 1938) collapsed totally in 1977\", \"retrieved\": \"2026-10-05\", \"by\": \"agent\"}, {\"source\": \"dupacutremur\", \"ref\": \"8sxk27 / 02npix (Brezoianu 6 and 11)\", \"lat\": 44.4339, \"lon\": 26.0946, \"precision\": \"street\", \"evidence\": \"Pass 1: register records of nos. 6 and 11 bracket no. 7 (interpolation only)\", \"retrieved\": \"2026-10-05\", \"by\": \"agent\", \"d_m\": 23}, {\"source\": \"nominatim\", \"ref\": \"way/119029862\", \"lat\": 44.4382296, \"lon\": 26.0930886, \"precision\": \"road\", \"evidence\": \"Nominatim: Strada Ion Brezoianu, Sărindar, Piața Romană, Cișmigiu, Sector 1, București, 010139, România\", \"retrieved\": \"2026-10-05\", \"by\": \"auto\", \"d_m\": 473}]", "checked_by": "agent (sonnet) + auto (s21)", "flags": "", "name": "clădirile învecinate cu imobilul prăbușit din Str. Brezoianu nr.7", "type": "", "class": "group", "locality": "București", "address_1977": "învecinate cu Str. Brezoianu nr.7", "period": "", "height": "", "system": "", "iv_classes": "", "iv_techniques": "", "iv_only_proposed": "", "outcome_unit": "v1_p0176_05"}}, {"type": "Feature", "id": "v1_b_P001_b_hristo_botey_10_vecini", "geometry": {"type": "Point", "coordinates": [26.106654, 44.434932]}, "properties": {"building_id": "v1_b_P001_b_hristo_botey_10_vecini", "batch_id": "P2_05", "locatable": "area", "precision": "address", "status": "area", "n_sources": "2", "n_agree": "1", "agreement_m": "", "outcome_1977": "severe", "outcome_quote": "avarierea gravă a unor clădiri din cauza prăbușirii unor imobile vecine", "status_today": "replaced", "status_source": "https://www.openstreetmap.org/way/178848627", "modern_address": "Bd. Hristo Botev around no. 10 (between nos. 8 and 12), sector 3, Bucuresti", "historic_address_note": "Hristo Botev has the same name today (Bd. Hristo Botev); \"Botey\" in the dossier is a typo. Collapsed no.10 documented by hartablocuri.ro (list of 1977/1940 collapses).", "dupacutremur_building_uid": "", "osm_footprint_ref": "way/178848627 (unaddressed 8-level block, probable replacement on the no.10 plot)", "wikidata": "", "confidence": "medium", "notes": "Pass2: the collapsed building is independently documented (hartablocuri.ro list) and the plot lies between OSM nos. 8 and 12 (even side); the register has no record of no.10, consistent with a later replacement. Point = mean of OSM no.8, OSM no.12 and the pass-1 register interpolation (all within ~40 m). The replacement identification (way/178848627) is inferred from position/levels only. Damaged neighbours are not identified (nos. 8 and 12 are candidates by adjacency only).", "open_question": "Confirm the plot of no.10 with an old map or photo; confirm way/178848627 is the replacement block.", "review_note": "", "sources": "[{\"source\": \"osm\", \"ref\": \"way/417208633\", \"lat\": 44.435192, \"lon\": 26.106356, \"precision\": \"building\", \"evidence\": \"OSM apartment block Bd. Hristo Botev 8 (8 levels), neighbour on the same side\", \"retrieved\": \"2026-10-05\", \"by\": \"agent\", \"d_m\": 37}, {\"source\": \"osm\", \"ref\": \"way/1173132999\", \"lat\": 44.434674, \"lon\": 26.106866, \"precision\": \"building\", \"evidence\": \"OSM building Bd. Hristo Botev 12, neighbour on the same side\", \"retrieved\": \"2026-10-05\", \"by\": \"agent\", \"d_m\": 33}, {\"source\": \"osm\", \"ref\": \"way/178848627\", \"lat\": 44.435015, \"lon\": 26.106631, \"precision\": \"building\", \"evidence\": \"OSM unaddressed 8-level apartment block between nos. 8 and 12 = probable plot of no.10 (replacement)\", \"retrieved\": \"2026-10-05\", \"by\": \"agent\", \"d_m\": 9}, {\"source\": \"web\", \"ref\": \"https://www.hartablocuri.ro/cutremur/\", \"lat\": null, \"lon\": null, \"precision\": \"address\", \"evidence\": \"List of collapsed blocks: Hristo Botev 10, P+9 block with 38 apartments, 1930s, total collapse 1977\", \"retrieved\": \"2026-10-05\", \"by\": \"agent\"}, {\"source\": \"dupacutremur\", \"ref\": \"61lmdb / kit7sw (Hristo Botev 8 and 14)\", \"lat\": 44.43493, \"lon\": 26.10674, \"precision\": \"street\", \"evidence\": \"Pass 1: register records of nos. 8 and 14 bracket no. 10 (no record for no. 10)\", \"retrieved\": \"2026-10-05\", \"by\": \"agent\", \"d_m\": 7}]", "checked_by": "agent (sonnet) + auto (s21)", "flags": "", "name": "clădirile învecinate cu imobilul prăbușit din Str. Hristo Botey nr.10", "type": "", "class": "group", "locality": "București", "address_1977": "învecinate cu Str. Hristo Botey nr.10", "period": "", "height": "", "system": "", "iv_classes": "", "iv_techniques": "", "iv_only_proposed": "", "outcome_unit": "v1_p0176_05"}}, {"type": "Feature", "id": "v1_b_X013_b_bucuresti_str_pricopan", "geometry": {"type": "Point", "coordinates": [26.072104, 44.405898]}, "properties": {"building_id": "v1_b_X013_b_bucuresti_str_pricopan", "batch_id": "P2_05", "locatable": "area", "precision": "area", "status": "area", "n_sources": "2", "n_agree": "2", "agreement_m": "32", "outcome_1977": "severe", "outcome_quote": "afectarea rezistenței și stabilității ansamblului structurii", "status_today": "standing", "status_source": "dupacutremur register (Aleea Pricopan 4-12 present today)", "modern_address": "Pricopan quarter (Str. Pricopan / Aleea Pricopan), Rahova, sector 5, Bucuresti", "historic_address_note": "Str. Pricopan has kept its name; Aleea Pricopan is the same quarter. The text gives no number.", "dupacutremur_building_uid": "", "osm_footprint_ref": "", "wikidata": "", "confidence": "low", "notes": "Pass2: the register shows a coherent set of five S+P+4E blocks of 1969 on Aleea Pricopan, which fits a 1960s quarter of low-rise blocks that could have load-bearing masonry; the text does not say which ones were damaged. Point = centroid of those five blocks (area anchor). The register is a different source family from OSM, but it does not prove these are the damaged buildings.", "open_question": "No source naming the damaged Pricopan buildings was found; likely unresolvable beyond the quarter.", "review_note": "", "sources": "[{\"source\": \"dupacutremur\", \"ref\": \"t1lb47\", \"lat\": 44.406044, \"lon\": 26.07146, \"precision\": \"building\", \"evidence\": \"Register: Aleea Pricopan 4, built 1969, S+P+4E (block of the Pricopan quarter)\", \"retrieved\": \"2026-10-05\", \"by\": \"agent\", \"d_m\": 54}, {\"source\": \"dupacutremur\", \"ref\": \"gai5sv\", \"lat\": 44.405701, \"lon\": 26.071831, \"precision\": \"building\", \"evidence\": \"Register: Aleea Pricopan 6, built 1969, S+P+4E (block of the Pricopan quarter)\", \"retrieved\": \"2026-10-05\", \"by\": \"agent\", \"d_m\": 31}, {\"source\": \"dupacutremur\", \"ref\": \"utb63p\", \"lat\": 44.405474, \"lon\": 26.071937, \"precision\": \"building\", \"evidence\": \"Register: Aleea Pricopan 6A, built 1969, S+P+4E (block of the Pricopan quarter)\", \"retrieved\": \"2026-10-05\", \"by\": \"agent\", \"d_m\": 49}, {\"source\": \"dupacutremur\", \"ref\": \"9jk71v\", \"lat\": 44.40598, \"lon\": 26.072249, \"precision\": \"building\", \"evidence\": \"Register: Aleea Pricopan 8, built 1969, S+P+4E (block of the Pricopan quarter)\", \"retrieved\": \"2026-10-05\", \"by\": \"agent\", \"d_m\": 15}, {\"source\": \"dupacutremur\", \"ref\": \"25x9ty\", \"lat\": 44.40629, \"lon\": 26.073045, \"precision\": \"building\", \"evidence\": \"Register: Aleea Pricopan 12, built 1969, S+P+4E (block of the Pricopan quarter)\", \"retrieved\": \"2026-10-05\", \"by\": \"agent\", \"d_m\": 87}, {\"source\": \"osm\", \"ref\": \"way/543713962\", \"lat\": 44.4068685, \"lon\": 26.0716637, \"precision\": \"street\", \"evidence\": \"Pass 1: Nominatim Strada Pricopan, Rahova, sector 5\", \"retrieved\": \"2026-10-05\", \"by\": \"agent\", \"d_m\": 113}, {\"source\": \"osm\", \"ref\": \"way/150893323\", \"lat\": 44.4060808, \"lon\": 26.0717931, \"precision\": \"street\", \"evidence\": \"Pass 1: adjacent Aleea Pricopan\", \"retrieved\": \"2026-10-05\", \"by\": \"agent\", \"d_m\": 32}]", "checked_by": "agent (sonnet) + auto (s21)", "flags": "", "name": "clădiri din Str. Pricopan", "type": "bc_locuinte", "class": "group", "locality": "București", "address_1977": "București (Str. Pricopan)", "period": "", "height": "", "system": "ss_zidarie", "iv_classes": "", "iv_techniques": "", "iv_only_proposed": "", "outcome_unit": "v1_p0145_04"}}, {"type": "Feature", "id": "v1_b_X015_b_pm_p4_sos_giurgiului", "geometry": {"type": "Point", "coordinates": [26.090326, 44.38005]}, "properties": {"building_id": "v1_b_X015_b_pm_p4_sos_giurgiului", "batch_id": "P2_05", "locatable": "area", "precision": "area", "status": "area", "n_sources": "2", "n_agree": "2", "agreement_m": "683", "outcome_1977": "unknown", "outcome_quote": "", "status_today": "unknown", "status_source": "", "modern_address": "Sos. Giurgiului, area of Intrarea Vrabiei, sector 4/5, Bucuresti", "historic_address_note": "Sos. Giurgiului unchanged. Secondary sources place the first experimental large-panel blocks (1956 P+3, 1959 P+4) in the Vrabiei/Giurgiului quarter.", "dupacutremur_building_uid": "", "osm_footprint_ref": "", "wikidata": "", "confidence": "low", "notes": "Pass2: moved the representative point from the unrelated register record (Giurgiului 126, 1962 P+7) to the Intrarea Vrabiei area, where a local-history article places the earliest experimental panel blocks. Evidence is locality-level and secondhand (a local-history blog and a search summary of an engineering paper); the exact blocks and whether any of the 1959-60 P+4 ones survive are unknown. The register has no 1955-61 record near Vrabiei.", "open_question": "Find an archive map or photo of the 1959 INCERC P+4 panel block; confirm the Vrabiei location in a primary source.", "review_note": "", "sources": "[{\"source\": \"osm\", \"ref\": \"way/23769813\", \"lat\": 44.3800497, \"lon\": 26.0903256, \"precision\": \"street\", \"evidence\": \"Nominatim: Intrarea Vrabiei, off Sos. Giurgiului; named in a local-history article as site of the first IDEB experimental panel dormitories\", \"retrieved\": \"2026-10-05\", \"by\": \"agent\", \"d_m\": 0}, {\"source\": \"web\", \"ref\": \"https://bercenidepoveste.ro/povesti-vechi-de-pe-giurgiului/\", \"lat\": null, \"lon\": null, \"precision\": \"area\", \"evidence\": \"Local history: first experimental large-panel IDEB dormitories (late 1950s) at Intrarea Vrabiei / Intrarea Giurgiului; 1962 serial blocks near Drumul Gazarului and Piata Progresul\", \"retrieved\": \"2026-10-05\", \"by\": \"agent\"}, {\"source\": \"web\", \"ref\": \"https://www.rric.ro/articole/vol4_nr3_art6.pdf\", \"lat\": null, \"lon\": null, \"precision\": \"street\", \"evidence\": \"Engineering literature: first large-panel experimental block (P+3, 1956) and the 1959 experimental P+4 block in the same quarter on Sos. Giurgiului\", \"retrieved\": \"2026-10-05\", \"by\": \"agent\"}, {\"source\": \"dupacutremur\", \"ref\": \"ccmk8m\", \"lat\": 44.386141, \"lon\": 26.091389, \"precision\": \"building\", \"evidence\": \"Pass 1: Giurgiului 126 (1962, S+P+7E): street anchor only, not a P+4 block\", \"retrieved\": \"2026-10-05\", \"by\": \"agent\", \"d_m\": 683}]", "checked_by": "agent (sonnet) + auto (s21)", "flags": "", "name": "blocuri pe Sos. Giurgiului (panouri mari, P+4)", "type": "bc_bloc", "class": "group", "locality": "București", "address_1977": "Sos. Giurgiului", "period": "1959...1960", "height": "P+4", "system": "ss_panouri_mari", "iv_classes": "", "iv_techniques": "", "iv_only_proposed": "", "outcome_unit": ""}}, {"type": "Feature", "id": "v1_b_X015_b_pm_p7_giurgiului_viilor", "geometry": {"type": "Point", "coordinates": [26.091864, 44.397075]}, "properties": {"building_id": "v1_b_X015_b_pm_p7_giurgiului_viilor", "batch_id": "P2_05", "locatable": "area", "precision": "area", "status": "area", "n_sources": "1", "n_agree": "1", "agreement_m": "", "outcome_1977": "unknown", "outcome_quote": "", "status_today": "unknown", "status_source": "", "modern_address": "Șos. Giurgiului - Șos. Viilor, București (sectors 4-5)", "historic_address_note": "Both street names unchanged", "dupacutremur_building_uid": "ccmk8m", "osm_footprint_ref": "", "wikidata": "", "confidence": "low", "notes": "Pass2: no further evidence found for the exact blocks. Added a local-history source that the 1962 serial blocks of Sos. Giurgiului stand near Piata Progresul / Drumul Gazarului, which is consistent with the register record Giurgiului 126 (1962, S+P+7E) but is still not proof of panel construction. Top-level point remains the mean of the two register records with matching year/height (an area midpoint, not a building).", "open_question": "Confirm these are IPIMPC large-panel blocks; locate the Sos. Viilor group with a source.", "review_note": "", "sources": "[{\"source\": \"dupacutremur\", \"ref\": \"ccmk8m\", \"lat\": 44.386022, \"lon\": 26.091368, \"precision\": \"building\", \"evidence\": \"Șos. Giurgiului 126, built 1962, S+P+7E: fits the 1961-63 P+7 profile\", \"retrieved\": \"2026-10-05\", \"by\": \"agent+auto\", \"d_m\": 1230}, {\"source\": \"dupacutremur\", \"ref\": \"idj7iv\", \"lat\": 44.40801, \"lon\": 26.092339, \"precision\": \"building\", \"evidence\": \"Șos. Viilor 95, built 1962, S+P+7E: fits the 1961-63 P+7 profile\", \"retrieved\": \"2026-10-05\", \"by\": \"agent\", \"d_m\": 1217}, {\"source\": \"web\", \"ref\": \"https://bercenidepoveste.ro/povesti-vechi-de-pe-giurgiului/\", \"lat\": null, \"lon\": null, \"precision\": \"area\", \"evidence\": \"Local history: from 1962 serial blocks (8-stair, two-section) built around Drumul Gazarului and Piata Progresul on Sos. Giurgiului\", \"retrieved\": \"2026-10-05\", \"by\": \"agent\"}]", "checked_by": "agent (sonnet) + auto (s21)", "flags": "", "name": "blocuri P+7 din panouri mari (Sos. Giurgiului și Sos. Viilor)", "type": "bc_bloc", "class": "group", "locality": "București", "address_1977": "Sos. Giurgiului și Sos. Viilor", "period": "1961...1963", "height": "P+7", "system": "ss_panouri_mari", "iv_classes": "", "iv_techniques": "", "iv_only_proposed": "", "outcome_unit": ""}}, {"type": "Feature", "id": "v1_b_X015_b_pm_p7_grivitei_1mai", "geometry": {"type": "Point", "coordinates": [26.049979, 44.47126]}, "properties": {"building_id": "v1_b_X015_b_pm_p7_grivitei_1mai", "batch_id": "P2_05", "locatable": "area", "precision": "area", "status": "area", "n_sources": "2", "n_agree": "2", "agreement_m": "107", "outcome_1977": "unknown", "outcome_quote": "", "status_today": "standing", "status_source": "dupacutremur register (Calea Griviței 236, 238, 395 present today)", "modern_address": "Calea Griviței at Piata Chibrit / Bd. Ion Mihalache (ex Bd. 1 Mai), sector 1, Bucuresti", "historic_address_note": "Bd. 1 Mai = today Bd. Ion Mihalache, confirmed by the Chibrit article (intersection of \"Bd. 1 Mai, now Ion Mihalache\" with Calea Griviței); Calea Griviței unchanged.", "dupacutremur_building_uid": "", "osm_footprint_ref": "way/156981265 (Bl. O, Calea Griviței 399)", "wikidata": "", "confidence": "medium", "notes": "Pass2: replaced the pass-1 anchor (Griviței 139, 1965, 3 km away with no panel link) with the 1959-61 Chibrit estate, where two independent non-register sources (a photo archive of the 1960-61 large-panel project and a press article on the 1959-61 systematisation) place large-panel blocks on Calea Griviței at the Bd. 1 Mai intersection. Point = centroid of four register/OSM buildings of 1960-61 in that stretch. The estate runs from Podul Constanta to Gara de Nord per the sources, so this is a group/area; which blocks use the IPB contour-joint system is not stated.", "open_question": "Identify the IPB panel-block numbers on Calea Griviței and on Bd. Ion Mihalache.", "review_note": "", "sources": "[{\"source\": \"osm\", \"ref\": \"way/156981265\", \"lat\": 44.47169, \"lon\": 26.049124, \"precision\": \"building\", \"evidence\": \"OSM Bl. O, Calea Griviței 399 (13 levels), the tower with the Grivita restaurant at Chibrit, named in a press article on the 1959-61 modernisation\", \"retrieved\": \"2026-10-05\", \"by\": \"agent\", \"d_m\": 83}, {\"source\": \"dupacutremur\", \"ref\": \"09rwos\", \"lat\": 44.472497, \"lon\": 26.049613, \"precision\": \"building\", \"evidence\": \"Register: Calea Griviței 238, built 1960, S+P+8E\", \"retrieved\": \"2026-10-05\", \"by\": \"agent\", \"d_m\": 141}, {\"source\": \"dupacutremur\", \"ref\": \"1iee6v\", \"lat\": 44.470317, \"lon\": 26.050215, \"precision\": \"building\", \"evidence\": \"Register: Calea Griviței 395, built 1960, S+P+7E+Ma\", \"retrieved\": \"2026-10-05\", \"by\": \"agent\", \"d_m\": 107}, {\"source\": \"dupacutremur\", \"ref\": \"799c1l\", \"lat\": 44.470535, \"lon\": 26.050965, \"precision\": \"building\", \"evidence\": \"Register: Calea Griviței 236, built 1961, S+P+8E\", \"retrieved\": \"2026-10-05\", \"by\": \"agent\", \"d_m\": 112}, {\"source\": \"web\", \"ref\": \"https://bucurestiivechisinoi.ro/2026/07/modernizarea-si-reconfigurarea-zonei-piata-chibrit-in-anii-1959-1961/\", \"lat\": null, \"lon\": null, \"precision\": \"area\", \"evidence\": \"Press/archive article: 1959-61 prefabricated blocks along Calea Griviței at Piata Chibrit, at the corner with Bd. 1 Mai (now Ion Mihalache)\", \"retrieved\": \"2026-10-05\", \"by\": \"agent\"}, {\"source\": \"web\", \"ref\": \"https://arhiva.uniuneaarhitectilor.ro/a-2647/blocuri-de-locuinte-din-panouri-mari-prefabricate-calea-grivitei-vedere-de\", \"lat\": null, \"lon\": null, \"precision\": \"area\", \"evidence\": \"Architects Union photo archive: \\\"large-panel prefabricated blocks, Calea Griviței\\\", project 1960-61 (Ricci, Juster)\", \"retrieved\": \"2026-10-05\", \"by\": \"agent\"}]", "checked_by": "agent (sonnet) + auto (s21)", "flags": "", "name": "blocuri din panouri mari (Calea Griviței și Bd. 1 Mai)", "type": "bc_bloc", "class": "group", "locality": "București", "address_1977": "Calea Griviței și Bd. 1 Mai", "period": "", "height": "", "system": "ss_panouri_mari", "iv_classes": "", "iv_techniques": "", "iv_only_proposed": "", "outcome_unit": ""}}, {"type": "Feature", "id": "v1_b_X016_b_ansamblu_piata_palatului", "geometry": {"type": "Point", "coordinates": [26.095098, 44.438013]}, "properties": {"building_id": "v1_b_X016_b_ansamblu_piata_palatului", "batch_id": "P2_05", "locatable": "area", "precision": "area", "status": "area", "n_sources": "3", "n_agree": "3", "agreement_m": "123", "outcome_1977": "none", "outcome_quote": "s-au comportat bine la cutremurul din 4.03.1977", "status_today": "standing", "status_source": "dupacutremur register + OSM; https://pressone.ro/blocurile-de-la-sala-palatului-simbol-de-trista-amintire-sau-monument-istoric", "modern_address": "Piata Sălii Palatului, blocks along Str. Ion Câmpineanu and around the hall, sector 1, Bucuresti", "historic_address_note": "Ensemble of Sala Palatului (1959-60) and the nine residential blocks (8 and 15 storeys) surrounding it.", "dupacutremur_building_uid": "", "osm_footprint_ref": "way/232472620 (Sala Palatului, centre of the ensemble)", "wikidata": "Q7403332", "confidence": "medium", "notes": "Pass2: found register records of 1959-60 residential blocks (8, 10 and 17 floors) on Str. Ion Câmpineanu around the hall, matching the architects-archive description of nine blocks of 8 and 15 storeys. Point = centroid of those register blocks (ensemble, not a single building); it lies ~100 m from the hall. The register does not tag them as the ensemble, so the match is by year, height and position.", "open_question": "Confirm the exact list of the nine blocks from an architecture source.", "review_note": "", "sources": "[{\"source\": \"dupacutremur\", \"ref\": \"ri3vby\", \"lat\": 44.438613, \"lon\": 26.093781, \"precision\": \"building\", \"evidence\": \"Register: Ion Câmpineanu 31, 1960, S+P+9E: block of the 1959-60 ensemble around the hall\", \"retrieved\": \"2026-10-05\", \"by\": \"agent\", \"d_m\": 124}, {\"source\": \"dupacutremur\", \"ref\": \"iauo42\", \"lat\": 44.439084, \"lon\": 26.093525, \"precision\": \"building\", \"evidence\": \"Register: Ion Câmpineanu 31, 1959, S+P+9E: block of the 1959-60 ensemble around the hall\", \"retrieved\": \"2026-10-05\", \"by\": \"agent\", \"d_m\": 173}, {\"source\": \"dupacutremur\", \"ref\": \"m8bdm0\", \"lat\": 44.43745, \"lon\": 26.095226, \"precision\": \"building\", \"evidence\": \"Register: Ion Câmpineanu 25, 1960, S+P+Mz+15E: block of the 1959-60 ensemble around the hall\", \"retrieved\": \"2026-10-05\", \"by\": \"agent\", \"d_m\": 63}, {\"source\": \"dupacutremur\", \"ref\": \"i0dfym\", \"lat\": 44.43756, \"lon\": 26.096408, \"precision\": \"building\", \"evidence\": \"Register: Ion Câmpineanu 24, 1960, S+P+8E+1T: block of the 1959-60 ensemble around the hall\", \"retrieved\": \"2026-10-05\", \"by\": \"agent\", \"d_m\": 116}, {\"source\": \"dupacutremur\", \"ref\": \"rugyr5\", \"lat\": 44.437359, \"lon\": 26.096548, \"precision\": \"building\", \"evidence\": \"Register: Ion Câmpineanu 24, 1960, S+P+8E+1T: block of the 1959-60 ensemble around the hall\", \"retrieved\": \"2026-10-05\", \"by\": \"agent\", \"d_m\": 136}, {\"source\": \"wikidata\", \"ref\": \"Q7403332\", \"lat\": 44.43888888888889, \"lon\": 26.095, \"precision\": \"site\", \"evidence\": \"Sala Palatului, centre of the ensemble (pass 1)\", \"retrieved\": \"2026-10-05\", \"by\": \"agent+auto\", \"d_m\": 98}, {\"source\": \"osm\", \"ref\": \"way/232472620\", \"lat\": 44.439122, \"lon\": 26.095125, \"precision\": \"building\", \"evidence\": \"OSM Sala Palatului footprint, Str. Ion Câmpineanu 28, start_date 1960\", \"retrieved\": \"2026-10-05\", \"by\": \"agent\", \"d_m\": 123}, {\"source\": \"web\", \"ref\": \"https://arhiva.uniuneaarhitectilor.ro/a-2577/piata-salii-palatului-sala-palatului-blocuri-de-locuinte\", \"lat\": null, \"lon\": null, \"precision\": \"area\", \"evidence\": \"Architects Union archive: ensemble of the hall and residential blocks (nine blocks of 8 and 15 storeys, ~900 apartments)\", \"retrieved\": \"2026-10-05\", \"by\": \"agent\"}]", "checked_by": "agent (sonnet) + auto (s21)", "flags": "footprint_far:123m", "name": "blocurile de locuințe din ansamblul Pieții Palatului", "type": "bc_bloc", "class": "group", "locality": "București", "address_1977": "", "period": "1959-1960", "height": "", "system": "", "iv_classes": "", "iv_techniques": "", "iv_only_proposed": "", "outcome_unit": "v1_p0188_01"}}, {"type": "Feature", "id": "v1_b_X016_b_blocuri_colentina", "geometry": {"type": "Point", "coordinates": [26.127853, 44.455045]}, "properties": {"building_id": "v1_b_X016_b_blocuri_colentina", "batch_id": "P2_05", "locatable": "area", "precision": "street", "status": "area", "n_sources": "1", "n_agree": "1", "agreement_m": "", "outcome_1977": "unknown", "outcome_quote": "", "status_today": "unknown", "status_source": "", "modern_address": "Șos. Colentina, București (sector 2)", "historic_address_note": "Șos. Colentina unchanged", "dupacutremur_building_uid": "z686ik", "osm_footprint_ref": "", "wikidata": "", "confidence": "low", "notes": "ISC-expertised sliding-formwork blocks of Șos. Colentina; the register shows many S+P+10E blocks of 1962-70 on this street, which ones is unknown. Anchor only. pass2: no further evidence found. Sliding-formwork (glisare) monolithic blocks of the 1970s are confirmed by general sources as a class with execution defects, but none names a Colentina address. The register has e.g. Sos. Colentina 33 (1970, S+P+10E, class RS2) as another block of the same type, not tied to the ISC expertises.", "open_question": "ISC expertises not public; likely unresolvable.", "review_note": "", "sources": "[{\"source\": \"dupacutremur\", \"ref\": \"z686ik\", \"lat\": 44.455045, \"lon\": 26.127853, \"precision\": \"building\", \"evidence\": \"Șos. Colentina 21, built 1969, S+P+10E: example of a block on the street\", \"retrieved\": \"2026-10-05\", \"by\": \"agent+auto\", \"d_m\": 0}]", "checked_by": "agent (sonnet) + auto (s21)", "flags": "", "name": "o serie de blocuri din Sos. Colentina", "type": "bc_bloc", "class": "group", "locality": "București", "address_1977": "", "period": "", "height": "", "system": "", "iv_classes": "", "iv_techniques": "", "iv_only_proposed": "", "outcome_unit": ""}}, {"type": "Feature", "id": "v1_b_X017_b_blocuri_punct_bd_pacii", "geometry": {"type": "Point", "coordinates": [26.029456, 44.434162]}, "properties": {"building_id": "v1_b_X017_b_blocuri_punct_bd_pacii", "batch_id": "P2_05", "locatable": "area", "precision": "area", "status": "area", "n_sources": "1", "n_agree": "1", "agreement_m": "", "outcome_1977": "moderate", "outcome_quote": "fără avarii semnificative la structură; avarii foarte mari la zidăria de b.c.a.", "status_today": "unknown", "status_source": "", "modern_address": "Bd. Iuliu Maniu, București (sector 6)", "historic_address_note": "Bd. Păcii = today Bd. Iuliu Maniu (between Lujerului and Autogara Militari), verified in ro.wikipedia Bulevardul Iuliu Maniu and a bucuresti.ro article on the boulevard.", "dupacutremur_building_uid": "s420nn", "osm_footprint_ref": "", "wikidata": "", "confidence": "low", "notes": "Top-level point is the mean of three register records with P+10/11 height on Bd. Iuliu Maniu; not confirmed as the 12.70x12.70 m point blocks. pass2: renaming now verified from two sources; no further evidence found for the 12.70 x 12.70 m point blocks themselves (the first Militari row on the north side dates from 1966, so the point blocks may be a later 1970s infill).", "open_question": "Check plan dimensions or a source on the point blocks of Bd. Păcii.", "review_note": "", "sources": "[{\"source\": \"dupacutremur\", \"ref\": \"s420nn\", \"lat\": 44.433877, \"lon\": 26.028686, \"precision\": \"building\", \"evidence\": \"Iuliu Maniu 57, 1972, S+P+11E\", \"retrieved\": \"2026-10-05\", \"by\": \"agent+auto\", \"d_m\": 69}, {\"source\": \"dupacutremur\", \"ref\": \"scitho\", \"lat\": 44.43384, \"lon\": 26.02634, \"precision\": \"building\", \"evidence\": \"Iuliu Maniu 59, 1976, S+P+11E\", \"retrieved\": \"2026-10-05\", \"by\": \"agent\", \"d_m\": 250}, {\"source\": \"dupacutremur\", \"ref\": \"9x7kz4\", \"lat\": 44.434769, \"lon\": 26.033342, \"precision\": \"building\", \"evidence\": \"Iuliu Maniu 23, 1976, S+P+10E\", \"retrieved\": \"2026-10-05\", \"by\": \"agent\", \"d_m\": 316}]", "checked_by": "agent (sonnet) + auto (s21)", "flags": "", "name": "blocurile tip punct de pe Bd. Păcii (P+10...11)", "type": "bc_bloc", "class": "group", "locality": "București", "address_1977": "Bd. Păcii", "period": "", "height": "P+10...11", "system": "ss_cadre_ba_monolit", "iv_classes": "", "iv_techniques": "", "iv_only_proposed": "", "outcome_unit": "v1_p0198_07"}}, {"type": "Feature", "id": "v1_b_X019_b_depouri_tramvaie_bucuresti", "geometry": {"type": "Point", "coordinates": [26.13147, 44.420219]}, "properties": {"building_id": "v1_b_X019_b_depouri_tramvaie_bucuresti", "batch_id": "P2_05", "locatable": "area", "precision": "area", "status": "area", "n_sources": "1", "n_agree": "1", "agreement_m": "", "outcome_1977": "moderate", "outcome_quote": "fisuri orizontale la stâlpi (articulații plastice); fisuri înclinate; avarierea articulațiilor la stâlpii exteriori; avariere superficială a betonului și coroziunea armăturii", "status_today": "unknown", "status_source": "https://forum.metrouusor.com/ViewTopic?pageNum=1&topicId=4913", "modern_address": "Depoul Dudești, Piața Alba Iulia (representative of six depots), București", "historic_address_note": "Six depots named in text. Resolved: Dudesti (Piata Alba Iulia, still a depot), Panduri (Sos. Panduri x Calea 13 Septembrie, now the Panduri hospital), Splaiul Unirii (Sos. Mihai Bravu x Splaiul Unirii, closed 1988). Not located: Bucurestii Noi, Floreasca, Serban Voda.", "dupacutremur_building_uid": "", "osm_footprint_ref": "way/983171912 (Depoul Dudesti, one of the six; still a depot)", "wikidata": "", "confidence": "low", "notes": "Pass2: three of six depots now located (Dudesti kept as the representative top-level point; the others are listed as separate candidates). Sources: OSM + a tram-history forum (secondary); the Panduri and Splaiul Unirii depots no longer exist, so only their sites are known. The remaining three are unresolved with the available tools (Nominatim returns nothing for the depot names).", "open_question": "Locate Bucurestii Noi, Floreasca and Serban Voda depots; check that the forum dates are right.", "review_note": "", "sources": "[{\"source\": \"osm\", \"ref\": \"way/983171912\", \"lat\": 44.4202192, \"lon\": 26.1314705, \"precision\": \"site\", \"evidence\": \"OSM industrial area 'Depoul Dudești' (Piața Alba Iulia, sector 3)\", \"retrieved\": \"2026-10-05\", \"by\": \"agent\", \"d_m\": 0}, {\"source\": \"osm\", \"ref\": \"way/244662436\", \"lat\": 44.425771, \"lon\": 26.072761, \"precision\": \"site\", \"evidence\": \"Spitalul Panduri, Sos. Panduri 20: stands on the former Panduri tram depot (Sos. Panduri x Calea 13 Septembrie), depot closed 1986\", \"retrieved\": \"2026-10-05\", \"by\": \"agent\", \"d_m\": 4703}, {\"source\": \"osm\", \"ref\": \"node/12578337945\", \"lat\": 44.409614, \"lon\": 26.122203, \"precision\": \"street\", \"evidence\": \"Junction Sos. Mihai Bravu x Splaiul Unirii: location of the former Splaiul Unirii depot (closed 1988); street-level only\", \"retrieved\": \"2026-10-05\", \"by\": \"agent\", \"d_m\": 1390}, {\"source\": \"web\", \"ref\": \"https://forum.metrouusor.com/ViewTopic?pageNum=1&topicId=4913\", \"lat\": null, \"lon\": null, \"precision\": \"site\", \"evidence\": \"Tram-history forum: depot histories (Panduri 1930-1986, Splaiul Unirii closed 1988; Dudesti and Bucurestii Noi still in service)\", \"retrieved\": \"2026-10-05\", \"by\": \"agent\"}]", "checked_by": "agent (sonnet) + auto (s21)", "flags": "", "name": "Halele depourilor de tramvaie din București", "type": "bc_hala", "class": "group", "locality": "București", "address_1977": "", "period": "în cea mai mare parte înainte de 1940", "height": "", "system": "ss_cadre_ba_monolit", "iv_classes": "", "iv_techniques": "", "iv_only_proposed": "", "outcome_unit": "v1_p0219_07"}}, {"type": "Feature", "id": "v1_b_X022_b_turnuri_racire_4_6_cet_bucuresti_sud", "geometry": {"type": "Point", "coordinates": [26.155958, 44.405641]}, "properties": {"building_id": "v1_b_X022_b_turnuri_racire_4_6_cet_bucuresti_sud", "batch_id": "P2_05", "locatable": "point", "precision": "site", "status": "single", "n_sources": "1", "n_agree": "1", "agreement_m": "", "outcome_1977": "moderate", "outcome_quote": "căderea unor grinzi și fisurarea unor stîlpi în sistemul interior de răcire", "status_today": "standing", "status_source": "OSM way/23707931", "modern_address": "CET Sud, Sălăjan, sector 3, București", "historic_address_note": "CET Sud = Centrala Electrică de Termoficare București Sud; towers 4-6 not individually mapped", "dupacutremur_building_uid": "", "osm_footprint_ref": "way/23707931", "wikidata": "", "confidence": "high", "notes": "Pass2: plant site confirmed by an independent source family: the operator gives the address Str. Releului 2B, and that street lies within ~0.5 km of the OSM landuse \"CET Sud\". Top-level point remains the OSM landuse centre (the polygon is large, so the centre is not on the cooling towers). OSM has no cooling-tower objects mapped near the plant; towers 4-6 are not located individually.", "open_question": "Towers 4-6 are not individually locatable from OSM; check aerial imagery if a per-tower point is needed.", "review_note": "", "sources": "[{\"source\": \"osm\", \"ref\": \"way/23707931\", \"lat\": 44.4056412, \"lon\": 26.155958, \"precision\": \"site\", \"evidence\": \"OSM industrial landuse 'CET Sud' in Sălăjan, sector 3\", \"retrieved\": \"2026-10-05\", \"by\": \"agent\", \"d_m\": 0}, {\"source\": \"web\", \"ref\": \"https://www.elcen.ro/service/cte-bucuresti-sud/\", \"lat\": null, \"lon\": null, \"precision\": \"address\", \"evidence\": \"Operator (Elcen): CTE Bucuresti Sud, str. Releului 2B, sector 3, in service since 1964\", \"retrieved\": \"2026-10-05\", \"by\": \"agent\"}, {\"source\": \"osm\", \"ref\": \"way/23708576\", \"lat\": 44.405109, \"lon\": 26.1505178, \"precision\": \"street\", \"evidence\": \"Nominatim: Strada Releului, Salajan, sector 3 (street of the Elcen address), ~500 m west of the OSM landuse centre\", \"retrieved\": \"2026-10-05\", \"by\": \"agent\", \"d_m\": 436}]", "checked_by": "agent (sonnet) + auto (s21)", "flags": "footprint_far:227m", "name": "turnurile de răcire 4, 5 și 6 de la CET București-Sud", "type": "bc_industrial_special", "class": "group", "locality": "București", "address_1977": "", "period": "", "height": "", "system": "", "iv_classes": "", "iv_techniques": "", "iv_only_proposed": "", "outcome_unit": "v1_p0241_05"}}, {"type": "Feature", "id": "v1_b_X013_b_iasi_socola_nicolina", "geometry": {"type": "Point", "coordinates": [27.593687, 47.142298]}, "properties": {"building_id": "v1_b_X013_b_iasi_socola_nicolina", "batch_id": "P2_06", "locatable": "area", "precision": "area", "status": "area", "n_sources": "1", "n_agree": "1", "agreement_m": "", "outcome_1977": "severe", "outcome_quote": "afectarea rezistenței și stabilității ansamblului structurii", "status_today": "unknown", "status_source": "", "modern_address": "Cartierele Socola și Nicolina, Iași", "historic_address_note": "Two adjoining neighbourhoods of south Iași.", "dupacutremur_building_uid": "", "osm_footprint_ref": "", "wikidata": "", "confidence": "medium", "notes": "pass2: no further evidence found. Searches for 1977 damage lists for Socola and Nicolina masonry blocks gave nothing specific; the representative point is still the mean of two OSM neighbourhood markers (Socola halt, Centrul de cartier Nicolina), which are not independent of each other. Genuine group, so area precision is appropriate.", "open_question": "Neighbourhood boundaries; a damage list naming the streets of the new masonry blocks.", "review_note": "", "sources": "[{\"source\": \"osm\", \"ref\": \"node/2188836678\", \"lat\": 47.1388769, \"lon\": 27.6064381, \"precision\": \"area\", \"evidence\": \"OSM railway halt Socola (neighbourhood marker).\", \"retrieved\": \"2026-10-05\", \"by\": \"agent\", \"d_m\": 1037}, {\"source\": \"osm\", \"ref\": \"node/1233509117\", \"lat\": 47.1457197, \"lon\": 27.5809358, \"precision\": \"area\", \"evidence\": \"OSM Centrul de cartier Nicolina.\", \"retrieved\": \"2026-10-05\", \"by\": \"agent\", \"d_m\": 1037}]", "checked_by": "agent (sonnet) + auto (s21)", "flags": "", "name": "cartierul Socola-Nicolina (Iași)", "type": "bc_locuinte", "class": "group", "locality": "Iași", "address_1977": "Iași (cartierul Socola-Nicolina)", "period": "", "height": "", "system": "ss_zidarie", "iv_classes": "", "iv_techniques": "", "iv_only_proposed": "", "outcome_unit": "v1_p0145_04"}}, {"type": "Feature", "id": "v1_b_X022_b_turnuri_racire_rafinaria_pitesti", "geometry": {"type": "Point", "coordinates": [24.92916, 44.80346]}, "properties": {"building_id": "v1_b_X022_b_turnuri_racire_rafinaria_pitesti", "batch_id": "P2_06", "locatable": "area", "precision": "site", "status": "area", "n_sources": "2", "n_agree": "2", "agreement_m": "390", "outcome_1977": "light", "outcome_quote": "avarii locale în structură", "status_today": "unknown", "status_source": "https://www.economica.net/incepe-demolarea-rafinariei-arpechim_96622.html", "modern_address": "Rafinăria Arpechim, Pitești", "historic_address_note": "", "dupacutremur_building_uid": "", "osm_footprint_ref": "way/88172678", "wikidata": "Q4795740", "confidence": "low", "notes": "pass2: refinery site confirmed by Wikipedia/Wikidata (rounded) as well as OSM. The OSM data has no cooling towers mapped inside the polygon, and the refinery has been in demolition procedures since 2016, so the towers may be gone. The individual forced-draught towers are not located; group kept at site level of the refinery.", "open_question": "Locate the towers on pre-2011 aerial imagery or in a plant layout.", "review_note": "", "sources": "[{\"source\": \"osm\", \"ref\": \"way/88172678\", \"lat\": 44.8034605, \"lon\": 24.9291595, \"precision\": \"site\", \"evidence\": \"OSM industrial landuse Rafinăria Arpechim; cooling towers inside it not mapped.\", \"retrieved\": \"2026-10-05\", \"by\": \"agent\", \"d_m\": 0}, {\"source\": \"wikipedia\", \"ref\": \"https://en.wikipedia.org/wiki/Arpechim_Refinery\", \"lat\": 44.8, \"lon\": 24.93, \"precision\": \"site\", \"evidence\": \"Arpechim refinery coordinates (rounded to 0.01 degree)\", \"retrieved\": \"2026-10-05\", \"by\": \"agent\", \"d_m\": 390}, {\"source\": \"wikidata\", \"ref\": \"Q4795740\", \"lat\": 44.8, \"lon\": 24.93, \"precision\": \"building\", \"evidence\": \"Wikidata P625\", \"retrieved\": \"2026-10-05\", \"by\": \"auto\", \"d_m\": 390}]", "checked_by": "agent (sonnet) + auto (s21)", "flags": "footprint_far:233m", "name": "turnurile de răcire cu tiraj forțat de la rafinăria Pitești", "type": "bc_industrial_special", "class": "group", "locality": "Pitești", "address_1977": "", "period": "", "height": "", "system": "", "iv_classes": "", "iv_techniques": "", "iv_only_proposed": "", "outcome_unit": "v1_p0241_04"}}, {"type": "Feature", "id": "v1_b_X013_b_ploiesti_ansamblul_nord", "geometry": {"type": "Point", "coordinates": [25.995287, 44.955573]}, "properties": {"building_id": "v1_b_X013_b_ploiesti_ansamblul_nord", "batch_id": "P3_01", "locatable": "area", "precision": "area", "status": "area", "n_sources": "1", "n_agree": "1", "agreement_m": "", "outcome_1977": "severe", "outcome_quote": "avarii foarte grave", "status_today": "unknown", "status_source": "https://www.hartablocuri.ro/ploiesti/", "modern_address": "Cartierul Nord, Ploiești - blocuri along Str. Cameliei (blocks 47, 50 identified in OSM)", "historic_address_note": "Cartierul Ploiești-Nord: first blocks in use 1962, blocks numbered 1-46 in phase one, later up to 150, accessed along Str. Cameliei (hartablocuri.ro). Blocks 14 and 16 of the report were not found by label.", "dupacutremur_building_uid": "", "osm_footprint_ref": "way/89565915 (Bloc 50, Str. Cameliei, Nord)", "wikidata": "", "confidence": "medium", "notes": "GENERIC: a group of 1963-64 masonry blocks; area of the quarter located, individual blocks 14 and 16 not placed. Searches: nom, photon 'Bloc 14/16 Strada Cameliei Ploiesti' (no Nord match; hits in other quarters rejected), WebSearch x3, hartablocuri (Nord numbering 1-150). Point is the mean of two OSM Nord blocks.", "open_question": "Locate blocks 14 and 16 of Cartierul Nord (they may be on side streets of the quarter).", "review_note": "", "sources": "[{\"source\": \"osm\", \"ref\": \"way/89565915\", \"lat\": 44.955951, \"lon\": 25.995676, \"precision\": \"area\", \"evidence\": \"Bloc 50, Str. Cameliei, quarter Nord\", \"retrieved\": \"2026-10-05\", \"by\": \"agent\", \"d_m\": 52}, {\"source\": \"osm\", \"ref\": \"way/80653008\", \"lat\": 44.955196, \"lon\": 25.994898, \"precision\": \"area\", \"evidence\": \"Bloc 47, Str. Cameliei, Ploiești\", \"retrieved\": \"2026-10-05\", \"by\": \"agent\", \"d_m\": 52}, {\"source\": \"web\", \"ref\": \"https://www.hartablocuri.ro/ploiesti/\", \"lat\": null, \"lon\": null, \"precision\": \"area\", \"evidence\": \"Cartierul Nord started 1962, blocks along Cameliei, near the county hospital\", \"retrieved\": \"2026-10-05\", \"by\": \"agent\"}]", "checked_by": "agent (sonnet) + auto (s21)", "flags": "", "name": "ansamblul Nord (Ploiești)", "type": "bc_bloc | bc_locuinte", "class": "group", "locality": "Ploiești", "address_1977": "Ploiești (ansamblul Nord)", "period": "1963-1964", "height": "P+4 | P+4E", "system": "ss_zidarie", "iv_classes": "global", "iv_techniques": "ms_camasuire;ms_torcretare", "iv_only_proposed": "0", "outcome_unit": "v1_p0145_04"}}, {"type": "Feature", "id": "v1_b_X019_b_blocuri_centrul_civic_ploiesti", "geometry": {"type": "Point", "coordinates": [26.024086, 44.940059]}, "properties": {"building_id": "v1_b_X019_b_blocuri_centrul_civic_ploiesti", "batch_id": "P3_02", "locatable": "area", "precision": "area", "status": "area", "n_sources": "2", "n_agree": "2", "agreement_m": "171", "outcome_1977": "severe", "outcome_quote": "fracturi în stâlpii zvelți ai parterului și avarii grave la casele scărilor, mai ales în latura de est", "status_today": "unknown", "status_source": "", "modern_address": "Centrul civic (Piața Victoriei / Bd. Republicii area), Ploiești", "historic_address_note": "Civic Centre = 1956-64 systematization of the old centre; east side blocks most damaged.", "dupacutremur_building_uid": "", "osm_footprint_ref": "way/667549716 (Piața Victoriei)", "wikidata": "Q179585", "confidence": "low", "notes": "Group; area only. Which blocks form the ensemble and which is the east side is not documented; the Piața Victoriei blocks A-F with ground-floor shops are a possibility but unproved. Searches: web x2, osm-near Piața Victoriei.", "open_question": "Identify the 1959-61 ensemble blocks from Ploiești urban history.", "review_note": "", "sources": "[{\"source\": \"wikipedia\", \"ref\": \"https://en.wikipedia.org/wiki/Ploie%C8%99ti\", \"lat\": null, \"lon\": null, \"precision\": \"area\", \"evidence\": \"Search summary: the present centre results from a 1956-64 systematization creating a new Civic Centre; Bd. Republicii links Piața Victoriei to Piața 1 Decembrie 1918.\", \"retrieved\": \"2026-10-05\", \"by\": \"agent\"}, {\"source\": \"osm\", \"ref\": \"way/667549716\", \"lat\": 44.940059, \"lon\": 26.0240855, \"precision\": \"street\", \"evidence\": \"Piața Victoriei, Ploiești (representative point of the centre).\", \"retrieved\": \"2026-10-05\", \"by\": \"agent\", \"d_m\": 0}, {\"source\": \"wikidata\", \"ref\": \"Q179585\", \"lat\": 44.94111111111111, \"lon\": 26.0225, \"precision\": \"building\", \"evidence\": \"Wikidata P625\", \"retrieved\": \"2026-10-05\", \"by\": \"auto\", \"d_m\": 171}]", "checked_by": "agent (sonnet) + auto (s21)", "flags": "footprint_ref_is_a_line", "name": "blocurile / ansamblul de locuințe cu magazine din Centrul civic Ploiești", "type": "bc_bloc", "class": "group", "locality": "Ploiești", "address_1977": "centrul civic", "period": "1959-1961", "height": "", "system": "", "iv_classes": "", "iv_techniques": "", "iv_only_proposed": "", "outcome_unit": "v1_p0214_01"}}, {"type": "Feature", "id": "v1_b_X021_b_hale_utilaj_petrolier_teleajen", "geometry": {"type": "Point", "coordinates": [26.092798, 44.944384]}, "properties": {"building_id": "v1_b_X021_b_hale_utilaj_petrolier_teleajen", "batch_id": "P2_06", "locatable": "point", "precision": "site", "status": "single", "n_sources": "1", "n_agree": "1", "agreement_m": "", "outcome_1977": "collapsed", "outcome_quote": "prăbușire parțială prin cedarea pereților de zidărie portantă", "status_today": "standing", "status_source": "https://www.openstreetmap.org/way/883833058", "modern_address": "UZTEL S.A. (former Întreprinderea de Utilaj Petrolier și Reparații Teleajen), Str. Mihai Bravu 243, Teleajen, Ploiești", "historic_address_note": "Until 1990 UZTEL was Întreprinderea de Utilaj Petrolier și Reparații Teleajen (I.U.P.R.T.); the workshops date from the Româno-Americană company (1904), which fits hale vechi cu zidărie portantă (UZTEL company history; HG 1213/1990).", "dupacutremur_building_uid": "", "osm_footprint_ref": "way/883833058 (S.C. UZTEL S.A. works)", "wikidata": "", "confidence": "medium", "notes": "pass2: upgraded from area to site. The enterprise is identified as the pre-1990 name of UZTEL S.A. (UZTEL company history, trade registry J29/48/1991, HG 1213/1990), whose works at Str. Mihai Bravu 243 are mapped in OSM (way/883833058). The two collapsed halls are not individually located, so the point is the works. The OSM polygon is the only geometric source; the identity rests on the company history and the closure list.", "open_question": "Which halls of the works collapsed (not in text).", "review_note": "", "sources": "[{\"source\": \"osm\", \"ref\": \"way/883833058\", \"lat\": 44.944384, \"lon\": 26.092798, \"precision\": \"site\", \"evidence\": \"OSM polygon S.C. UZTEL S.A. on Str. Mihai Bravu / Colonia Teleajen, Ploiești; centre of the polygon\", \"retrieved\": \"2026-10-05\", \"by\": \"agent\", \"d_m\": 0}, {\"source\": \"web\", \"ref\": \"https://cciph.ro/wp-content/uploads/2024/01/Prezentare-UZTEL.pdf\", \"lat\": null, \"lon\": null, \"precision\": \"address\", \"evidence\": \"UZTEL's own presentation: address 243 Mihai Bravu St., Ploiești; workshops of the Româno-Americană company (1904) became UZTEL in 1950\", \"retrieved\": \"2026-10-05\", \"by\": \"agent\"}, {\"source\": \"web\", \"ref\": \"https://www.observatorulph.ro/economic/22801-lista-fabricilor-din-prahova-inchise-dupa-1989\", \"lat\": null, \"lon\": null, \"precision\": \"locality\", \"evidence\": \"List of Prahova enterprises closed after 1989 contains Întreprinderea de utilaj petrolier și reparații Teleajen; successor name UZTEL per search results (company history, BVB reports)\", \"retrieved\": \"2026-10-05\", \"by\": \"agent\"}, {\"source\": \"osm\", \"ref\": \"node/8932556549\", \"lat\": 44.9470384, \"lon\": 26.0781419, \"precision\": \"area\", \"evidence\": \"pass-1 reference: Teleajen suburb node (area context only)\", \"retrieved\": \"2026-10-05\", \"by\": \"agent\", \"d_m\": 1191}]", "checked_by": "agent (sonnet) + auto (s21)", "flags": "", "name": "două hale de la Intreprinderea de utilaj petrolier și reparații din Teleajen", "type": "bc_hala", "class": "group", "locality": "Teleajen", "address_1977": "", "period": "", "height": "", "system": "", "iv_classes": "", "iv_techniques": "", "iv_only_proposed": "", "outcome_unit": "v1_p0230_06"}}, {"type": "Feature", "id": "v1_b_X022_b_rezervoare_romlux", "geometry": {"type": "Point", "coordinates": [25.427432, 44.927934]}, "properties": {"building_id": "v1_b_X022_b_rezervoare_romlux", "batch_id": "P2_07", "locatable": "area", "precision": "area", "status": "area", "n_sources": "1", "n_agree": "1", "agreement_m": "", "outcome_1977": "light", "outcome_quote": "avarii ușoare: fisuri verticale în zona de legătură monolită a camerei de vane cu pereții rezervoarelor", "status_today": "unknown", "status_source": "", "modern_address": "Fosta Fabrică de becuri Romlux (Romlux Lighting), Calea Câmpulung nr. 121, zona Romlux, Târgoviște, Dâmbovița", "historic_address_note": "Factory address Calea Câmpulung 121 (web directories); the Romlux neighbourhood and the 'Romlux hc' halt take their name from it. No renaming involved.", "dupacutremur_building_uid": "", "osm_footprint_ref": "", "wikidata": "", "confidence": "low", "notes": "pass2: factory identity and street address confirmed by two independent web families (commercial directories; Adevărul history) but still no coordinates for the plot, no OSM polygon for the factory and no source for the tank positions. The tanks are a group inside the plant (water tanks with valve chamber), so the best honest answer remains the Romlux zone on Calea Câmpulung. Top point = OSM neighbourhood 'ZONA ROMLUX' polygon centre. A coordinate seen via a search snippet (44.9284,25.4385) falls on Piața Eroilor, not on the plant, and was rejected.", "open_question": "Locate the Calea Câmpulung nr. 121 plot (cadastre/orthophoto) and the water tanks inside it.", "review_note": "", "sources": "[{\"source\": \"osm\", \"ref\": \"way/1147864059\", \"lat\": 44.9279344, \"lon\": 25.4274325, \"precision\": \"area\", \"evidence\": \"OSM neighbourhood 'ZONA ROMLUX', Târgoviște\", \"retrieved\": \"2026-10-05\", \"by\": \"agent\", \"d_m\": 0}, {\"source\": \"osm\", \"ref\": \"node/9885061056\", \"lat\": 44.9288121, \"lon\": 25.4360088, \"precision\": \"area\", \"evidence\": \"Railway halt 'Romlux hc', Calea Câmpulung (same OSM dataset)\", \"retrieved\": \"2026-10-05\", \"by\": \"agent\", \"d_m\": 682}, {\"source\": \"osm\", \"ref\": \"way/1193312128\", \"lat\": 44.928232, \"lon\": 25.431042, \"precision\": \"area\", \"evidence\": \"OSM bus stop 'Romlux 0/1' on Calea Câmpulung (marks the plant's street frontage only; same OSM dataset)\", \"retrieved\": \"2026-10-05\", \"by\": \"agent\", \"d_m\": 286}, {\"source\": \"web\", \"ref\": \"https://www.einformatii.ro/utile/constructii/romlux.html?utile_id=9565\", \"lat\": null, \"lon\": null, \"precision\": \"address\", \"evidence\": \"Directories give Romlux Lighting (ex-bulb factory, in operation from 1972) at Calea Câmpulung nr. 121, Târgoviște; no coordinates\", \"retrieved\": \"2026-10-05\", \"by\": \"agent\"}, {\"source\": \"web\", \"ref\": \"https://adevarul.ro/stiri-locale/targoviste/istoria-becului-de-romlux-planul-lui-ceausescu-de-1756227.html\", \"lat\": null, \"lon\": null, \"precision\": \"area\", \"evidence\": \"Plant built from 1970 as part of the northern industrial platform of Târgoviște; no street or coordinates, no mention of tanks\", \"retrieved\": \"2026-10-05\", \"by\": \"agent\"}]", "checked_by": "agent (sonnet) + auto (s21)", "flags": "", "name": "rezervoarele de la Fabrica de becuri \"Romlux\"", "type": "bc_industrial_special", "class": "group", "locality": "Tîrgoviște", "address_1977": "", "period": "", "height": "", "system": "", "iv_classes": "", "iv_techniques": "", "iv_only_proposed": "", "outcome_unit": "v1_p0241_02"}}, {"type": "Feature", "id": "v1_b_X022_b_turnuri_racire_rafinaria_teleajen", "geometry": {"type": "Point", "coordinates": [26.073239, 44.944011]}, "properties": {"building_id": "v1_b_X022_b_turnuri_racire_rafinaria_teleajen", "batch_id": "P2_07", "locatable": "point", "precision": "site", "status": "probable", "n_sources": "2", "n_agree": "1", "agreement_m": "", "outcome_1977": "moderate", "outcome_quote": "Unele avarii mai importante s-au produs la turnurile de răcire de la Rafinăria Teleajen", "status_today": "standing", "status_source": "OSM way/921896532 (refinery site); towers: OSM man_made=tower tower:type=cooling, one tagged demolished", "modern_address": "Petrotel-Lukoil refinery (ex-Rafinăria Teleajen), Ploiești, Prahova", "historic_address_note": "Wikipedia: refinery renamed Teleajen in 1979 and Petrotel-Lukoil from 1998; the 1978 report already uses the Teleajen name.", "dupacutremur_building_uid": "", "osm_footprint_ref": "way/921896532 (refinery industrial polygon; cooling towers way/565008650, 565008653, 564996667, 564996665, 565021480 inside)", "wikidata": "Q7179121", "confidence": "medium", "notes": "pass2: refinery site is solid (OSM polygon + Wikipedia coordinates 0.7 km apart, both inside the same plant). Five cooling towers are mapped inside the refinery, but nothing says which were the half-built 1977 towers (the report: towers under construction, structure partly executed), so the point stays at the site (polygon) and the towers are listed as candidates only. Whether the 1977 towers belonged to the refinery proper or the petrochemical complex (Brazi side) is not resolved.", "open_question": "Dates/identity of the 1977 half-built towers (Teleajen refinery vs petrochemical).", "review_note": "", "sources": "[{\"source\": \"osm\", \"ref\": \"way/921896532\", \"lat\": 44.9440112, \"lon\": 26.073239, \"precision\": \"site\", \"evidence\": \"Nominatim: industrial area Petrotel-Lukoil, Teleajen, Ploiești (large polygon ~4x2 km)\", \"retrieved\": \"2026-10-05\", \"by\": \"agent\", \"d_m\": 0}, {\"source\": \"wikipedia\", \"ref\": \"https://en.wikipedia.org/wiki/Petrotel_Lukoil_Refinery\", \"lat\": 44.9464, \"lon\": 26.0814, \"precision\": \"site\", \"evidence\": \"Article gives refinery coordinates 44 56 47 N 26 4 53 E; former Teleajen refinery\", \"retrieved\": \"2026-10-05\", \"by\": \"agent\", \"d_m\": 695}, {\"source\": \"osm\", \"ref\": \"way/565008650\", \"lat\": 44.94733, \"lon\": 26.07651, \"precision\": \"building\", \"evidence\": \"OSM man_made=tower cooling tower inside the refinery (one of five cooling-tower objects mapped there)\", \"retrieved\": \"2026-10-05\", \"by\": \"agent\", \"d_m\": 450}, {\"source\": \"osm\", \"ref\": \"way/564996667\", \"lat\": 44.94868, \"lon\": 26.07518, \"precision\": \"building\", \"evidence\": \"OSM cooling tower inside the refinery; neighbour way/564996665 (44.94864,26.07383) is tagged demolished\", \"retrieved\": \"2026-10-05\", \"by\": \"agent\", \"d_m\": 541}, {\"source\": \"osm\", \"ref\": \"way/565021480\", \"lat\": 44.95116, \"lon\": 26.08166, \"precision\": \"building\", \"evidence\": \"OSM natural-draft cooling tower in the north of the refinery\", \"retrieved\": \"2026-10-05\", \"by\": \"agent\", \"d_m\": 1035}]", "checked_by": "agent (sonnet) + auto (s21)", "flags": "footprint_far:375m", "name": "turnurile de răcire de la Rafinăria Teleajen", "type": "bc_industrial_special", "class": "group", "locality": "", "address_1977": "", "period": "", "height": "", "system": "", "iv_classes": "", "iv_techniques": "", "iv_only_proposed": "", "outcome_unit": "v1_p0241_05"}}, {"type": "Feature", "id": "v1_b_X023_b_diguri_arges_dambovita", "geometry": {"type": "Point", "coordinates": [26.47149, 44.2276]}, "properties": {"building_id": "v1_b_X023_b_diguri_arges_dambovita", "batch_id": "P2_07", "locatable": "area", "precision": "area", "status": "area", "n_sources": "2", "n_agree": "2", "agreement_m": "37", "outcome_1977": "moderate", "outcome_quote": "degradări pe circa 2300 m: fisuri, tasări, alunecări dig-mal", "status_today": "unknown", "status_source": "https://en.wikipedia.org/wiki/D%C3%A2mbovi%C8%9Ba_(river)", "modern_address": "Digurile Argeș-Dâmbovița la confluență, lângă Budești, jud. Călărași (~2300 m afectați; tronsonul exact neidentificat)", "historic_address_note": "Confluence zone of the Argeș and Dâmbovița rivers; the affected 2300 m stretch is not placed.", "dupacutremur_building_uid": "", "osm_footprint_ref": "relation/10698139 (Budești town)", "wikidata": "", "confidence": "medium", "notes": "pass2: confluence confirmed by two independent families (Wikipedia coordinates and OSM river topology, 70 m apart); top point = their mean. The dikes damaged over ~2300 m are somewhere along both rivers around the confluence; the stretch itself is not identified, so precision remains area.", "open_question": "Exact 2300 m stretch (left/right bank) not found.", "review_note": "", "sources": "[{\"source\": \"wikipedia\", \"ref\": \"https://en.wikipedia.org/wiki/D%C3%A2mbovi%C8%9Ba_(river)\", \"lat\": 44.22778, \"lon\": 26.47111, \"precision\": \"site\", \"evidence\": \"Mouth of the Dâmbovița into the Argeș at Budești, 44 13 40 N 26 28 16 E\", \"retrieved\": \"2026-10-05\", \"by\": \"agent\", \"d_m\": 36}, {\"source\": \"osm\", \"ref\": \"way/16867511#end\", \"lat\": 44.2274171, \"lon\": 26.4718732, \"precision\": \"site\", \"evidence\": \"End node of the OSM Dâmbovița river way = shared node with the Argeș river way (way/416082681): the confluence, topologically\", \"retrieved\": \"2026-10-05\", \"by\": \"agent\", \"d_m\": 37}, {\"source\": \"osm\", \"ref\": \"relation/10698139\", \"lat\": 44.233673, \"lon\": 26.4660291, \"precision\": \"locality\", \"evidence\": \"Budești commune centroid (nearest locality)\", \"retrieved\": \"2026-10-05\", \"by\": \"agent\", \"d_m\": 803}]", "checked_by": "agent (sonnet) + auto (s21)", "flags": "", "name": "digurile de pe Argeș și Dîmbovița, zona de confluență", "type": "bc_dig", "class": "group", "locality": "", "address_1977": "", "period": "", "height": "", "system": "", "iv_classes": "", "iv_techniques": "", "iv_only_proposed": "", "outcome_unit": "v1_p0258_02"}}, {"type": "Feature", "id": "v1_b_X025_b_blocuri_magheru_balcescu", "geometry": {"type": "Point", "coordinates": [26.09936, 44.44192]}, "properties": {"building_id": "v1_b_X025_b_blocuri_magheru_balcescu", "batch_id": "P2_07", "locatable": "area", "precision": "area", "status": "area", "n_sources": "2", "n_agree": "2", "agreement_m": "422", "outcome_1977": "unknown", "outcome_quote": "", "status_today": "standing", "status_source": "https://en.wikipedia.org/wiki/Bulevardul_Magheru", "modern_address": "Bd. Gheorghe Magheru – Bd. Nicolae Bălcescu, București (sectors 1 and 3)", "historic_address_note": "Magheru and Bălcescu form one continuous boulevard axis in central Bucharest; names unchanged. Context: old residential blocks in Bucharest.", "dupacutremur_building_uid": "", "osm_footprint_ref": "way/231769534 (Bd. Nicolae Bălcescu, a street segment)", "wikidata": "", "confidence": "medium", "notes": "pass2: group stays 'area'. Point moved to the centroid of the register's interwar blocks along the boulevard (Magheru-Bălcescu is one continuous axis; names unchanged since 1977). The register centroid and the OSM street point are 0.4 km apart; the text itself names no individual block. The corrosion text is not earthquake damage, hence outcome unknown.", "open_question": "Individual blocks unnamed in the report.", "review_note": "", "sources": "[{\"source\": \"dupacutremur\", \"ref\": \"area:magheru+balcescu\", \"lat\": 44.44192, \"lon\": 26.09936, \"precision\": \"area\", \"evidence\": \"Mean position of 14 interwar (1925-45) blocks on Bd. Magheru (10) and Bd. Bălcescu (4) in today's register - the old residential blocks the text means\", \"retrieved\": \"2026-10-05\", \"by\": \"agent\", \"d_m\": 0}, {\"source\": \"osm\", \"ref\": \"way/231769534\", \"lat\": 44.4383332, \"lon\": 26.1010865, \"precision\": \"street\", \"evidence\": \"Bulevardul Nicolae Bălcescu segment (pass 1, street only)\", \"retrieved\": \"2026-10-05\", \"by\": \"agent\", \"d_m\": 422}, {\"source\": \"wikipedia\", \"ref\": \"https://en.wikipedia.org/wiki/Bulevardul_Magheru\", \"lat\": null, \"lon\": null, \"precision\": \"street\", \"evidence\": \"Magheru axis with interwar blocks\", \"retrieved\": \"2026-10-05\", \"by\": \"agent\"}]", "checked_by": "agent (sonnet) + auto (s21)", "flags": "footprint_ref_is_a_line", "name": "blocurile de locuințe de pe Bd. Magheru-Bălcescu", "type": "", "class": "group", "locality": "", "address_1977": "Bd. Magheru-Bălcescu", "period": "", "height": "", "system": "", "iv_classes": "", "iv_techniques": "", "iv_only_proposed": "", "outcome_unit": ""}}, {"type": "Feature", "id": "v1_b_X038_b_blocuri_sos_pantelimon", "geometry": {"type": "Point", "coordinates": [26.16524, 44.44233]}, "properties": {"building_id": "v1_b_X038_b_blocuri_sos_pantelimon", "batch_id": "P2_07", "locatable": "area", "precision": "area", "status": "area", "n_sources": "2", "n_agree": "2", "agreement_m": "902", "outcome_1977": "severe", "outcome_quote": "cum a fost cazul ruperii casante a unor diafragme", "status_today": "unknown", "status_source": "", "modern_address": "Șos. Pantelimon, București (sector 2)", "historic_address_note": "Șoseaua Pantelimon unchanged in name; the specific blocks are not identified (the road is several km long).", "dupacutremur_building_uid": "", "osm_footprint_ref": "way/23704572 (Șos. Pantelimon street segment)", "wikidata": "", "confidence": "low", "notes": "pass2: still a group of unnamed blocks. New register evidence: only ten 10-14 storey blocks (1972-76) exist along Șos. Pantelimon, nos. 235-354, so the area is narrower than the whole road; their mean is the representative point. It is not shown that these particular blocks are the damaged ones (the 1977 text names no number).", "open_question": "Which Pantelimon blocks had brittle diaphragm failures (cf. other earthquake literature).", "review_note": "", "sources": "[{\"source\": \"dupacutremur\", \"ref\": \"area:pantelimon-highrise\", \"lat\": 44.44233, \"lon\": 26.16524, \"precision\": \"area\", \"evidence\": \"Mean position of 10 high-rise (S+P+10E to S+P+14E) blocks built 1972-76 along Șos. Pantelimon nos. 235-354 in today's register: the stock of high-rise blocks that could show brittle diaphragm failures\", \"retrieved\": \"2026-10-05\", \"by\": \"agent\", \"d_m\": 0}, {\"source\": \"osm\", \"ref\": \"way/23704572\", \"lat\": 44.4432668, \"lon\": 26.1539527, \"precision\": \"street\", \"evidence\": \"Șoseaua Pantelimon street segment (pass 1, street only)\", \"retrieved\": \"2026-10-05\", \"by\": \"agent\", \"d_m\": 902}]", "checked_by": "agent (sonnet) + auto (s21)", "flags": "footprint_ref_is_a_line", "name": "blocurile din Șos. Pantelimon", "type": "", "class": "group", "locality": "", "address_1977": "Sos. Pantelimon", "period": "", "height": "", "system": "", "iv_classes": "", "iv_techniques": "", "iv_only_proposed": "", "outcome_unit": "v1_p0411_05"}}, {"type": "Feature", "id": "v4_b_poenaru_bordea_18_20", "geometry": {"type": "Point", "coordinates": [26.09703, 44.427984]}, "properties": {"building_id": "v4_b_poenaru_bordea_18_20", "batch_id": "P3_06", "locatable": "point", "precision": "address", "status": "verified", "n_sources": "2", "n_agree": "2", "agreement_m": "34", "outcome_1977": "collapsed", "outcome_quote": "Vedere după cutremur (prăbușiri parțiale).", "status_today": "replaced", "status_source": "https://www.openstreetmap.org/node/2459574194", "modern_address": "Str. Poenaru Bordea 18-20, București (sector 4) - zona Piața Națiunile Unite", "historic_address_note": "Street appears as 'Bordea Poenaru' in OSM; numbers 18-20 continue east of no. 16 (register 44.42797,26.09662).", "dupacutremur_building_uid": "", "osm_footprint_ref": "way/197738509 (9-level apartment block at the site, date unknown)", "wikidata": "", "confidence": "medium", "notes": "Register has only Poenaru Bordea 4-16, none for 18/20 (collapsed). OSM address point 18 and the 9-level block way/197738509 3 m away show the plot. Group of two blocks; point is no. 18. The 9-level block may be later infill and is not proven to be the replacement.", "open_question": "Check what stands at the former no. 20 and whether way/197738509 post-dates 1977.", "review_note": "", "sources": "[{\"source\": \"osm\", \"ref\": \"node/2459574194\", \"lat\": 44.4279835, \"lon\": 26.0970302, \"precision\": \"address\", \"evidence\": \"OSM address point 18, Strada Bordea Poenaru\", \"retrieved\": \"2026-10-05\", \"by\": \"agent\", \"d_m\": 0}, {\"source\": \"dupacutremur\", \"ref\": \"rotdol\", \"lat\": 44.427947, \"lon\": 26.096605, \"precision\": \"address\", \"evidence\": \"Neighbouring no. 16 (S+P+7E, 1936), same type; numbering continues east; context for 18-20 only\", \"retrieved\": \"2026-10-05\", \"by\": \"agent\", \"d_m\": 34}, {\"source\": \"web\", \"ref\": \"https://www.hartablocuri.ro/cutremur/\", \"lat\": null, \"lon\": null, \"precision\": \"street\", \"evidence\": \"Nr. 18 P+7 35 flats partially collapsed; nr. 20 P+7 18 flats collapsed totally\", \"retrieved\": \"2026-10-05\", \"by\": \"agent\"}, {\"source\": \"nominatim\", \"ref\": \"way/217521903\", \"lat\": 44.4282477, \"lon\": 26.0963667, \"precision\": \"road\", \"evidence\": \"Nominatim: Strada Bordea Poenaru, Națiunile Unite, Principatele Unite, Centrul Civic, Sector 4, București, 040012, România\", \"retrieved\": \"2026-10-05\", \"by\": \"auto\", \"d_m\": 60}]", "checked_by": "agent (sonnet) + auto (s21)", "flags": "", "name": "Blocurile de locuințe din Str. Poenaru Bordea nr. 18 și 20", "type": "bc_bloc", "class": "group", "locality": "București", "address_1977": "Str. Poenaru Bordea nr. 18 și 20", "period": "", "height": "P+7", "system": "ss_cadre_ba", "iv_classes": "", "iv_techniques": "", "iv_only_proposed": "", "outcome_unit": ""}}, {"type": "Feature", "id": "v4_b_blocuri_6_10_pantelimon", "geometry": {"type": "Point", "coordinates": [26.16905, 44.44225]}, "properties": {"building_id": "v4_b_blocuri_6_10_pantelimon", "batch_id": "P3_09", "locatable": "area", "precision": "area", "status": "area", "n_sources": "2", "n_agree": "2", "agreement_m": "41", "outcome_1977": "severe", "outcome_quote": "Distrugerea unor buiandrugi (grinzi) la golurile de lîngă caja liftului.", "status_today": "standing", "status_source": "OSM way/37793810, way/152650099; register el2sjc", "modern_address": "Blocurile 6-10, Șos. Pantelimon (c. nr. 285-287), Mărcuța, București sector 2", "historic_address_note": "Șos. Pantelimon unchanged; OSM has blocks 6, 10 and 10A in one estate group with 11 levels", "dupacutremur_building_uid": "el2sjc", "osm_footprint_ref": "way/37793810 (Bl. 6) / way/152650099 (Bl. 10), 11 levels each", "wikidata": "", "confidence": "medium", "notes": "Group of blocks 6 to 10 (cellular diaphragm system, P+10 in caption): OSM Bl. 6 ... Bl. 10 sit together in a 1970s estate on Șos. Pantelimon with 11 levels, and the register shows S+P+10E blocks of 1972-76 at nos. 285-287. Group, so area precision; point = midpoint of Bl. 6 and Bl. 10. Searches: nom 'Bl. 6 Șoseaua Pantelimon', osm-near, dupa 'pantelimon'. Other Pantelimon estates cannot be excluded.", "open_question": "Confirm 6-10 vs other Pantelimon estates.", "review_note": "", "sources": "[{\"source\": \"osm\", \"ref\": \"way/37793810\", \"lat\": 44.44194, \"lon\": 26.168956, \"precision\": \"building\", \"evidence\": \"OSM Bl. 6, addr Șoseaua Pantelimon, 11 levels\", \"retrieved\": \"2026-10-05\", \"by\": \"agent\", \"d_m\": 35}, {\"source\": \"osm\", \"ref\": \"way/152650099\", \"lat\": 44.442616, \"lon\": 26.169258, \"precision\": \"building\", \"evidence\": \"OSM Bl. 10, 11 levels, ~75 m from Bl. 6\", \"retrieved\": \"2026-10-05\", \"by\": \"agent\", \"d_m\": 44}, {\"source\": \"dupacutremur\", \"ref\": \"el2sjc\", \"lat\": 44.442617, \"lon\": 26.168984, \"precision\": \"building\", \"evidence\": \"Register Șos. Pantelimon 287, S+P+10E, 1973, 11 floors at the Bl. 10 plot\", \"retrieved\": \"2026-10-05\", \"by\": \"agent+auto\", \"d_m\": 41}]", "checked_by": "agent (sonnet) + auto (s21)", "flags": "", "name": "Blocurile de locuințe 6-10", "type": "bc_bloc", "class": "group", "locality": "București", "address_1977": "Sos. Pantelimon", "period": "", "height": "P+10", "system": "ss_celular", "iv_classes": "", "iv_techniques": "", "iv_only_proposed": "", "outcome_unit": ""}}, {"type": "Feature", "id": "v4_b_blocuri_garii_de_nord", "geometry": {"type": "Point", "coordinates": [26.077737, 44.445253]}, "properties": {"building_id": "v4_b_blocuri_garii_de_nord", "batch_id": "P3_09", "locatable": "area", "precision": "area", "status": "area", "n_sources": "1", "n_agree": "1", "agreement_m": "", "outcome_1977": "severe", "outcome_quote": "Stîlp rupt din forță tăietoare la parter (Piața Gării de Nord).", "status_today": "standing", "status_source": "register vrc8ul, 8hdgx0", "modern_address": "Blocuri la Piața Gării de Nord / Str. Gării de Nord 2-4 și 6-8, București sector 1", "historic_address_note": "Bd. Gării de Nord assumed = today's Str. Gării de Nord (nos. 2-4 and 6-8); Piața Gării de Nord unchanged (renaming not documented in street_renamings.csv)", "dupacutremur_building_uid": "8hdgx0; vrc8ul", "osm_footprint_ref": "way/156818707 (Bl. C, 9 levels) in the group", "wikidata": "", "confidence": "medium", "notes": "Group (P+9 blocks on the square and on the street). Only two register blocks of S+P+9E, 1959 exist on Gării de Nord; both fit. Point = mean of the two. Searches: dupa 'garii de nord', osm-near, nom.", "open_question": "Verify the 1977 name of Str. Gării de Nord.", "review_note": "", "sources": "[{\"source\": \"dupacutremur\", \"ref\": \"8hdgx0\", \"lat\": 44.446176, \"lon\": 26.076287, \"precision\": \"building\", \"evidence\": \"Register Str. Gării de Nord 6-8, S+P+9E+1R, 1959, at the corner of Piața Gării de Nord (Mega Image Piața Gării de Nord 2 on ground floor)\", \"retrieved\": \"2026-10-05\", \"by\": \"agent\", \"d_m\": 154}, {\"source\": \"dupacutremur\", \"ref\": \"vrc8ul\", \"lat\": 44.444329, \"lon\": 26.079187, \"precision\": \"building\", \"evidence\": \"Register Str. Gării de Nord 2-4, S+P+9E, 1959\", \"retrieved\": \"2026-10-05\", \"by\": \"agent\", \"d_m\": 154}]", "checked_by": "agent (sonnet) + auto (s21)", "flags": "dupacutremur_uid_not_in_snapshot;footprint_far:120m", "name": "Blocurile de locuințe din Piața Gării de Nord și Bd. Gării de Nord", "type": "bc_bloc", "class": "group", "locality": "București", "address_1977": "Piața Gării de Nord și Bd. Gării de Nord", "period": "", "height": "P+9", "system": "ss_diafragme_ba", "iv_classes": "", "iv_techniques": "", "iv_only_proposed": "", "outcome_unit": ""}}, {"type": "Feature", "id": "v4_b_dorobanti_9_9b_group", "geometry": {"type": "Point", "coordinates": [26.09733, 44.454916]}, "properties": {"building_id": "v4_b_dorobanti_9_9b_group", "batch_id": "P3_09", "locatable": "area", "precision": "area", "status": "area", "n_sources": "1", "n_agree": "1", "agreement_m": "", "outcome_1977": "severe", "outcome_quote": "Stîlp de rost, între cele 2 blocuri, rupt din cauza ciocnirii blocurilor (etaj VIII).", "status_today": "standing", "status_source": "OSM ways 165942324/165942318 (Bl. 9), 165942322 (Bl. 9A)", "modern_address": "Bl. 9 și Bl. 9A (9B?), Calea Dorobanților 111-131, București sector 1", "historic_address_note": "Calea Dorobanți unchanged; 1977 'Nr. 9 and 9B' read as estate block labels (estate-block rule); OSM has Bl. 9 and Bl. 9A, not 9B", "dupacutremur_building_uid": "", "osm_footprint_ref": "way/165942318 + way/165942324 (Bl. 9), way/165942322 (Bl. 9A, 9 levels)", "wikidata": "", "confidence": "low", "notes": "Odd numbers 9/9B do not exist as street numbers near Piața Romană (41-75) or here, so they are block labels. In the Dorobanți estate at Calea Dorobanților 111-135 OSM has adjacent Bl. 9 and Bl. 9A (9 levels). Caption pair 'Nr. 9 and 9B' (frame, P+8-15, joint column between them) fits an adjacent pair; the suffix A vs B differs (probable OSM labelling or 1977 variant). Single family. Searches: dupa 'dorobanti' 9, nom, photon 'Bloc 9 Calea Dorobantilor', osm-near.", "open_question": "Is OSM 'Bl. 9A' the 1977 'Bl. 9B'?", "review_note": "", "sources": "[{\"source\": \"osm\", \"ref\": \"way/165942318\", \"lat\": 44.455415, \"lon\": 26.097076, \"precision\": \"building\", \"evidence\": \"OSM Bl. 9, Calea Dorobanților 111-131-135\", \"retrieved\": \"2026-10-05\", \"by\": \"agent\", \"d_m\": 59}, {\"source\": \"osm\", \"ref\": \"way/165942324\", \"lat\": 44.455024, \"lon\": 26.097204, \"precision\": \"building\", \"evidence\": \"OSM second polygon named Bl. 9, 8 m from the previous\", \"retrieved\": \"2026-10-05\", \"by\": \"agent\", \"d_m\": 16}, {\"source\": \"osm\", \"ref\": \"way/165942322\", \"lat\": 44.454612, \"lon\": 26.097521, \"precision\": \"building\", \"evidence\": \"OSM Bl. 9A, 9 levels, adjacent (50 m)\", \"retrieved\": \"2026-10-05\", \"by\": \"agent\", \"d_m\": 37}]", "checked_by": "agent (sonnet) + auto (s21)", "flags": "", "name": "Blocurile de locuințe Nr. 9 și 9B din București, Calea Dorobanți", "type": "bc_bloc", "class": "group", "locality": "București", "address_1977": "Calea Dorobanți 9 și 9B", "period": "", "height": "P+8-15", "system": "ss_cadre_ba_monolit", "iv_classes": "", "iv_techniques": "", "iv_only_proposed": "", "outcome_unit": ""}}, {"type": "Feature", "id": "v4_b_armata_poporului_13_14", "geometry": {"type": "Point", "coordinates": [26.03825, 44.43466]}, "properties": {"building_id": "v4_b_armata_poporului_13_14", "batch_id": "P3_09", "locatable": "point", "precision": "building", "status": "single", "n_sources": "1", "n_agree": "1", "agreement_m": "", "outcome_1977": "moderate", "outcome_quote": "Avarii la grinzile de rost de la casa scării, în zona de rezemare.", "status_today": "standing", "status_source": "OSM ways 152230497 and 152230483", "modern_address": "Bl. 13 și Bl. 14, Bd. Iuliu Maniu 14 și 16, Militari, București sector 6", "historic_address_note": "Bd. Armata Poporului = Bd. Iuliu Maniu (verified in street_renamings.csv); block labels 13 and 14 match OSM", "dupacutremur_building_uid": "", "osm_footprint_ref": "way/152230497 (Bl. 13) + way/152230483 (Bl. 14), 11 levels each", "wikidata": "", "confidence": "medium", "notes": "Estate-block rule: the caption's 'Nr. 13-14' are block numbers; two adjacent OSM blocks named Bl. 13 and Bl. 14 stand on Bd. Iuliu Maniu (ex-Armata Poporului), 11 levels = P+10 within 'P+9...11'. Point = mean of the two. Searches: nom 'Bl. 13/14 Iuliu Maniu', osm-near, dupa 'maniu' (no register match).", "open_question": "Second independent source.", "review_note": "", "sources": "[{\"source\": \"osm\", \"ref\": \"way/152230497\", \"lat\": 44.43464, \"lon\": 26.038937, \"precision\": \"building\", \"evidence\": \"OSM Bl. 13, Bd. Iuliu Maniu 14, 11 levels\", \"retrieved\": \"2026-10-05\", \"by\": \"agent\", \"d_m\": 55}, {\"source\": \"osm\", \"ref\": \"way/152230483\", \"lat\": 44.434686, \"lon\": 26.037567, \"precision\": \"building\", \"evidence\": \"OSM Bl. 14, Bd. Iuliu Maniu 16, 11 levels (adjacent)\", \"retrieved\": \"2026-10-05\", \"by\": \"agent\", \"d_m\": 54}]", "checked_by": "agent (sonnet) + auto (s21)", "flags": "", "name": "Blocurile de locuințe Nr.13-14 din București, Bd. Armata Poporului", "type": "bc_bloc", "class": "group", "locality": "București", "address_1977": "Bd. Armata Poporului 13-14", "period": "", "height": "P+9...11", "system": "ss_cadre_ba", "iv_classes": "", "iv_techniques": "", "iv_only_proposed": "", "outcome_unit": ""}}]}